{"type": "Feature", "properties": {"ID_0": 105, "ISO": "IND", "NAME_0": "India", "ID_1": 15, "NAME_1": "Jammu and Kashmir", "NL_NAME_1": null, "VARNAME_1": null, "TYPE_1": "State", "ENGTYPE_1": "State"}, "geometry": {"type": "Polygon", "coordinates": [[[77.89956665039091, 35.4278945922851], [77.90296936035168, 35.42758941650396], [77.91018676757818, 35.42935943603521], [77.91987609863281, 35.43433761596697], [77.92092895507841, 35.434879302978516], [77.9280166625976, 35.44054031372082], [77.94377899169928, 35.462955474853516], [77.94458770751982, 35.464111328125114], [77.95128631591791, 35.473640441894645], [77.96172332763683, 35.48006057739252], [77.96688079834013, 35.48131561279297], [77.99064636230474, 35.48711013793957], [78.00999450683622, 35.48918914794922], [78.01998138427751, 35.490261077880916], [78.04535675048845, 35.4910888671875], [78.06375122070318, 35.491691589355526], [78.06481933593767, 35.49172592163086], [78.07935333251959, 35.492198944091854], [78.08194732666016, 35.49169921875023], [78.08769989013689, 35.4905891418457], [78.09429931640653, 35.48929977416998], [78.103988647461, 35.48445892334007], [78.10704803466803, 35.4804306030274], [78.10983276367205, 35.476768493652344], [78.11080169677734, 35.472660064697266], [78.10769653320312, 35.464569091797046], [78.1044998168947, 35.46181869506836], [78.09732818603527, 35.45563888549816], [78.07964324951166, 35.448150634765625], [78.07183074951166, 35.44684982299816], [78.07019042968756, 35.444641113281364], [78.06887817382818, 35.44287872314476], [78.03169250488287, 35.42306137084961], [78.03009796142595, 35.42046737670921], [78.02983093261747, 35.42002868652355], [78.02845764160162, 35.41928100585949], [78.0245971679688, 35.417171478271655], [78.0212020874024, 35.41688156127941], [78.02076721191423, 35.41646957397484], [78.0194931030274, 35.41526031494152], [77.9970703125, 35.3940887451173], [77.99028778076178, 35.379032135009766], [77.98995971679716, 35.36363983154297], [77.99185180664074, 35.3485488891601], [77.99434661865263, 35.344928741455305], [78.00151062011719, 35.297969818115234], [78.00202178955072, 35.29462051391613], [78.00636291503935, 35.290351867675895], [78.0137023925783, 35.26418685913086], [78.01774597167974, 35.24975204467796], [78.0318374633789, 35.22023010253906], [78.04276275634771, 35.20233154296881], [78.04360961914062, 35.20132827758795], [78.05221557617205, 35.19109725952143], [78.05755615234392, 35.1847496032716], [78.05972290039068, 35.183109283447266], [78.06902313232439, 35.17604064941429], [78.0774002075197, 35.172706604003906], [78.07834625244158, 35.17232894897484], [78.11605072021513, 35.14535140991211], [78.11843872070318, 35.142436981201286], [78.12417602539068, 35.135421752929915], [78.12605285644548, 35.129039764404354], [78.12531280517584, 35.12599182128906], [78.12431335449236, 35.121891021728516], [78.11709594726562, 35.111640930176065], [78.1110229492188, 35.107341766357536], [78.09771728515636, 35.09793090820307], [78.08894348144543, 35.09582901000999], [78.0883178710938, 35.095680236816406], [78.08428192138689, 35.09077072143549], [78.08287048339872, 35.082489013671875], [78.09494781494158, 35.05690002441435], [78.1148300170899, 35.01475906372076], [78.11827850341803, 35.0066490173341], [78.12110900878912, 35.00000000000023], [78.1303100585938, 34.978340148925724], [78.13347625732439, 34.9708709716798], [78.16731262207037, 34.91213989257824], [78.17359924316412, 34.90629959106457], [78.17515563964855, 34.90280532836937], [78.18464660644537, 34.88151931762724], [78.18833923339872, 34.86278152465826], [78.20732116699224, 34.76610946655285], [78.21039581298834, 34.75893402099621], [78.2186889648437, 34.73955917358404], [78.2210464477539, 34.734031677246094], [78.23156738281256, 34.716800689697266], [78.23176574707037, 34.716537475585994], [78.24803161621122, 34.69509887695307], [78.26570129394537, 34.67938995361334], [78.27259826660162, 34.67494583129894], [78.27404785156267, 34.67401123046881], [78.28436279296892, 34.667362213134766], [78.30033874511719, 34.66193008422857], [78.30680084228544, 34.66092300415039], [78.31733703613298, 34.659278869628906], [78.32353973388683, 34.65658187866234], [78.32492065429716, 34.6559791564942], [78.38717651367188, 34.651630401611385], [78.39552307128906, 34.64939117431646], [78.39836120605463, 34.64863204956083], [78.39872741699247, 34.64835357666027], [78.40458679199224, 34.643920898437614], [78.40701293945312, 34.636631011962834], [78.40689086914074, 34.621028900146484], [78.40931701660162, 34.613498687744254], [78.41812896728521, 34.60540008544933], [78.42511749267595, 34.60346221923851], [78.43546295166021, 34.60285949707037], [78.44315338134794, 34.60240173339838], [78.4591522216798, 34.60278701782249], [78.48223114013683, 34.603340148925895], [78.51154327392584, 34.609111785888786], [78.53711700439459, 34.61415100097662], [78.55816650390653, 34.614749908447436], [78.56933593750006, 34.611949920654524], [78.58207702636736, 34.603149414062614], [78.6110916137697, 34.583061218261776], [78.62100982666033, 34.57427978515648], [78.63762664794928, 34.55229949951172], [78.64382934570341, 34.54780960083008], [78.6524887084961, 34.53815460205078], [78.66005706787104, 34.52972030639654], [78.6806182861331, 34.51560211181652], [78.68618774414057, 34.51276016235374], [78.6963195800783, 34.50759124755871], [78.7166366577149, 34.50100708007818], [78.73007965087908, 34.49665069580101], [78.73611450195341, 34.49166870117193], [78.73826599121094, 34.489891052246094], [78.74935913085955, 34.47698974609398], [78.7503509521485, 34.47505187988281], [78.75283813476568, 34.470169067382926], [78.75405120849638, 34.46901321411133], [78.76302337646513, 34.4604606628418], [78.78847503662126, 34.441421508789006], [78.7993774414063, 34.433269500732536], [78.82495117187506, 34.414131164550895], [78.8372573852539, 34.40701675415039], [78.8380966186524, 34.40652847290062], [78.87568664550787, 34.394653320312614], [78.89155578613293, 34.389640808105696], [78.91503906250028, 34.37884140014654], [78.92254638671892, 34.37538909912121], [78.92743682861357, 34.37163543701172], [78.92917633056635, 34.37030029296875], [78.93989562988298, 34.362079620361555], [78.96073913574224, 34.346099853515796], [78.96884918212885, 34.341629028320426], [78.97673797607422, 34.33393096923834], [78.98146057128906, 34.33285140991211], [78.98922729492216, 34.319267272949446], [78.99005126953142, 34.317829132080305], [78.99421691894526, 34.30252075195324], [78.99340057373058, 34.288742065429915], [78.98499298095709, 34.26779174804699], [78.9750061035158, 34.24285888671869], [78.95619964599615, 34.217830657959155], [78.94211578369169, 34.20479202270536], [78.93534088134783, 34.19961166381847], [78.91036224365234, 34.180500030517805], [78.89435577392584, 34.170021057128906], [78.88887786865246, 34.16643142700207], [78.87904357910173, 34.16132736206049], [78.87114715576183, 34.15723037719749], [78.85883331298845, 34.15180206298851], [78.81531524658197, 34.13261032104498], [78.77426147460966, 34.11450958251953], [78.77094268798834, 34.11373901367182], [78.76389312744146, 34.112106323242244], [78.76066589355474, 34.11135864257835], [78.75946044921892, 34.11108016967796], [78.72923278808605, 34.09569931030285], [78.72443389892584, 34.0914039611817], [78.71331787109392, 34.08145904541027], [78.70638275146513, 34.072181701660156], [78.70614624023443, 34.05863952636719], [78.71212005615229, 34.05047988891613], [78.73184967041021, 34.04253005981445], [78.75953674316412, 34.036338806152344], [78.75987243652344, 34.0362663269043], [78.76064300537115, 34.036098480224666], [78.76595306396501, 34.032508850097656], [78.76828765869146, 34.02574920654308], [78.7703628540039, 34.01972961425781], [78.76841735839861, 34.014469146728516], [78.76362609863276, 34.001510620117244], [78.7428970336914, 33.98728179931635], [78.72841644287115, 33.97734069824247], [78.71578979492205, 33.96453094482433], [78.71425628662126, 33.95946884155285], [78.71615600585955, 33.94894027709984], [78.71724700927763, 33.94895935058594], [78.71665954589872, 33.93909072875988], [78.71492767333996, 33.93344879150402], [78.71156311035156, 33.92250061035162], [78.71724700927763, 33.890480041504134], [78.72566986083979, 33.87112045288109], [78.7417831420899, 33.84017944335949], [78.76132202148466, 33.817340850830305], [78.76203155517584, 33.81650924682617], [78.7750625610351, 33.80125045776367], [78.78054809570324, 33.78919219970709], [78.783988952637, 33.77043151855469], [78.77529144287126, 33.74640274047857], [78.7752227783206, 33.74621963500982], [78.76239776611334, 33.73065948486351], [78.75756072998064, 33.72645950317383], [78.73731994628906, 33.70888137817411], [78.73724365234386, 33.70881652832031], [78.73175048828153, 33.70404052734369], [78.70929718017595, 33.6796112060548], [78.70842742919928, 33.67610931396507], [78.70678710937494, 33.6694793701173], [78.70935058593756, 33.66054916381859], [78.71098327636713, 33.654869079589844], [78.727279663086, 33.6227760314942], [78.72992706298828, 33.61756896972662], [78.74223327636747, 33.59741210937494], [78.74347686767584, 33.595375061035156], [78.75811004638672, 33.57139205932617], [78.76319885253935, 33.563049316406364], [78.77068328857416, 33.55204391479498], [78.78386688232439, 33.5326499938966], [78.79115295410156, 33.525188446045036], [78.8038711547851, 33.5068092346192], [78.81859588623064, 33.48907852172874], [78.82073211669928, 33.486515045166016], [78.82325744628912, 33.48348999023449], [78.87039947509794, 33.43970108032232], [78.8715286254884, 33.43907928466808], [78.87565612792974, 33.43680191040045], [78.89539337158232, 33.42031097412115], [78.92125701904303, 33.398700714111385], [78.9411010742188, 33.39007949829107], [78.95481109619146, 33.37417984008789], [78.97268676757812, 33.3673210144043], [78.9795303344726, 33.3587760925293], [78.98866271972685, 33.347370147705305], [78.99870300292974, 33.34022521972679], [79.004150390625, 33.33634948730486], [79.01954650878935, 33.33079910278326], [79.0337982177735, 33.31357955932623], [79.03656768798822, 33.31208801269531], [79.04765319824236, 33.30611038208008], [79.06659698486334, 33.29589080810547], [79.07079315185553, 33.29092025756859], [79.07311248779303, 33.28359985351574], [79.06926727294928, 33.27310943603527], [79.06610870361357, 33.26448059082037], [79.0668487548831, 33.25462341308605], [79.06720733642584, 33.24983215332037], [79.0714721679687, 33.23816299438471], [79.07496643066406, 33.228610992431925], [79.09298706054716, 33.22045898437506], [79.11328125000017, 33.211280822754134], [79.12773132324213, 33.20473861694347], [79.14144134521513, 33.200099945068416], [79.15701293945318, 33.197910308838004], [79.16476440429705, 33.19681930541992], [79.18049621582037, 33.194610595703125], [79.18298339843756, 33.19292068481457], [79.18546295166021, 33.19123077392584], [79.20622253417974, 33.19395065307617], [79.21237182617199, 33.19475936889654], [79.31517028808605, 33.18880081176758], [79.35584259033232, 33.18952941894554], [79.37725830078142, 33.1899108886721], [79.39362335205072, 33.18893051147472], [79.39908599853521, 33.187149047851506], [79.40197753906278, 33.18489456176769], [79.40983581542963, 33.17877197265625], [79.41683197021496, 33.166690826416186], [79.4175415039063, 33.15523910522461], [79.4154663085938, 33.147659301757756], [79.41320037841803, 33.141914367675895], [79.41075134277372, 33.13570022583019], [79.39853668212919, 33.11471176147472], [79.39726257324219, 33.109432220458984], [79.39502716064459, 33.10720062255871], [79.39328002929705, 33.10544586181646], [79.3905563354495, 33.10271072387707], [79.37358856201166, 33.073429107666016], [79.37328338623053, 33.071998596191406], [79.37230682373064, 33.06745910644554], [79.36760711669928, 33.06161117553711], [79.36618041992205, 33.05984115600586], [79.35492706298845, 33.030609130859375], [79.35301971435564, 33.0225906372072], [79.35186767578125, 33.01774215698242], [79.35002899169928, 32.99618148803711], [79.35073089599626, 32.99126052856468], [79.35099029541021, 32.989421844482536], [79.35121917724621, 32.98781585693371], [79.35247039794939, 32.979030609130916], [79.362113952637, 32.96205902099638], [79.36503601074236, 32.956920623779354], [79.38111114501959, 32.93956756591791], [79.38313293457026, 32.9373893737793], [79.38712310791044, 32.9330787658692], [79.39096069335938, 32.930438995361385], [79.39906311035162, 32.92486953735357], [79.41867065429688, 32.911399841308594], [79.43206024169928, 32.90510940551769], [79.43485260009783, 32.90032958984392], [79.44185638427763, 32.89466094970726], [79.4462127685548, 32.89113998413109], [79.44857788085955, 32.88922882080078], [79.45439910888678, 32.880352020263615], [79.45506286621111, 32.87805938720726], [79.45697021484392, 32.87142944335949], [79.4645233154298, 32.81674194335932], [79.47122955322294, 32.80282211303734], [79.47782135009771, 32.796241760254134], [79.48442077636719, 32.78966140747093], [79.49630737304693, 32.78411102294933], [79.51523590087896, 32.7752799987793], [79.52672576904325, 32.76758956909191], [79.53334045410162, 32.75986099243164], [79.54052734375017, 32.748691558838004], [79.5440292358399, 32.739501953125], [79.54541015625028, 32.73586654663109], [79.5473937988283, 32.73065185546881], [79.55539703369158, 32.709640502929915], [79.56124877929716, 32.68402862548828], [79.56259155273466, 32.67816925048851], [79.56429290771513, 32.670761108398494], [79.55776977539068, 32.63061904907238], [79.55355834960943, 32.62026977539074], [79.54982757568354, 32.614391326904354], [79.54535675048834, 32.60736083984392], [79.52404785156278, 32.59589004516607], [79.52200317382812, 32.59479141235363], [79.51436614990234, 32.592864990234546], [79.50878906250028, 32.59146118164091], [79.48854064941412, 32.59283065795921], [79.48497009277372, 32.59307098388672], [79.4781265258789, 32.59293365478521], [79.46414947509794, 32.5926513671875], [79.44801330566423, 32.58607864379883], [79.43630981445341, 32.57990264892578], [79.43031311035162, 32.57674026489258], [79.40381622314459, 32.55768966674805], [79.36222076416021, 32.537559509277344], [79.36148834228521, 32.53703689575195], [79.3599700927735, 32.535949707031364], [79.35324096679705, 32.53112792968773], [79.34697723388678, 32.526641845703125], [79.32025146484375, 32.49129867553728], [79.31373596191423, 32.4878883361817], [79.31221771240251, 32.48709106445324], [79.30493164062494, 32.48654937744152], [79.29734039306658, 32.48852920532238], [79.27011871337896, 32.51778030395508], [79.26071929931658, 32.52227783203125], [79.25840759277344, 32.52338027954107], [79.25794219970709, 32.52333450317383], [79.25321960449247, 32.522857666015625], [79.24816131591803, 32.5223503112793], [79.23497772216814, 32.518989562988395], [79.2330932617188, 32.51850891113287], [79.22310638427729, 32.515960693359375], [79.2208862304688, 32.51539611816406], [79.2138290405274, 32.51359939575195], [79.20693206787126, 32.51184082031256], [79.20295715332037, 32.510829925537166], [79.18330383300781, 32.5010223388673], [79.16506958007824, 32.49192047119135], [79.14885711669933, 32.483829498291016], [79.12894439697266, 32.46642684936535], [79.1265258789063, 32.46430969238298], [79.12172698974615, 32.4561119079591], [79.12024688720714, 32.45357894897484], [79.12007904052763, 32.453289031982365], [79.11814880371105, 32.45000076293957], [79.1197814941408, 32.43832015991234], [79.12187957763689, 32.42324066162121], [79.12133789062506, 32.41762161254877], [79.12119293212902, 32.416130065918026], [79.111801147461, 32.39929199218756], [79.10912322998053, 32.38322067260748], [79.10446929931635, 32.371711730957145], [79.09564208984386, 32.367938995361555], [79.091850280762, 32.3690299987793], [79.07662963867188, 32.37901687622093], [79.06754302978521, 32.384979248046875], [79.06423950195312, 32.38522720336914], [79.0597000122072, 32.38557052612316], [79.0492172241211, 32.383369445801065], [79.04904937744146, 32.38325500488281], [79.04654693603516, 32.38156890869146], [79.02498626709001, 32.36701202392578], [78.9937591552735, 32.36429977416998], [78.98252868652355, 32.34582138061546], [78.97720336914091, 32.34276962280296], [78.97373199462896, 32.343608856201286], [78.97096252441406, 32.34428024291998], [78.92399597167997, 32.36331939697277], [78.91886138916044, 32.36539840698242], [78.91467285156278, 32.36709213256836], [78.91413879394548, 32.36771011352539], [78.90232849121111, 32.381393432617415], [78.90001678466797, 32.384071350097884], [78.88800048828125, 32.392372131347656], [78.88582611083996, 32.3959770202639], [78.87457275390636, 32.414619445800895], [78.86744689941406, 32.419090270996094], [78.85692596435564, 32.41894149780302], [78.8360214233399, 32.4252815246582], [78.82122039794916, 32.43627166748064], [78.819808959961, 32.437320709228686], [78.81790161132818, 32.43873977661144], [78.81636047363287, 32.44062042236328], [78.7979278564456, 32.46318054199219], [78.79641723632841, 32.46427536010765], [78.78118133544922, 32.475299835205135], [78.7766723632813, 32.48392868041998], [78.77542877197294, 32.49055099487305], [78.7755813598634, 32.51635360717779], [78.77559661865263, 32.51966094970709], [78.7726058959961, 32.54434967041044], [78.76792144775396, 32.55327224731445], [78.76675415039068, 32.55549240112316], [78.76555633544939, 32.557762145996094], [78.76425170898455, 32.564842224121094], [78.76371002197271, 32.567810058594034], [78.76516723632812, 32.57493972778332], [78.77649688720709, 32.5881805419923], [78.78032684326178, 32.59832000732433], [78.77929687500017, 32.60224533081066], [78.77578735351591, 32.61562728881836], [78.7705688476563, 32.63552093505888], [78.76805877685564, 32.662979125976676], [78.76521301269531, 32.67369079589838], [78.76456451416044, 32.67609405517584], [78.76391601562506, 32.678489685058594], [78.76027679443365, 32.684169769287166], [78.74592590332048, 32.696079254150675], [78.74214172363287, 32.69601821899437], [78.73645019531256, 32.69593048095709], [78.71703338623058, 32.68072891235357], [78.66426849365234, 32.656490325927734], [78.65442657470709, 32.649230957031364], [78.65162658691435, 32.6444206237793], [78.63233947753918, 32.61106109619146], [78.62567138671886, 32.607051849365234], [78.60328674316412, 32.6043815612793], [78.59976959228544, 32.605258941650504], [78.594711303711, 32.606521606445426], [78.58695220947277, 32.60845947265619], [78.55927276611334, 32.612339019775504], [78.54985046386736, 32.61231994628923], [78.54950714111334, 32.61231994628923], [78.54519653320341, 32.61230850219738], [78.54492950439459, 32.61230850219738], [78.53894042968744, 32.61042785644531], [78.53704833984375, 32.609832763671875], [78.53675079345709, 32.609741210937614], [78.5310821533206, 32.60795974731474], [78.52641296386719, 32.6064910888673], [78.50885772705095, 32.59471893310541], [78.50328063964844, 32.58956146240246], [78.4959106445313, 32.58274841308594], [78.48561096191412, 32.57321929931658], [78.47966003417986, 32.573120117187614], [78.47274017334013, 32.57786178588867], [78.4724960327149, 32.5780296325683], [78.4715194702149, 32.578239440918196], [78.4702758789062, 32.578502655029354], [78.46161651611334, 32.58034896850586], [78.45272064208979, 32.579502105713004], [78.44332885742199, 32.57207489013689], [78.43788909912126, 32.56777191162121], [78.41223907470714, 32.556060791015625], [78.41145324707037, 32.55430984497076], [78.4043273925783, 32.538730621338004], [78.40522766113276, 32.5252304077149], [78.41125488281256, 32.51982498168957], [78.41204833984386, 32.51911544799805], [78.41652679443376, 32.51509857177757], [78.41333770751959, 32.513240814208984], [78.41075897216791, 32.51174163818371], [78.40917205810553, 32.51202011108427], [78.40892028808594, 32.512710571289006], [78.40522766113276, 32.514228820800724], [78.40525817871111, 32.515121459960994], [78.40141296386713, 32.51818084716808], [78.40025329589872, 32.52368164062523], [78.39906311035162, 32.526371002197266], [78.39791870117193, 32.527069091796875], [78.39438629150408, 32.528530120849666], [78.3824310302735, 32.5296516418457], [78.3766860961914, 32.52605056762701], [78.35636138916044, 32.51266098022478], [78.31040954589872, 32.475929260253906], [78.30623626708979, 32.47774887084961], [78.27851867675787, 32.50793075561529], [78.29503631591814, 32.5224609375], [78.29917144775419, 32.52927017211914], [78.29662322998053, 32.577510833740405], [78.30236816406261, 32.57870101928734], [78.31799316406256, 32.580211639404354], [78.33175659179716, 32.584869384765625], [78.34062194824236, 32.593059539795036], [78.37706756591797, 32.6148796081543], [78.38881683349638, 32.62322998046881], [78.37590789794939, 32.6296119689942], [78.37092590332048, 32.63816070556652], [78.36315155029303, 32.67198944091797], [78.3636779785158, 32.68553161621094], [78.36756896972662, 32.6995201110841], [78.37782287597673, 32.71931076049816], [78.37494659423845, 32.72264862060558], [78.37121582031256, 32.733699798583984], [78.37074279785173, 32.745849609375], [78.37277221679716, 32.76015090942394], [78.37135314941412, 32.76182937622076], [78.36428070068376, 32.76298141479498], [78.34474182128935, 32.76343154907221], [78.313949584961, 32.74898147583025], [78.2876586914063, 32.737831115722656], [78.29461669921875, 32.73160934448242], [78.29811096191412, 32.724830627441406], [78.29856109619152, 32.71974182128912], [78.29572296142607, 32.71281051635748], [78.2848663330081, 32.706779479980696], [78.27274322509771, 32.70293045043957], [78.25911712646513, 32.70291900634783], [78.23658752441435, 32.69467163085932], [78.2332611083985, 32.683700561523665], [78.22496795654325, 32.67555999755871], [78.21293640136747, 32.66918945312506], [78.20163726806646, 32.665199279785384], [78.1949920654298, 32.66733169555664], [78.18395233154325, 32.663871765136946], [78.17951202392584, 32.670410156250114], [78.17047882080095, 32.67721176147455], [78.15841674804682, 32.679130554199446], [78.15254211425798, 32.67901992797857], [78.14444732666027, 32.67660140991222], [78.13600158691412, 32.670318603515625], [78.13066101074224, 32.66006088256836], [78.12666320800787, 32.64910125732422], [78.12149810791021, 32.642349243164176], [78.11615753173834, 32.642410278320256], [78.10698699951172, 32.6497421264649], [78.09926605224638, 32.65996932983421], [78.09337615966791, 32.662151336669865], [78.08851623535162, 32.659832000732536], [78.07900238037115, 32.65279006958019], [78.07293701171903, 32.644401550293026], [78.06745910644531, 32.625621795654524], [78.06533050537138, 32.624279022216854], [78.0590133666995, 32.62458038330101], [78.04409790039068, 32.62884140014654], [78.03389739990251, 32.63560867309582], [78.0327377319336, 32.6337509155274], [78.03244018554693, 32.628391265869084], [78.03443145751982, 32.61565017700195], [78.03675842285173, 32.61085891723633], [78.04146575927763, 32.60530090332037], [78.0416107177735, 32.599239349365234], [78.03579711914062, 32.59194946289068], [78.02744293212908, 32.588649749755916], [78.01743316650419, 32.587028503418026], [77.98705291748053, 32.588199615478516], [77.9825592041015, 32.5865287780764], [77.97669982910173, 32.59194183349615], [77.9749526977539, 32.596370697021484], [77.9678497314456, 32.60797882080101], [77.96222686767584, 32.61380004882807], [77.95947265625028, 32.62073898315458], [77.95424652099615, 32.62596130371105], [77.95510101318354, 32.63481903076172], [77.95265960693376, 32.64039993286127], [77.94647979736357, 32.64273071289074], [77.93891143798845, 32.64802169799816], [77.93229675292974, 32.65620040893566], [77.92716217041021, 32.66262054443354], [77.9262084960938, 32.666809082031364], [77.92021179199219, 32.67951202392601], [77.9109725952149, 32.688179016113224], [77.90325164794939, 32.69309997558605], [77.90239715576183, 32.698410034179744], [77.90566253662138, 32.70359039306652], [77.90625762939482, 32.712348937988395], [77.90847778320318, 32.716388702392635], [77.90943908691412, 32.72138977050781], [77.91203308105486, 32.72576904296875], [77.918472290039, 32.73078918457037], [77.9156265258789, 32.73369216918945], [77.91182708740251, 32.73651123046881], [77.91432189941423, 32.741779327392805], [77.91440582275396, 32.744541168212834], [77.91716003417969, 32.75188064575201], [77.91793060302751, 32.7569198608399], [77.91689300537121, 32.76272964477539], [77.91513061523443, 32.76605987548828], [77.91227722167974, 32.767169952392635], [77.90892791748075, 32.77212142944359], [77.90349578857428, 32.772899627685604], [77.8994979858399, 32.77532196044933], [77.8908767700197, 32.77450942993164], [77.88748168945318, 32.775260925293196], [77.8808975219726, 32.77540969848644], [77.8762969970706, 32.780010223388786], [77.87224578857428, 32.78625106811529], [77.86696624755888, 32.79029083251953], [77.8690032958985, 32.80036926269531], [77.86454772949236, 32.80651855468756], [77.8638305664063, 32.81145095825207], [77.86126708984375, 32.81616210937494], [77.85497283935547, 32.821189880371094], [77.85254669189453, 32.82518005371111], [77.84760284423834, 32.828411102295036], [77.8313827514649, 32.835041046142635], [77.82508850097662, 32.83987045288097], [77.81881713867193, 32.838531494140796], [77.81431579589872, 32.83617019653326], [77.80821228027372, 32.836040496826286], [77.79899597167974, 32.84584045410179], [77.7918777465822, 32.84926986694336], [77.78774261474615, 32.849761962890625], [77.78087615966803, 32.8540992736817], [77.77578735351591, 32.85470199584984], [77.76772308349615, 32.85847091674805], [77.76142883300787, 32.864830017089844], [77.7659759521485, 32.880290985107536], [77.77274322509794, 32.89091110229498], [77.78698730468756, 32.891689300537166], [77.79250335693365, 32.89807891845709], [77.7901687622072, 32.90542984008812], [77.7817459106447, 32.91003036499029], [77.77803039550787, 32.9157791137697], [77.75956726074247, 32.927410125732536], [77.75099182128935, 32.93603134155285], [77.74762725830095, 32.93941879272472], [77.74745941162115, 32.940509796142635], [77.74717712402372, 32.94221115112305], [77.74478912353521, 32.945869445800724], [77.73895263671903, 32.94726943969738], [77.73641967773443, 32.94787216186518], [77.73412322998053, 32.95032119750988], [77.72734069824247, 32.957550048828296], [77.72313690185575, 32.96435928344732], [77.71248626708979, 32.97180175781244], [77.70832824707048, 32.967319488525334], [77.7036895751956, 32.96612930297863], [77.6998825073245, 32.969039916992415], [77.69670867919939, 32.973350524902344], [77.6950073242188, 32.977821350097884], [77.69087219238293, 32.97941970825201], [77.67948913574213, 32.97777938842785], [77.67800140380876, 32.980720520019645], [77.67086029052763, 32.986270904541016], [77.66520690917986, 32.98603057861351], [77.66307830810541, 32.97592926025396], [77.6599884033206, 32.96895980834984], [77.65637207031278, 32.96596145629894], [77.65331268310575, 32.95940017700201], [77.64987945556669, 32.958290100097656], [77.64334869384771, 32.95785140991211], [77.63849639892578, 32.95613861083996], [77.6233673095706, 32.944541931152344], [77.6172561645509, 32.944000244140625], [77.61296081542986, 32.941410064697266], [77.61071014404303, 32.94231033325207], [77.60614776611334, 32.942409515380916], [77.5934371948245, 32.94153976440441], [77.58637237548857, 32.93989944458008], [77.5839233398437, 32.94380187988281], [77.581527709961, 32.939231872558594], [77.58096313476568, 32.934501647949276], [77.57966613769537, 32.93167877197271], [77.56964874267595, 32.921661376953125], [77.55384826660173, 32.913108825683764], [77.54949188232428, 32.91336059570335], [77.54471588134771, 32.91173171997093], [77.53531646728533, 32.90229034423851], [77.52700042724615, 32.89228057861328], [77.52320098876959, 32.889781951904354], [77.51956176757818, 32.88737869262707], [77.51129150390642, 32.88542938232422], [77.50623321533209, 32.883071899414176], [77.49434661865234, 32.88151168823242], [77.48455047607416, 32.88653945922857], [77.47318267822271, 32.87879180908203], [77.45522308349626, 32.8617401123048], [77.44834899902361, 32.861679077148494], [77.43617248535156, 32.8658905029298], [77.43224334716808, 32.87044906616211], [77.43122100830084, 32.87582015991228], [77.4257202148438, 32.88367080688482], [77.41774749755871, 32.87921142578148], [77.41013336181669, 32.87821960449219], [77.40312194824219, 32.881450653076286], [77.39917755126959, 32.88393020629894], [77.39733123779308, 32.88698959350597], [77.39541625976568, 32.8873291015625], [77.387466430664, 32.88552093505865], [77.37938690185553, 32.88082885742182], [77.37124633789091, 32.8674201965332], [77.36306762695312, 32.86352920532238], [77.35968017578142, 32.8595809936524], [77.35871887207048, 32.856399536132926], [77.35980987548822, 32.85161972045904], [77.36267089843744, 32.84659957885742], [77.36184692382818, 32.84260940551758], [77.35955047607428, 32.83816146850597], [77.35647583007818, 32.825271606445426], [77.3483963012697, 32.821201324463175], [77.34046173095709, 32.82054138183605], [77.33596038818388, 32.81890869140631], [77.32789611816412, 32.81988143920893], [77.32161712646496, 32.822391510009766], [77.32065582275402, 32.828102111816634], [77.31651306152338, 32.829750061035156], [77.31086730957037, 32.83766937255871], [77.31250000000028, 32.84630966186546], [77.305160522461, 32.854049682617244], [77.29795837402355, 32.85401153564459], [77.28874206542974, 32.852619171142635], [77.2812805175783, 32.85565185546869], [77.27433776855497, 32.85976028442383], [77.27009582519537, 32.86640167236334], [77.25831604003935, 32.87636184692383], [77.24758148193365, 32.86492919921881], [77.23887634277372, 32.86516189575201], [77.23802947998053, 32.86901092529297], [77.23626708984392, 32.87229919433594], [77.22782897949213, 32.87697219848633], [77.22482299804705, 32.880020141601676], [77.2240829467774, 32.8827018737793], [77.22746276855469, 32.88393020629894], [77.22930145263683, 32.88679885864269], [77.22825622558611, 32.89556884765625], [77.21798706054693, 32.897312164306754], [77.20453643798857, 32.906372070312614], [77.18895721435564, 32.91006088256847], [77.18180084228527, 32.915451049804915], [77.17385864257812, 32.93112945556652], [77.1665802001956, 32.92805099487305], [77.16372680664091, 32.92510986328125], [77.16156768798834, 32.92111968994158], [77.16043090820318, 32.916080474853516], [77.15743255615263, 32.91323852539074], [77.14618682861322, 32.914020538330305], [77.15072631835966, 32.920230865478516], [77.14694976806635, 32.93437957763683], [77.14855194091803, 32.93791198730469], [77.14878082275396, 32.941379547119084], [77.14611053466803, 32.94277191162121], [77.14612579345709, 32.956390380859375], [77.13638305664068, 32.95777130126959], [77.13527679443388, 32.96094131469749], [77.13553619384783, 32.96467971801758], [77.13430786132824, 32.969490051269645], [77.13585662841825, 32.97444915771496], [77.13639068603521, 32.980461120605526], [77.1275024414062, 32.98384094238281], [77.12007141113281, 32.98271179199219], [77.11238098144543, 32.98413085937506], [77.10315704345709, 32.98720169067383], [77.09712219238293, 32.977581024170036], [77.0841827392581, 32.97367095947277], [77.07489776611345, 32.973350524902344], [77.07167053222673, 32.976230621338004], [77.06593322753923, 32.98553085327154], [77.0584716796875, 32.986080169677734], [77.0523757934572, 32.99089050292969], [77.03531646728527, 32.99967956542969], [77.02442169189459, 32.996959686279354], [77.01992034912104, 32.99174880981445], [77.01123809814459, 32.99324035644537], [76.99846649169928, 32.98957061767578], [76.99401855468767, 32.992290496826456], [76.99147033691435, 32.99285888671881], [76.9869384765625, 32.99592208862316], [76.98082733154291, 33.00146102905268], [76.96652221679682, 33.00720977783209], [76.96370697021501, 33.01004028320318], [76.96212768554682, 33.013931274414176], [76.95677947998075, 33.01673889160179], [76.9483261108399, 33.018489837646655], [76.93266296386724, 33.028450012206974], [76.9241485595706, 33.02896881103527], [76.91751098632812, 33.03367996215849], [76.91461181640653, 33.03882217407238], [76.91332244873047, 33.04420852661133], [76.91024780273432, 33.050209045410156], [76.90011596679716, 33.06414031982422], [76.89694213867205, 33.070991516113224], [76.89639282226562, 33.07580947875988], [76.89074707031261, 33.08076095581066], [76.89093017578136, 33.08459854125988], [76.89498901367182, 33.09141921997076], [76.89430999755865, 33.095138549804744], [76.88477325439459, 33.09743881225586], [76.87741851806669, 33.10721969604498], [76.87719726562511, 33.11423873901384], [76.86869049072266, 33.12022018432623], [76.86044311523466, 33.11637878417963], [76.85256958007818, 33.11154937744146], [76.8444366455081, 33.112300872802734], [76.83915710449236, 33.11529922485363], [76.83410644531278, 33.1205596923831], [76.83740234375, 33.126388549804744], [76.82808685302751, 33.13167953491222], [76.82917022705107, 33.137722015380916], [76.82296752929693, 33.141288757324446], [76.81725311279303, 33.142002105713004], [76.81495666503912, 33.14617156982422], [76.80948638916027, 33.148551940918026], [76.80345916748047, 33.15568923950218], [76.80143737792974, 33.16154098510759], [76.80201721191412, 33.16603088378906], [76.79926300048828, 33.16946029663097], [76.7981262207033, 33.1733016967774], [76.8004226684572, 33.17779922485374], [76.80517578125, 33.18225860595709], [76.80661010742193, 33.184730529785156], [76.80330657959001, 33.19385147094732], [76.818588256836, 33.205570220947266], [76.81716156005888, 33.21223068237299], [76.81108093261719, 33.21546173095709], [76.8130493164063, 33.22272109985346], [76.817855834961, 33.23114013671881], [76.82319641113287, 33.23738098144537], [76.82887268066406, 33.24254989624018], [76.82834625244146, 33.24639892578131], [76.82717132568365, 33.246749877929915], [76.8235473632813, 33.2478599548341], [76.82192230224638, 33.248352050781534], [76.81727600097662, 33.24850082397461], [76.8139419555664, 33.24744033813482], [76.80916595458979, 33.24430084228521], [76.80845642089861, 33.24232101440441], [76.80629730224604, 33.236228942871094], [76.80275726318365, 33.23666000366211], [76.79693603515653, 33.24121093750006], [76.78543853759771, 33.25358963012707], [76.77826690673822, 33.255710601806584], [76.76355743408232, 33.2543296813966], [76.75997161865234, 33.25297927856451], [76.75688171386747, 33.250541687011776], [76.75534057617216, 33.24948883056652], [76.75520324707031, 33.2474098205567], [76.75756835937506, 33.24312210083002], [76.76235961914068, 33.23954010009777], [76.75988006591803, 33.224670410156364], [76.75605010986334, 33.219821929931754], [76.7505569458009, 33.210128784179915], [76.74558258056646, 33.20434951782238], [76.7421264648438, 33.197490692138786], [76.73435211181669, 33.19311904907238], [76.73060607910173, 33.185279846191406], [76.7298660278322, 33.1794319152832], [76.71418762207031, 33.177440643310604], [76.7084732055664, 33.18130111694347], [76.6967163085938, 33.181480407714844], [76.69365692138678, 33.17760086059576], [76.68527221679693, 33.174041748046875], [76.66947937011724, 33.173320770263615], [76.66055297851591, 33.171348571777344], [76.6594467163086, 33.17111206054699], [76.65873718261719, 33.17116928100597], [76.65110778808594, 33.171829223632926], [76.64074707031244, 33.16468048095703], [76.62700653076166, 33.162479400634766], [76.6125564575197, 33.165969848632756], [76.59958648681658, 33.17375946044933], [76.5984725952149, 33.17650985717785], [76.598861694336, 33.183910369873274], [76.59732818603521, 33.18803024291992], [76.5925369262697, 33.19063186645519], [76.5879974365235, 33.18999862670904], [76.58403778076183, 33.19306945800781], [76.58470153808611, 33.199562072753906], [76.58618927001947, 33.20421981811518], [76.58190155029303, 33.2068710327149], [76.57673645019537, 33.2057991027832], [76.56761932373053, 33.20705032348644], [76.56295013427751, 33.206180572509766], [76.55589294433611, 33.20685195922863], [76.54747772216791, 33.2095298767091], [76.54196166992188, 33.20677185058622], [76.53417968750017, 33.199348449706974], [76.52023315429705, 33.2004089355471], [76.50576019287126, 33.195781707763786], [76.49883270263666, 33.19668960571312], [76.49597167968744, 33.196029663086165], [76.4887771606447, 33.19015884399414], [76.46906280517607, 33.179908752441406], [76.46614074707037, 33.179882049560604], [76.45555114746094, 33.18331909179699], [76.45020294189447, 33.182918548583984], [76.4418106079101, 33.18046951293968], [76.42977142334013, 33.18281173706066], [76.42177581787104, 33.18180847167963], [76.40769195556658, 33.188419342041016], [76.40067291259766, 33.18656158447277], [76.39167785644548, 33.186691284179744], [76.38455963134794, 33.18289184570324], [76.37985229492205, 33.176460266113224], [76.37351226806669, 33.17346191406267], [76.36615753173834, 33.16804122924805], [76.36080932617188, 33.162750244140625], [76.35885620117188, 33.15750122070335], [76.35578918457026, 33.15460205078131], [76.3521270751956, 33.154838562011776], [76.33558654785156, 33.14627075195324], [76.31553649902338, 33.13019943237316], [76.30692291259794, 33.12722015380871], [76.29194641113298, 33.120208740234375], [76.28800201416021, 33.1131591796875], [76.27500152587896, 33.10398864746088], [76.27687072753923, 33.100631713867244], [76.27584075927763, 33.098030090332145], [76.27123260498058, 33.09635925292963], [76.26751708984392, 33.08610916137707], [76.25524139404325, 33.05228042602545], [76.23728942871105, 33.032588958740234], [76.22978973388678, 33.03083038330084], [76.22946929931652, 33.030261993408146], [76.21615600585966, 33.02857208251959], [76.18830108642607, 33.027580261230526], [76.15223693847685, 33.022899627685604], [76.14389038085938, 33.0164794921875], [76.12819671630888, 33.01008224487305], [76.12049102783209, 33.010421752929744], [76.11596679687506, 33.0085906982423], [76.1073226928711, 33.00788879394531], [76.09368896484403, 33.00482940673828], [76.09455871582037, 33.00032043457054], [76.09123992919916, 32.992752075195426], [76.08567047119169, 32.97500991821289], [76.08220672607428, 32.96879959106457], [76.07834625244146, 32.966072082519645], [76.06999969482428, 32.962219238281364], [76.06587982177734, 32.957981109619084], [76.05446624755876, 32.95096969604509], [76.05039978027372, 32.944271087646484], [76.04260253906244, 32.940238952636946], [76.02807617187528, 32.937438964843864], [76.02365112304693, 32.93157958984375], [76.02117156982428, 32.924430847168026], [76.01718902587919, 32.9176406860351], [76.0135116577149, 32.91593933105469], [76.00463104248075, 32.914009094238224], [75.99752807617199, 32.90937042236334], [75.98741912841808, 32.90058135986351], [75.98320007324224, 32.9004020690918], [75.94577026367188, 32.88513946533209], [75.93955230712902, 32.884220123291016], [75.9337768554688, 32.884311676025504], [75.92323303222673, 32.89809036254877], [75.91356658935553, 32.906211853027344], [75.90011596679682, 32.91569900512695], [75.88089752197283, 32.924770355224894], [75.86711883544916, 32.93021011352545], [75.85006713867193, 32.931159973144815], [75.83389282226591, 32.93460083007824], [75.82811737060553, 32.93408203125], [75.82142639160162, 32.93347167968744], [75.80795288085966, 32.92979049682617], [75.80332183837896, 32.92354965209984], [75.79830932617205, 32.91942214965832], [75.80175781250017, 32.910270690918026], [75.80000305175781, 32.90391921997093], [75.79835510253912, 32.90216445922857], [75.7938079833985, 32.897312164306754], [75.78987884521479, 32.89398193359369], [75.78742218017595, 32.89332199096674], [75.78917694091797, 32.88462066650419], [75.78983306884794, 32.88140106201166], [75.79464721679682, 32.87018966674816], [75.79537200927763, 32.86925888061535], [75.80551147460932, 32.85614013671898], [75.8083114624024, 32.85319900512701], [75.8158111572265, 32.847061157226506], [75.82106018066412, 32.84276199340832], [75.82752990722662, 32.84037017822294], [75.83738708496094, 32.83676910400385], [75.85523986816418, 32.826141357421875], [75.87378692626982, 32.81369018554682], [75.88568115234392, 32.79547882080101], [75.90006256103527, 32.769859313964844], [75.91248321533232, 32.757122039795036], [75.91404724121088, 32.74201965332048], [75.90983581542997, 32.72093963623058], [75.9048614501956, 32.709362030029524], [75.89906311035162, 32.70024871826189], [75.89657592773443, 32.691059112549055], [75.89885711669928, 32.68062210083019], [75.90540313720714, 32.67224884033209], [75.91475677490246, 32.665931701660156], [75.924057006836, 32.658222198486385], [75.92543792724621, 32.654270172119254], [75.92362213134783, 32.64369964599621], [75.90776062011719, 32.61914062499994], [75.90458679199224, 32.615219116210994], [75.8862915039063, 32.5919189453125], [75.872543334961, 32.57619094848633], [75.87177276611334, 32.5752906799317], [75.85653686523443, 32.55842208862305], [75.83783721923834, 32.5376091003418], [75.83055114746111, 32.5245094299317], [75.8289260864259, 32.519969940185774], [75.82504272460943, 32.509220123291016], [75.82357788085949, 32.50764083862316], [75.81569671630865, 32.49922180175781], [75.80433654785185, 32.48706054687523], [75.7901458740235, 32.478790283203125], [75.77886962890642, 32.47504043579096], [75.77246856689464, 32.475101470947266], [75.75296020507818, 32.47523880004883], [75.74592590332037, 32.47634887695318], [75.7450561523437, 32.47426223754894], [75.74373626708984, 32.469108581543026], [75.73532104492182, 32.45468902587902], [75.72970581054693, 32.44506072998047], [75.72515106201178, 32.43832015991234], [75.7197494506836, 32.430320739746094], [75.71534729003923, 32.42383193969749], [75.71153259277361, 32.41815948486328], [75.698226928711, 32.40953063964844], [75.68495941162138, 32.40061950683594], [75.66274261474615, 32.39350891113281], [75.64807128906256, 32.38880920410162], [75.63697814941412, 32.38737869262701], [75.59263610839872, 32.38169860839844], [75.5670013427735, 32.37184143066412], [75.5573196411134, 32.366958618164176], [75.54515075683622, 32.36082077026367], [75.52921295166021, 32.34888076782249], [75.52426910400396, 32.34004974365246], [75.51582336425798, 32.29798889160173], [75.505599975586, 32.28134155273432], [75.50450134277372, 32.279529571533146], [75.50123596191418, 32.27605056762707], [75.4989471435548, 32.27532958984381], [75.49472045898443, 32.27690887451183], [75.49002075195341, 32.287979125976676], [75.49212646484403, 32.30279922485346], [75.49111938476568, 32.306720733642805], [75.49022674560541, 32.310211181640625], [75.48475646972673, 32.310291290283374], [75.47992706298822, 32.31034851074219], [75.471420288086, 32.31465148925787], [75.46775817871111, 32.31756210327154], [75.47352600097662, 32.33919906616222], [75.47223663330084, 32.34004974365246], [75.46660614013689, 32.338851928711165], [75.45635223388678, 32.33351898193382], [75.45178985595709, 32.331760406494254], [75.44859313964855, 32.33132171630854], [75.43257904052746, 32.32669067382824], [75.43107604980497, 32.32648849487305], [75.41499328613287, 32.32427215576172], [75.39745330810553, 32.32625198364269], [75.38595581054705, 32.32769012451166], [75.37853240966803, 32.328800201416016], [75.3734664916995, 32.33057022094749], [75.3591918945312, 32.334918975830135], [75.34526824951166, 32.33916091918951], [75.34400939941412, 32.34020996093756], [75.33177947998064, 32.3446998596192], [75.32530212402361, 32.34284210205084], [75.3244018554688, 32.34165954589844], [75.32232666015636, 32.337326049804915], [75.31148529052763, 32.34484100341825], [75.28906250000017, 32.35757446289068], [75.2803344726563, 32.36726379394537], [75.27822875976568, 32.36825561523443], [75.26676177978521, 32.373664855956974], [75.25331115722685, 32.38000869750988], [75.23715209960955, 32.395778656005916], [75.2315292358399, 32.39918899536133], [75.23050689697283, 32.39929199218756], [75.22384643554693, 32.39995956420904], [75.20024871826178, 32.40232086181658], [75.19740295410168, 32.404090881347884], [75.19547271728521, 32.40531158447277], [75.19272613525408, 32.41807174682617], [75.19234466552751, 32.41984176635748], [75.18852996826189, 32.424480438232536], [75.1795425415039, 32.4254417419433], [75.17195892333984, 32.42190551757824], [75.16040039062511, 32.41651153564459], [75.1476364135745, 32.41337966918957], [75.13945007324247, 32.414604187011776], [75.12792968750006, 32.42116928100609], [75.12090301513678, 32.4414901733399], [75.11888122558594, 32.443771362304915], [75.11444091796903, 32.44878387451183], [75.10978698730474, 32.45404052734381], [75.1067504882813, 32.4550399780274], [75.09818267822271, 32.46586990356457], [75.08262634277338, 32.480045318603686], [75.07160949707048, 32.48296356201172], [75.0626831054688, 32.48212814331055], [75.06140136718761, 32.48200988769531], [75.03663635253935, 32.492069244384766], [75.03016662597685, 32.49176025390625], [75.02140808105463, 32.48537063598633], [75.01174926757818, 32.476181030273665], [75.00608825683605, 32.46904373168968], [75.0015411376956, 32.46330261230463], [75.00000000000028, 32.45912170410156], [74.98786926269548, 32.44956207275402], [74.97934722900396, 32.44776916503929], [74.97310638427763, 32.447929382324276], [74.9638671875, 32.45252990722679], [74.94889831542997, 32.454086303710994], [74.94357299804716, 32.46070861816412], [74.93363189697294, 32.467571258545036], [74.92411804199247, 32.46825027465826], [74.89965820312511, 32.466129302978516], [74.89681243896513, 32.4674186706543], [74.8909988403322, 32.470058441162394], [74.8852310180664, 32.47840881347656], [74.88291931152372, 32.481754302978516], [74.88287353515636, 32.48181915283203], [74.88274383544916, 32.48189926147455], [74.87919616699224, 32.484081268310604], [74.87666320800798, 32.48564147949219], [74.86151123046886, 32.489479064941406], [74.85642242431635, 32.49267196655279], [74.84618377685547, 32.49438858032232], [74.83532714843756, 32.49621200561518], [74.81857299804693, 32.49605941772461], [74.7988586425783, 32.48405838012695], [74.76138305664074, 32.48217010498075], [74.75802612304705, 32.47993850708019], [74.74822998046903, 32.479240417480696], [74.74698638916033, 32.47915267944359], [74.74357604980474, 32.481498718261776], [74.72109985351568, 32.48173904418945], [74.69841766357428, 32.48493957519537], [74.68673706054693, 32.49306869506859], [74.68225860595732, 32.5020484924317], [74.68138122558611, 32.50381088256847], [74.67917633056652, 32.515411376953125], [74.68302917480497, 32.52960205078148], [74.68051147460949, 32.53818893432617], [74.66195678710943, 32.55147171020519], [74.65999603271501, 32.55324935913086], [74.65239715576172, 32.56016159057617], [74.64802551269537, 32.571868896484375], [74.64330291748053, 32.59595108032238], [74.64221191406278, 32.61104965209961], [74.6492462158206, 32.62586975097656], [74.658447265625, 32.63735961914085], [74.66921234130865, 32.64593887329096], [74.67620849609392, 32.65800094604509], [74.67563629150408, 32.66577911376976], [74.67499542236357, 32.666725158691634], [74.66928100585966, 32.675090789795036], [74.66210937500017, 32.68046951293945], [74.65419006347668, 32.69245147705084], [74.65013885498053, 32.7184104919433], [74.66188049316406, 32.75482177734381], [74.6680526733399, 32.763401031494254], [74.66752624511724, 32.76659011840843], [74.67776489257812, 32.78157043457037], [74.68768310546875, 32.796081542968864], [74.69458007812506, 32.809520721435604], [74.70038604736357, 32.82703018188482], [74.69702148437517, 32.839714050293026], [74.68083190917974, 32.83819961547846], [74.66146087646513, 32.82802963256847], [74.64199829101591, 32.822898864746094], [74.63800048828153, 32.81809997558594], [74.63722991943388, 32.810810089111385], [74.6415405273438, 32.79188919067383], [74.632797241211, 32.777660369873104], [74.61423492431658, 32.75773239135742], [74.60831451416033, 32.75747299194347], [74.59413909912138, 32.756843566894474], [74.57919311523443, 32.75331497192377], [74.57360076904314, 32.7555503845216], [74.56710815429705, 32.7552108764649], [74.54310607910156, 32.74544143676769], [74.54120635986334, 32.74467086791998], [74.53153228759771, 32.74073028564476], [74.50269317626959, 32.75986862182617], [74.479736328125, 32.772670745849666], [74.47792053222662, 32.775329589844034], [74.4719543457033, 32.77836227416992], [74.46605682373053, 32.781360626220646], [74.46202087402361, 32.79088973999018], [74.46166992187506, 32.79170989990246], [74.45748901367193, 32.80157089233393], [74.45423126220709, 32.805068969726676], [74.45063781738287, 32.81682205200207], [74.44522857666033, 32.82556915283203], [74.44321441650396, 32.82882308959972], [74.43006134033209, 32.84465408325207], [74.42635345459001, 32.85777282714844], [74.42933654785185, 32.87950897216797], [74.42848968505865, 32.883602142333984], [74.42505645751959, 32.89305877685547], [74.4138946533206, 32.90394973754894], [74.40605163574247, 32.90697479248047], [74.38867950439464, 32.90841293334961], [74.38579559326178, 32.908649444580135], [74.3683242797851, 32.908451080322266], [74.36471557617188, 32.9084091186524], [74.34774780273438, 32.90821075439476], [74.32721710205084, 32.913311004638786], [74.31803131103533, 32.91970062255871], [74.31613922119146, 32.930160522460994], [74.32071685791021, 32.94142913818371], [74.33489227294933, 32.95476150512695], [74.34635925292997, 32.965549468994254], [74.35317993164068, 32.98313140869146], [74.3528289794923, 32.99029159545904], [74.35169982910185, 33.01313018798834], [74.34983062744135, 33.016250610351506], [74.33792114257818, 33.025939941406364], [74.3264770507813, 33.029460906982536], [74.30787658691406, 33.030521392822266], [74.28319549560553, 33.04319000244158], [74.2549667358399, 33.04877471923851], [74.24203491210966, 33.04729461669933], [74.2203979492188, 33.044815063476676], [74.21644592285168, 33.042991638183594], [74.20524597167963, 33.04330062866211], [74.19927215576178, 33.046878814697266], [74.19064331054693, 33.07670974731468], [74.17624664306669, 33.10715103149414], [74.15702819824236, 33.125862121582145], [74.14878082275419, 33.13388442993181], [74.14485168457031, 33.135269165039006], [74.11170196533209, 33.164440155029354], [74.09986877441412, 33.172508239746264], [74.08283996582048, 33.18074035644537], [74.05643463134794, 33.186614990234375], [74.03366851806646, 33.18809890747093], [74.02625274658209, 33.188591003418196], [74.01822662353521, 33.193191528320426], [74.01427459716808, 33.19824981689453], [74.01125335693388, 33.218750000000114], [74.01101684570318, 33.238498687744254], [74.01310729980474, 33.24987030029308], [74.01397705078142, 33.25094223022455], [74.02030181884766, 33.258781433105696], [74.02438354492199, 33.262454986572266], [74.03649902343767, 33.26474380493164], [74.04799652099615, 33.26447296142584], [74.06503295898466, 33.2599143981933], [74.0682907104495, 33.25999069213873], [74.07894134521513, 33.260231018066406], [74.08810424804716, 33.262897491455135], [74.09069061279303, 33.263648986816406], [74.1029815673831, 33.270542144775504], [74.11579895019526, 33.281131744384936], [74.11763000488287, 33.28559875488281], [74.16685485839855, 33.344139099121094], [74.1694412231447, 33.34580993652355], [74.17074584960938, 33.346649169922046], [74.18508148193376, 33.38351058959955], [74.18421173095714, 33.39104080200218], [74.18006134033232, 33.40206909179699], [74.17929077148466, 33.42568588256836], [74.18165588378923, 33.430400848388786], [74.18292999267572, 33.441970825195256], [74.18707275390636, 33.45552062988281], [74.18564605712908, 33.46646881103521], [74.18502807617182, 33.467739105224666], [74.17813873291044, 33.48168182373047], [74.164604187012, 33.495647430420036], [74.15810394287138, 33.50235366821289], [74.14263916015636, 33.51831817626953], [74.12339019775419, 33.543209075927734], [74.09696197509783, 33.569179534912166], [74.09571075439464, 33.570396423339844], [74.08835601806658, 33.573204040527344], [74.07447052001953, 33.568523406982365], [74.07438659667997, 33.569438934326286], [74.05390167236334, 33.56507873535162], [74.0453567504884, 33.565750122070256], [74.02844238281244, 33.57468032836914], [74.01468658447294, 33.59836578369135], [74.01066589355497, 33.60528945922863], [74.00000000000028, 33.6236686706543], [73.99961090087919, 33.6247825622558], [73.97570037841803, 33.69363403320318], [73.95625305175787, 33.72029113769531], [73.96646118164062, 33.74032211303722], [74.00000000000028, 33.75257873535179], [74.02397918701178, 33.77204132080101], [74.02834320068365, 33.775959014892805], [74.03833007812528, 33.79513931274414], [74.0413436889649, 33.79899215698242], [74.0490493774414, 33.808830261230526], [74.05276489257818, 33.81134033203148], [74.06572723388678, 33.82009887695335], [74.09001159667997, 33.82627868652372], [74.12979888916021, 33.827560424804744], [74.14334106445318, 33.83013916015625], [74.17008972167974, 33.83988952636736], [74.1922760009765, 33.85142135620117], [74.2076263427735, 33.85940170288086], [74.21967315673834, 33.86717605590832], [74.24555969238281, 33.895000457763786], [74.26112365722685, 33.924797058105526], [74.26358032226591, 33.94261932373058], [74.26325225830078, 33.95523071289057], [74.26274108886724, 33.97428894042997], [74.24868774414074, 34.013820648193416], [74.24652862548834, 34.01602935791027], [74.23722076416021, 34.02553176879883], [74.22556304931646, 34.033401489257926], [74.21467590332037, 34.03855514526367], [74.19635009765625, 34.0400848388673], [74.18143463134783, 34.03956604003906], [74.16142272949236, 34.038871765136946], [74.14922332763689, 34.0430259704591], [74.13244628906267, 34.052673339843864], [74.12688446044939, 34.05426406860363], [74.12369537353521, 34.05517959594749], [74.11498260498058, 34.05378341674805], [74.10046386718756, 34.0456275939942], [74.09591674804716, 34.040321350097656], [74.08702850341814, 34.03776168823242], [74.06107330322266, 34.03470993041992], [74.05665588378935, 34.03124618530268], [74.04405975341825, 34.02972030639643], [74.03890228271513, 34.0291099548341], [74.00607299804699, 34.022441864013786], [74.00000000000028, 34.0301895141601], [73.90898895263683, 34.03253936767578], [73.89817047119135, 34.03282165527355], [73.88980865478533, 34.04240417480463], [73.88321685791021, 34.04994964599632], [73.88432312011724, 34.06135940551786], [73.88565063476568, 34.075119018554915], [73.9043807983399, 34.09689331054699], [73.90408325195307, 34.122249603271484], [73.91707611084001, 34.1421089172365], [73.94477081298828, 34.17018890380854], [73.97657775878906, 34.211803436279354], [73.98203277587902, 34.23907852172857], [73.9762268066408, 34.264808654785156], [73.94097137451178, 34.30173873901367], [73.91992950439453, 34.342311859131144], [73.91334533691412, 34.34792709350586], [73.89940643310553, 34.359813690185604], [73.889404296875, 34.3570251464846], [73.87940979003912, 34.35423660278326], [73.84175109863298, 34.33832168579096], [73.8073959350586, 34.35671997070324], [73.7733917236331, 34.34975051879911], [73.76322174072271, 34.35963058471691], [73.76432037353533, 34.371070861816406], [73.77698516845709, 34.416301727295036], [73.78965759277344, 34.42703628540039], [73.80725860595709, 34.44194793701183], [73.85481262207043, 34.4733505249024], [73.8987426757812, 34.49576950073248], [73.88668823242216, 34.51499938964855], [73.89533996582048, 34.54666900634777], [73.94806671142584, 34.573089599609375], [73.94155883789068, 34.59195709228533], [73.92733001709013, 34.645889282226506], [73.94155883789068, 34.67720031738281], [73.96022033691406, 34.69668197631847], [73.98607635498075, 34.70415878295893], [74.00000000000028, 34.70821762084961], [74.01289367675787, 34.70985412597662], [74.03363037109392, 34.69364166259771], [74.04171752929693, 34.68731689453125], [74.0491333007813, 34.68495941162121], [74.05970001220732, 34.68508911132835], [74.0813064575197, 34.69202041625982], [74.0865325927735, 34.69371032714855], [74.09313964843767, 34.69451904296869], [74.09716033935564, 34.69290161132835], [74.11676788330078, 34.69121170043945], [74.13269805908209, 34.690238952636946], [74.14179229736345, 34.691200256347884], [74.14897155761747, 34.695270538330135], [74.17473602294916, 34.717350006103516], [74.20295715332026, 34.73657989501976], [74.21050262451178, 34.74018096923834], [74.22574615478521, 34.74745941162132], [74.22749328613287, 34.75008010864269], [74.23902130126953, 34.752079010009936], [74.26989746093778, 34.76269149780302], [74.2797470092774, 34.76826858520508], [74.28679656982428, 34.77416992187523], [74.30278015136719, 34.79753875732422], [74.30729675292963, 34.8003044128418], [74.31509399414091, 34.80025863647472], [74.3309478759765, 34.79248046875023], [74.33159637451178, 34.79216766357433], [74.34126281738281, 34.789691925048885], [74.3462142944336, 34.790409088134766], [74.36753845214872, 34.80256271362316], [74.375541687012, 34.803443908691406], [74.47396850585966, 34.79063415527372], [74.4771347045899, 34.78964996337902], [74.48536682128912, 34.787090301513786], [74.50657653808622, 34.77553176879883], [74.51470184326178, 34.77480316162138], [74.53810119628906, 34.77618408203125], [74.54406738281256, 34.77653884887718], [74.56149291992199, 34.77444076538109], [74.5652923583985, 34.77186965942377], [74.57715606689482, 34.769489288330305], [74.58017730712902, 34.77009963989269], [74.61242675781278, 34.74637222290039], [74.61815643310575, 34.74214935302746], [74.63154602050776, 34.73799896240246], [74.63883209228533, 34.73353958129883], [74.64798736572283, 34.722618103027344], [74.65805816650385, 34.710601806640625], [74.67130279541021, 34.70069885253912], [74.70300292968756, 34.69308090209972], [74.72807312011719, 34.68858337402355], [74.73931884765625, 34.68722152709961], [74.76312255859403, 34.6843376159668], [74.76640319824219, 34.685192108154524], [74.77214050292986, 34.682708740234375], [74.78659057617216, 34.68273162841797], [74.83560180664091, 34.67755126953119], [74.85389709472685, 34.67819976806646], [74.88981628417969, 34.68387222290045], [74.89375305175793, 34.684490203857706], [74.9105072021485, 34.68320846557617], [74.92781066894548, 34.67831039428734], [74.9467163085938, 34.666351318359375], [74.99780273437517, 34.65108108520519], [75.00000000000028, 34.64945602416992], [75.00364685058622, 34.64675903320335], [75.01874542236328, 34.641498565674055], [75.02990722656256, 34.64147186279308], [75.041801452637, 34.64141845703148], [75.05079650878906, 34.643920898437614], [75.05449676513678, 34.646621704101676], [75.08472442626947, 34.65538024902355], [75.10555267334001, 34.65565872192394], [75.11119842529325, 34.65798950195318], [75.14229583740263, 34.662410736083984], [75.16467285156267, 34.66044998168957], [75.1772766113283, 34.6574592590332], [75.17849731445318, 34.65717697143566], [75.20671844482428, 34.64628982543951], [75.23575592041044, 34.64829254150396], [75.24971008300776, 34.647312164306584], [75.25963592529291, 34.644081115722884], [75.2660598754884, 34.63954925537121], [75.26693725585955, 34.63454055786127], [75.25807952880888, 34.6175994873048], [75.26185607910162, 34.610881805419865], [75.2791519165039, 34.601749420166016], [75.33519744873064, 34.57213211059582], [75.3505477905274, 34.562240600585994], [75.37782287597662, 34.55242156982416], [75.39497375488287, 34.5488090515139], [75.41396331787126, 34.547340393066406], [75.46463775634794, 34.543388366699276], [75.47850799560553, 34.539348602295036], [75.50609588623064, 34.53733062744152], [75.51687622070324, 34.53779220581066], [75.5212020874024, 34.53958892822277], [75.55179595947294, 34.53813934326172], [75.56463623046875, 34.53874969482422], [75.57888793945341, 34.539440155029354], [75.59188842773432, 34.540069580078125], [75.61556243896484, 34.53853988647472], [75.64414978027338, 34.53353881835932], [75.69230651855474, 34.52153015136713], [75.71383666992188, 34.51840209960943], [75.72923278808594, 34.5161590576173], [75.74920654296903, 34.515830993652344], [75.76877593994146, 34.52214050292969], [75.7930297851563, 34.53392028808588], [75.81047821044916, 34.548171997070426], [75.82064819335938, 34.558910369873274], [75.84107971191412, 34.573101043701456], [75.843276977539, 34.574630737304744], [75.88146209716814, 34.59074020385748], [75.91192626953153, 34.6011314392091], [75.91864776611345, 34.60483932495117], [75.93221282959001, 34.624431610107365], [75.94625091552763, 34.6311798095706], [75.9672088623048, 34.633602142333984], [75.96821594238276, 34.633338928222656], [75.98327636718744, 34.62940979003912], [75.99185180664091, 34.62997055053711], [76.00038909912121, 34.63581085205078], [76.01436614990229, 34.65357208251953], [76.0254287719726, 34.664100646972884], [76.03646087646513, 34.67026901245117], [76.05502319335955, 34.67602920532249], [76.07444000244169, 34.676311492919865], [76.08582305908209, 34.671459197998274], [76.0929565429687, 34.66656112670927], [76.12193298339872, 34.64665222167963], [76.13075256347673, 34.64352035522461], [76.1390914916995, 34.642478942871094], [76.15791320800787, 34.64340972900385], [76.19278717041021, 34.65526962280285], [76.19785308837885, 34.65913009643566], [76.22737884521513, 34.67214202880865], [76.23429870605469, 34.673099517822266], [76.26004791259766, 34.6843719482423], [76.27511596679688, 34.69364166259771], [76.28330230712885, 34.70151901245117], [76.28994750976591, 34.712322235107536], [76.30150604248053, 34.724441528320426], [76.31613922119158, 34.731632232666016], [76.32872009277344, 34.73305511474604], [76.33988952636724, 34.734317779541016], [76.35073852539068, 34.7347030639649], [76.38593292236328, 34.73595046997082], [76.40953826904325, 34.752166748046875], [76.42761993408209, 34.76243972778343], [76.43695831298834, 34.76438140869158], [76.4692001342774, 34.791667938232536], [76.47177124023438, 34.793022155761776], [76.47434234619146, 34.79437255859398], [76.4773254394533, 34.793987274169865], [76.48973846435564, 34.792381286621094], [76.51409149169916, 34.78380203247093], [76.54531860351574, 34.76559066772461], [76.56181335449236, 34.758338928222884], [76.57097625732439, 34.75842285156244], [76.5800170898438, 34.75551605224621], [76.61804199218744, 34.75606918334961], [76.65249633789068, 34.756561279297046], [76.67163848876947, 34.75741958618181], [76.68181610107422, 34.75959014892578], [76.6871948242188, 34.763210296630916], [76.69670104980474, 34.77912902832054], [76.70619201660173, 34.80125045776367], [76.72728729248058, 34.820899963379134], [76.73784637451172, 34.83074188232422], [76.74324035644537, 34.84009933471691], [76.7446899414062, 34.84473037719721], [76.74343872070318, 34.864891052246094], [76.73886108398443, 34.90192794799833], [76.74337005615234, 34.91814041137724], [76.74936676025396, 34.92660140991228], [76.76242828369135, 34.9329910278322], [76.7641906738283, 34.933120727539176], [76.79933929443365, 34.93577194213867], [76.80442047119158, 34.93432998657238], [76.81105041503935, 34.935455322265625], [76.82552337646513, 34.941654205322266], [76.84815216064459, 34.957969665527344], [76.85315704345709, 34.96387100219732], [76.86315155029297, 34.970840454101676], [76.87004089355486, 34.972431182861555], [76.88350677490263, 34.97032928466791], [76.8984680175783, 34.96426010131847], [76.90140533447271, 34.96307373046869], [76.908432006836, 34.961685180664176], [76.95034027099626, 34.94094085693371], [76.97035980224626, 34.93558120727539], [76.98874664306646, 34.93521881103527], [76.99748992919928, 34.939151763916016], [77.01013946533214, 34.95628738403349], [77.01145172119146, 34.96670913696312], [77.0113067626956, 34.972721099853516], [77.01065826416021, 35.00000000000023], [77.01029968261724, 35.01618194580084], [77.01094818115263, 35.02759170532238], [77.01378631591825, 35.03512191772461], [77.01809692382818, 35.03846359252941], [77.0269165039063, 35.04079437255865], [77.03677368164062, 35.03236389160173], [77.06836700439447, 35.024120330810774], [77.08137512207048, 35.02633666992193], [77.10980224609392, 35.03932952880871], [77.15682220458996, 35.05469894409191], [77.17558288574219, 35.066791534424], [77.19481658935575, 35.07918930053728], [77.28079223632824, 35.13828659057617], [77.29518890380876, 35.1456298828125], [77.30075073242188, 35.14847946167015], [77.37944030761747, 35.19789123535156], [77.38440704345732, 35.19916915893555], [77.41883087158209, 35.22006988525396], [77.44252014160162, 35.234439849853516], [77.48542022705084, 35.26654052734369], [77.5396118164063, 35.29777908325195], [77.58502197265636, 35.323921203613395], [77.65056610107428, 35.36708068847656], [77.66091918945318, 35.37522888183605], [77.73551177978527, 35.43384170532232], [77.76036834716797, 35.45117568969749], [77.77467346191406, 35.46015930175781], [77.81465148925787, 35.48524856567383], [77.81929016113276, 35.493289947509766], [77.82392883300798, 35.50133132934593], [77.84082031250028, 35.5011100769043], [77.84307861328136, 35.50098419189453], [77.8467788696289, 35.50078201293951], [77.85018920898432, 35.49172973632818], [77.85131835937528, 35.48873901367182], [77.86267089843756, 35.4585914611817], [77.86872100830095, 35.45051956176758], [77.87941741943376, 35.43624877929699], [77.8847732543947, 35.43195724487316], [77.88862609863287, 35.428871154785156], [77.89956665039091, 35.4278945922851]]]}}