{"type": "Feature", "properties": {"ID_0": 105, "ISO": "IND", "NAME_0": "India", "ID_1": 23, "NAME_1": "Meghalaya", "NL_NAME_1": null, "VARNAME_1": null, "TYPE_1": "State", "ENGTYPE_1": "State"}, "geometry": {"type": "Polygon", "coordinates": [[[91.85383605957037, 26.10478973388672], [91.86470031738287, 26.10034751892084], [91.87578582763678, 26.09773063659668], [91.87523651123053, 26.084560394287337], [91.86934661865246, 26.056859970092717], [91.87016296386713, 26.052190780639876], [91.88323211669928, 26.03000068664562], [91.89195251464861, 26.029552459716797], [91.90091705322283, 26.026269912719727], [91.90746307373053, 26.027111053466797], [91.91165161132818, 26.02383041381836], [91.91696929931646, 26.021461486816406], [91.91684722900419, 26.01375961303711], [91.91565704345709, 26.01032829284668], [91.91871643066412, 26.007240295410213], [91.91953277587919, 26.001590728759993], [91.91957092285156, 26.00012969970703], [91.92209625244158, 25.999530792236442], [91.92582702636747, 25.999740600585938], [91.92681121826166, 26.001609802246094], [91.93396759033209, 26.014669418335075], [91.94129180908232, 26.01400184631359], [91.9463195800783, 26.01449966430664], [91.9524230957033, 26.017812728881836], [91.95781707763678, 26.01889038085949], [91.97817230224626, 26.02585029602045], [91.9842300415039, 26.030540466308707], [91.98739624023443, 26.038721084594783], [91.99106597900419, 26.041032791137923], [91.99765014648443, 26.038841247558594], [92.00044250488281, 26.03918075561529], [92.0033798217774, 26.03803062438965], [92.00817871093756, 26.039449691772575], [92.01761627197266, 26.039590835571232], [92.02218627929688, 26.03926086425804], [92.02387237548857, 26.038431167602653], [92.0278930664062, 26.039899826049805], [92.03475189209013, 26.039688110351676], [92.03610229492182, 26.03940010070795], [92.0396118164063, 26.03622055053711], [92.05018615722685, 26.03304100036621], [92.05285644531278, 26.03283119201683], [92.06321716308611, 26.034717559814453], [92.07045745849626, 26.03784942626953], [92.07363128662138, 26.040279388427734], [92.07882690429682, 26.041780471801815], [92.08113098144531, 26.043621063232536], [92.09336090087908, 26.048521041870117], [92.10888671875006, 26.04971122741722], [92.11622619628906, 26.046552658080998], [92.12338256835943, 26.044889450073242], [92.1270217895509, 26.045900344848633], [92.1331176757813, 26.04589080810547], [92.13816833496111, 26.0528182983399], [92.14377593994146, 26.057640075683707], [92.1462173461914, 26.05855941772461], [92.14898681640653, 26.06163024902355], [92.15052032470732, 26.064899444580135], [92.15467834472668, 26.068059921264762], [92.16909027099626, 26.07759094238287], [92.1783065795899, 26.079509735107365], [92.18094635009771, 26.07617950439453], [92.17888641357428, 26.069210052490178], [92.18044281005888, 26.068500518798828], [92.18232727050787, 26.070341110229606], [92.18460083007818, 26.06918907165533], [92.18834686279314, 26.068870544433707], [92.18936920166021, 26.06688117980957], [92.20182037353544, 26.070020675659123], [92.20826721191412, 26.068569183349666], [92.20934295654314, 26.06918907165533], [92.20880889892584, 26.07065963745123], [92.21042633056635, 26.07110023498535], [92.21201324462908, 26.070970535278548], [92.2135620117188, 26.06967926025385], [92.21611022949247, 26.06929969787609], [92.21835327148443, 26.070150375366325], [92.22834014892607, 26.067640304565657], [92.24117279052751, 26.06254005432129], [92.25145721435547, 26.064361572265625], [92.26568603515636, 26.065399169922102], [92.26864624023455, 26.067949295044002], [92.27231597900396, 26.066600799560547], [92.27372741699247, 26.065891265869197], [92.27368927001959, 26.065019607543945], [92.28073120117193, 26.06918907165533], [92.28806304931635, 26.06999015808117], [92.29014587402372, 26.072799682617188], [92.29004669189459, 26.07378959655773], [92.29392242431652, 26.077791213989258], [92.2959823608399, 26.0788898468017], [92.29731750488287, 26.079149246215877], [92.29966735839872, 26.076730728149528], [92.30158233642607, 26.076490402221623], [92.2557220458985, 26.028932571411133], [92.22141265869146, 26.002250671386776], [92.22168731689447, 25.998601913452205], [92.2191925048831, 26.000780105591048], [92.21520233154291, 25.996271133422965], [92.21100616455072, 25.994659423828182], [92.2077178955081, 25.991741180420036], [92.20912170410173, 25.989669799804915], [92.20738983154297, 25.988231658935604], [92.20089721679682, 25.985609054565487], [92.19161987304693, 25.985202789306697], [92.18097686767584, 25.975231170654297], [92.1769409179688, 25.973100662231502], [92.17311096191406, 25.97219848632824], [92.16739654541021, 25.96769905090332], [92.16555023193371, 25.964439392089844], [92.16732788085932, 25.958761215210075], [92.16532897949224, 25.95395088195795], [92.16075897216803, 25.95152091979992], [92.15631866455095, 25.944799423218], [92.15609741210955, 25.943000793457145], [92.15751647949224, 25.939279556274414], [92.16142272949219, 25.93254089355463], [92.16017150878912, 25.925960540771428], [92.15992736816423, 25.915189743041992], [92.16369628906244, 25.911790847778263], [92.17431640625006, 25.909189224243164], [92.18089294433611, 25.908590316772518], [92.18315124511713, 25.910919189453182], [92.18364715576178, 25.912830352783203], [92.18672180175793, 25.915809631347656], [92.19203948974615, 25.915782928466854], [92.19718170166021, 25.918029785156364], [92.197006225586, 25.91366004943859], [92.19773101806646, 25.911251068115348], [92.20059967041021, 25.908241271972713], [92.20513916015642, 25.908710479736555], [92.20752716064482, 25.910530090332088], [92.21752929687517, 25.909919738769588], [92.22260284423857, 25.911319732666016], [92.22380065917969, 25.910360336303654], [92.22547912597685, 25.907049179077205], [92.2250366210938, 25.90162086486822], [92.22384643554688, 25.900688171386662], [92.21823120117216, 25.900199890136776], [92.2156066894533, 25.89384078979498], [92.21286010742199, 25.892129898071403], [92.20641326904325, 25.89145278930664], [92.20332336425793, 25.89009094238287], [92.19496154785185, 25.88126945495611], [92.1869430541995, 25.87481117248535], [92.18103790283232, 25.871620178222713], [92.1798858642581, 25.870172500610465], [92.17910003662121, 25.867910385131893], [92.18078613281256, 25.8632106781007], [92.18096160888678, 25.851360321045036], [92.1783065795899, 25.84807968139654], [92.17524719238287, 25.846542358398438], [92.17144012451178, 25.837730407714957], [92.16934204101568, 25.835340499877987], [92.16551971435553, 25.833040237426758], [92.16326141357433, 25.82575035095215], [92.16308593750028, 25.821830749511946], [92.15573883056658, 25.816591262817496], [92.15310668945318, 25.8127498626709], [92.15368652343756, 25.79549026489252], [92.15116882324236, 25.7874507904055], [92.15099334716803, 25.783649444580192], [92.1547927856447, 25.779779434204215], [92.15518188476562, 25.77864265441906], [92.15421295166033, 25.77672958374029], [92.15410614013683, 25.77292060852062], [92.1559677124024, 25.764541625976562], [92.15738677978544, 25.761970520019645], [92.15824127197271, 25.757198333740234], [92.16484069824213, 25.744750976562557], [92.16552734375006, 25.734449386596737], [92.16423034667997, 25.728731155395508], [92.16092681884771, 25.726259231567383], [92.15629577636736, 25.724811553955135], [92.15371704101568, 25.722700119018555], [92.15101623535162, 25.719369888305664], [92.14956665039091, 25.71450805664074], [92.15106201171886, 25.71183013916027], [92.15585327148466, 25.709142684936467], [92.15757751464872, 25.701038360595817], [92.16104888916016, 25.697290420532227], [92.16145324707048, 25.695980072021484], [92.16044616699247, 25.690902709960938], [92.16435241699224, 25.68485069274908], [92.16546630859392, 25.678409576416016], [92.16050720214861, 25.673290252685547], [92.16069793701189, 25.671859741210938], [92.16445922851557, 25.669319152831974], [92.16976165771513, 25.666400909423828], [92.17095184326166, 25.666879653930778], [92.17495727539057, 25.6702175140382], [92.1847763061524, 25.68114089965826], [92.18791961669916, 25.68343162536621], [92.19198608398455, 25.68632125854498], [92.19407653808611, 25.686119079589787], [92.1969299316408, 25.686950683593807], [92.19831085205084, 25.686359405517692], [92.20008850097685, 25.68728828430187], [92.20156097412115, 25.689720153808707], [92.21063995361328, 25.695920944213924], [92.224906921387, 25.7139701843264], [92.22899627685547, 25.716209411621207], [92.2326278686524, 25.715110778808537], [92.23384857177763, 25.71006965637207], [92.23475646972662, 25.708820343017805], [92.23684692382818, 25.708391189575423], [92.24804687500017, 25.710960388183594], [92.25357818603533, 25.71012115478527], [92.25570678710943, 25.710729598999023], [92.26084899902344, 25.71034049987793], [92.27052307128906, 25.710931777954215], [92.28460693359403, 25.715860366821403], [92.28797912597662, 25.715900421142635], [92.29358673095697, 25.71730041503929], [92.30610656738287, 25.723131179809684], [92.30825805664091, 25.726150512695426], [92.31150054931669, 25.726079940796012], [92.3139266967774, 25.72468185424816], [92.31768035888689, 25.723791122436637], [92.33354187011724, 25.725231170654354], [92.33901214599626, 25.72685050964367], [92.34805297851568, 25.731931686401424], [92.35179901123064, 25.734870910644588], [92.36299896240263, 25.73651123046875], [92.36830902099621, 25.740440368652457], [92.36753845214855, 25.742380142212028], [92.3714675903322, 25.746469497680664], [92.38510131835966, 25.75356292724615], [92.386947631836, 25.75249099731468], [92.38433837890653, 25.750329971313533], [92.38353729248053, 25.7474308013916], [92.38495635986322, 25.744750976562557], [92.38696289062506, 25.743110656738395], [92.39212799072271, 25.742599487304688], [92.39476776123053, 25.74147987365717], [92.40479278564447, 25.74369049072277], [92.41073608398455, 25.743129730224666], [92.41639709472685, 25.740499496460018], [92.41246795654314, 25.737390518188533], [92.41326141357428, 25.73396110534668], [92.4127731323245, 25.73298072814947], [92.41697692871122, 25.729681015014705], [92.42134857177763, 25.729450225830192], [92.43200683593761, 25.731960296630973], [92.43316650390653, 25.731452941894645], [92.44201660156267, 25.720859527587947], [92.43644714355463, 25.715600967407227], [92.42962646484392, 25.71326828002941], [92.42722320556646, 25.7104110717774], [92.4315261840822, 25.704250335693416], [92.43334197998058, 25.695230484009016], [92.43213653564459, 25.691009521484432], [92.43434143066435, 25.687530517578182], [92.44046783447266, 25.688129425048828], [92.44001007080084, 25.68922042846691], [92.44303894042974, 25.687652587890625], [92.45128631591825, 25.68661117553711], [92.45524597167974, 25.684230804443416], [92.45987701416044, 25.68297004699707], [92.46544647216791, 25.68246078491211], [92.47154998779291, 25.67494964599615], [92.47466278076172, 25.673311233520565], [92.48134613037115, 25.663892745971793], [92.48828887939482, 25.64999008178711], [92.49326324462919, 25.636131286621037], [92.49790191650408, 25.626960754394645], [92.50170898437517, 25.62293052673334], [92.51055145263678, 25.617200851440373], [92.51727294921886, 25.62008285522461], [92.53324890136724, 25.61594963073736], [92.5404357910158, 25.61777114868164], [92.54453277587896, 25.61425018310547], [92.55323791503923, 25.613840103149528], [92.55761718750017, 25.611988067627067], [92.55861663818365, 25.60895156860346], [92.55618286132824, 25.60587120056175], [92.55724334716814, 25.596210479736328], [92.55632019042974, 25.59280014038086], [92.56092834472662, 25.582731246948242], [92.56095886230497, 25.574251174926758], [92.56468200683611, 25.56825828552246], [92.56954193115263, 25.56446075439453], [92.57250213623064, 25.56042098999046], [92.57610321044939, 25.559650421142635], [92.58141326904291, 25.559772491455078], [92.5874786376956, 25.552988052368278], [92.59346771240251, 25.553930282592773], [92.60259246826172, 25.55738067626953], [92.60349273681669, 25.56108283996582], [92.60871124267595, 25.565731048583984], [92.61248779296903, 25.56550025939947], [92.62110137939453, 25.56830978393566], [92.62610626220703, 25.568029403686523], [92.62886810302763, 25.569490432739258], [92.63056945800793, 25.57066917419428], [92.63323211669933, 25.574790954589844], [92.63414764404303, 25.578880310058707], [92.64063262939459, 25.58736991882347], [92.64833831787138, 25.59235000610363], [92.65119171142607, 25.592729568481445], [92.65345764160168, 25.592180252075195], [92.65760803222662, 25.589061737060604], [92.66047668457037, 25.585060119628906], [92.6607208251956, 25.58184051513672], [92.66065216064459, 25.5703182220459], [92.6573562622072, 25.563381195068303], [92.64987945556635, 25.56001091003418], [92.64496612548845, 25.546600341797102], [92.64469909667997, 25.537441253662053], [92.63762664794933, 25.528528213501204], [92.62760925292986, 25.52221107482916], [92.62162780761747, 25.515750885009766], [92.60959625244169, 25.51260948181158], [92.60559082031278, 25.50811958313011], [92.5935821533206, 25.50308036804205], [92.58950042724615, 25.499519348144645], [92.58104705810547, 25.495159149169922], [92.57559204101568, 25.49043083190918], [92.56783294677763, 25.480770111084098], [92.5665512084961, 25.475120544433707], [92.56741333007818, 25.46747016906744], [92.56912994384771, 25.464790344238338], [92.57147979736357, 25.46407127380371], [92.58229064941412, 25.472890853881836], [92.58544158935564, 25.467580795288313], [92.59369659423834, 25.471010208129826], [92.59815979003935, 25.471651077270508], [92.6013870239259, 25.46413993835455], [92.59976959228533, 25.457050323486555], [92.60018920898443, 25.45387268066412], [92.60114288330084, 25.45239067077648], [92.60450744628906, 25.45019149780279], [92.6055526733399, 25.448360443115178], [92.60529327392595, 25.441911697387752], [92.60775756835955, 25.43035125732422], [92.6069717407226, 25.427181243896428], [92.60700988769548, 25.418539047241268], [92.60909271240251, 25.41657066345215], [92.61183929443365, 25.41612052917492], [92.61477661132841, 25.41743087768566], [92.61788940429705, 25.422021865844727], [92.62063598632818, 25.423719406128157], [92.628646850586, 25.42502975463873], [92.62931060791033, 25.426990509033146], [92.62851715087885, 25.430610656738338], [92.62930297851562, 25.434640884399414], [92.63265991210949, 25.433141708373967], [92.63791656494158, 25.428819656372184], [92.63791656494158, 25.422660827636832], [92.63922882080095, 25.420370101928654], [92.63961029052751, 25.41963005065918], [92.64163208007824, 25.419532775878906], [92.65054321289068, 25.431669235229492], [92.65428161621094, 25.435340881347656], [92.65365600585966, 25.42394065856945], [92.65688323974621, 25.415700912475813], [92.66010284423834, 25.41036033630394], [92.66368865966803, 25.40937042236328], [92.66703796386747, 25.414079666137923], [92.67093658447271, 25.416719436645508], [92.67376708984392, 25.41714096069336], [92.68004608154314, 25.408580780029354], [92.68817138671886, 25.404420852661246], [92.69351959228544, 25.399990081787166], [92.70037841796886, 25.387790679931697], [92.70292663574219, 25.386619567871207], [92.70973205566435, 25.386119842529354], [92.71289825439459, 25.384540557861385], [92.71636199951178, 25.379341125488338], [92.7181015014649, 25.374982833862248], [92.7205657958985, 25.374902725219727], [92.7213668823245, 25.375490188598633], [92.72543334960938, 25.380430221557674], [92.73480987548845, 25.38249969482422], [92.73705291748041, 25.381250381469783], [92.7361068725586, 25.373809814453182], [92.74059295654303, 25.366781234741154], [92.74009704589838, 25.364641189575195], [92.74060821533209, 25.363729476928654], [92.74566650390642, 25.361139297485295], [92.74823760986334, 25.358110427856445], [92.75009918212896, 25.35437965393089], [92.7511596679687, 25.348470687866154], [92.75875854492216, 25.339860916137752], [92.76056671142595, 25.335279464721793], [92.7632675170899, 25.335590362548942], [92.7694702148437, 25.33950805664074], [92.77245330810553, 25.33961105346691], [92.78246307373047, 25.334289550781307], [92.78437042236328, 25.332538604736442], [92.78801727294939, 25.317609786987305], [92.78473663330072, 25.3115291595459], [92.78383636474626, 25.308000564575195], [92.78691101074224, 25.300670623779354], [92.78882598876959, 25.29154014587425], [92.79222106933611, 25.28679847717285], [92.79222106933611, 25.28518104553234], [92.78913879394531, 25.278522491455305], [92.78211975097673, 25.275920867920036], [92.77947235107428, 25.273761749267635], [92.769760131836, 25.26893043518089], [92.77617645263689, 25.262939453125], [92.77670288085966, 25.260538101196516], [92.76464843750011, 25.24934959411621], [92.77028656005876, 25.240200042724666], [92.77223968505865, 25.233259201049748], [92.78630828857439, 25.23140144348156], [92.79434967041021, 25.226009368896484], [92.80309295654314, 25.221509933471737], [92.80442047119158, 25.21932983398449], [92.80356597900402, 25.217239379882926], [92.79843139648466, 25.21344947814947], [92.79289245605497, 25.212352752685604], [92.78775024414091, 25.209529876709098], [92.77957153320341, 25.203109741210994], [92.76764678955084, 25.20475959777832], [92.76345062255865, 25.203849792480696], [92.7588958740235, 25.204029083251896], [92.75453948974621, 25.205371856689396], [92.75168609619152, 25.20734977722168], [92.74713897705107, 25.2077693939209], [92.74202728271484, 25.20309066772461], [92.7333374023438, 25.203220367431754], [92.72416687011724, 25.19919967651373], [92.71621704101591, 25.19415855407709], [92.70461273193388, 25.190521240234432], [92.69393920898432, 25.18135070800787], [92.68762207031278, 25.182319641113338], [92.68284606933622, 25.182041168213004], [92.67942810058622, 25.18309020996105], [92.67704010009771, 25.182189941406193], [92.67224121093767, 25.178159713745117], [92.66690826416033, 25.177061080932617], [92.66433715820341, 25.175359725952205], [92.66297912597662, 25.172990798950423], [92.66081237792986, 25.162252426147575], [92.65953826904303, 25.159120559692496], [92.65571594238287, 25.154130935669002], [92.65120697021513, 25.152400970458984], [92.64826965332037, 25.152652740478572], [92.64405059814459, 25.15117073059082], [92.6380081176759, 25.14521980285656], [92.63242340087896, 25.137559890747184], [92.63079833984403, 25.131839752197493], [92.6299667358399, 25.125030517578125], [92.62470245361322, 25.118690490722656], [92.62164306640653, 25.117700576782283], [92.61003112792969, 25.12409973144537], [92.60314941406244, 25.124990463256836], [92.59842681884783, 25.12471008300787], [92.59443664550798, 25.1282901763916], [92.58168792724615, 25.131870269775447], [92.57903289794928, 25.132009506225586], [92.56803894042997, 25.130090713501033], [92.56549835205084, 25.131280899047965], [92.557846069336, 25.129970550537223], [92.55316925048857, 25.130710601806697], [92.54312896728533, 25.13501930236822], [92.53993988037115, 25.13727951049799], [92.53562927246088, 25.134412765503043], [92.53018951416021, 25.13682174682623], [92.52746582031267, 25.13994026184082], [92.52466583251959, 25.140029907226506], [92.52522277832037, 25.125579833984375], [92.53024291992199, 25.12186050415039], [92.53132629394537, 25.11990165710455], [92.53305816650396, 25.11214828491211], [92.54081726074236, 25.104129791259766], [92.5429458618164, 25.099599838256836], [92.5380477905274, 25.099311828613338], [92.53201293945307, 25.103960037231502], [92.52651214599626, 25.105850219726676], [92.50978088378912, 25.10547065734886], [92.4991073608399, 25.10814857482933], [92.48429870605497, 25.10806083679205], [92.48031616210932, 25.100408554077205], [92.4797592163086, 25.09574127197277], [92.48017883300798, 25.085840225219783], [92.47654724121111, 25.0782527923584], [92.47461700439453, 25.070800781249943], [92.47091674804699, 25.066890716552678], [92.46750640869169, 25.061370849609602], [92.46598815917997, 25.057157516479606], [92.4636688232423, 25.05557060241705], [92.46203613281267, 25.05583000183117], [92.45983886718756, 25.054660797119254], [92.46015167236345, 25.04959106445324], [92.46286010742193, 25.050149917602596], [92.46466064453153, 25.047229766845817], [92.46325683593756, 25.03712844848627], [92.45976257324236, 25.03518104553217], [92.45680236816418, 25.035030364990178], [92.45420837402344, 25.036609649658203], [92.45101928710943, 25.040950775146428], [92.44653320312528, 25.042041778564567], [92.44178009033232, 25.03985023498541], [92.43788146972662, 25.033752441406364], [92.43192291259783, 25.032907485961914], [92.42590332031261, 25.031820297241325], [92.4239273071289, 25.032840728759822], [92.42298126220709, 25.032781600952262], [92.41880035400396, 25.032480239868278], [92.41636657714855, 25.033100128173942], [92.41207122802751, 25.034891128540096], [92.41101074218756, 25.035329818725586], [92.40712738037126, 25.03498077392578], [92.40461730957031, 25.03618049621582], [92.40286254882841, 25.03861045837408], [92.40113067626982, 25.041492462158317], [92.39727020263678, 25.04240036010748], [92.39337921142595, 25.04285049438471], [92.3926620483399, 25.04282951354986], [92.3893432617187, 25.042741775512752], [92.38736724853521, 25.042480468750227], [92.38433837890653, 25.04358291625988], [92.38172912597656, 25.044269561767635], [92.37767791748075, 25.044090270996037], [92.37535858154308, 25.044361114502067], [92.3732528686524, 25.046119689941463], [92.3731460571289, 25.0464706420899], [92.37207794189459, 25.05006027221691], [92.36962127685553, 25.051210403442326], [92.36530303955072, 25.050752639770565], [92.36287689209001, 25.05149078369152], [92.3602981567384, 25.051540374756087], [92.35720062255865, 25.051321029663086], [92.3539123535158, 25.051290512084904], [92.34863281250006, 25.05157089233404], [92.34716796875028, 25.052190780639705], [92.3463897705081, 25.053831100463867], [92.34583282470732, 25.0557098388673], [92.34871673583979, 25.058969497680778], [92.35148620605474, 25.062290191650504], [92.35427093505876, 25.063392639160156], [92.35600280761736, 25.065099716186523], [92.35659027099626, 25.06777000427246], [92.35640716552734, 25.07127952575695], [92.35595703124994, 25.073360443115348], [92.35240173339844, 25.07530021667492], [92.34783172607428, 25.0782527923584], [92.34246063232439, 25.07999992370611], [92.33853149414068, 25.081281661987305], [92.33434295654303, 25.081911087036076], [92.33003997802734, 25.081750869750977], [92.3268661499024, 25.080440521240178], [92.32454681396501, 25.077209472656307], [92.32250213623053, 25.074420928955135], [92.31897735595703, 25.07468986511236], [92.31604766845714, 25.074180603027457], [92.31494140625028, 25.072330474853743], [92.31006622314459, 25.07316017150879], [92.29144287109386, 25.078931808471793], [92.28655242919922, 25.079362869262752], [92.2816390991211, 25.08077049255394], [92.27802276611334, 25.08264923095703], [92.27571868896501, 25.08445930480957], [92.27111053466814, 25.08551025390625], [92.26145172119146, 25.087671279907227], [92.25892639160173, 25.088630676269588], [92.25712585449247, 25.089651107788086], [92.25340270996111, 25.09303283691429], [92.24437713623041, 25.096492767333984], [92.23742675781256, 25.09884071350109], [92.23562622070312, 25.099382400512752], [92.23401641845709, 25.09753036499029], [92.23354339599626, 25.097000122070312], [92.23229217529303, 25.098142623901424], [92.22940063476568, 25.100730895996207], [92.22831726074247, 25.10657119750971], [92.22480773925787, 25.10803985595703], [92.22059631347673, 25.109580993652344], [92.21540832519531, 25.111690521240348], [92.21349334716797, 25.11349105834961], [92.21330261230469, 25.11396026611328], [92.21231842041044, 25.116460800170955], [92.21441650390653, 25.11907958984375], [92.21569824218756, 25.12047004699707], [92.21971893310558, 25.120189666748104], [92.22570037841797, 25.118680953979492], [92.2262496948245, 25.118610382080078], [92.22889709472685, 25.118320465087947], [92.23232269287138, 25.11960983276373], [92.22702789306635, 25.122182846069393], [92.22152709960955, 25.12333106994629], [92.21678161621111, 25.125360488891715], [92.21202850341803, 25.126239776611328], [92.20774078369169, 25.127380371093807], [92.2033081054688, 25.128320693969727], [92.20088958740229, 25.12741088867199], [92.20072937011736, 25.127340316772518], [92.19893646240246, 25.12580108642578], [92.19515991210966, 25.12475013732916], [92.19309997558611, 25.122882843017805], [92.19198608398455, 25.120918273925895], [92.18754577636713, 25.12195968627941], [92.186576843262, 25.122779846191634], [92.18537139892584, 25.123771667480582], [92.1844863891601, 25.125991821289062], [92.18405151367199, 25.128360748291016], [92.1806869506836, 25.129190444946403], [92.17746734619158, 25.129320144653548], [92.17372131347662, 25.130100250244197], [92.16806030273466, 25.131540298461914], [92.16609191894537, 25.133630752563477], [92.16822052001964, 25.13566970825201], [92.16770172119135, 25.136659622192326], [92.16256713867188, 25.13739013671875], [92.15764617919939, 25.137531280517578], [92.15403747558594, 25.138479232788086], [92.14997863769531, 25.14042282104515], [92.14768981933594, 25.142520904541243], [92.14562988281267, 25.144041061401367], [92.14332580566423, 25.144720077514762], [92.13949584960938, 25.145500183105526], [92.13878631591803, 25.148340225219727], [92.13964843750028, 25.15283966064453], [92.14051818847662, 25.155099868774528], [92.14083099365234, 25.15715980529808], [92.14476013183605, 25.15717124938965], [92.14528656005865, 25.15899085998535], [92.14215850830078, 25.16072082519537], [92.13971710205095, 25.16242980957037], [92.13598632812511, 25.16447067260748], [92.1320114135745, 25.16686820983898], [92.12787628173845, 25.16876029968273], [92.12490844726568, 25.169969558715877], [92.1222686767581, 25.171400070190487], [92.11884307861357, 25.17308807373047], [92.11653900146496, 25.173990249633903], [92.1135482788086, 25.17486000061035], [92.11073303222673, 25.177661895752067], [92.10861206054705, 25.17929840087902], [92.10505676269537, 25.18019104003929], [92.10190582275385, 25.180538177490348], [92.09836578369146, 25.181489944458008], [92.09384155273449, 25.183109283447266], [92.0924301147461, 25.18378829956066], [92.08996582031256, 25.185100555420036], [92.08730316162115, 25.18595123291027], [92.08506011962902, 25.186439514160156], [92.08394622802763, 25.18585968017578], [92.0822296142581, 25.185689926147518], [92.07961273193376, 25.18729019165039], [92.07472229003912, 25.189149856567383], [92.07176971435541, 25.189622879028434], [92.06717681884794, 25.189970016479435], [92.06555175781256, 25.190031051635742], [92.05644989013683, 25.18782043457054], [92.05055236816435, 25.187360763549805], [92.04545593261719, 25.186759948730412], [92.0405502319336, 25.18580055236822], [92.03626251220732, 25.18477249145502], [92.033447265625, 25.183040618896428], [92.03056335449213, 25.182069778442383], [92.02391815185564, 25.18618965148937], [92.02285766601568, 25.186849594116268], [92.01802062988298, 25.189439773559684], [92.0178833007813, 25.189510345459098], [92.01393890380888, 25.1901912689209], [92.01307678222673, 25.189960479736328], [92.00798034667974, 25.188642501831055], [92.00327301025419, 25.186641693115348], [91.99970245361345, 25.183629989624137], [91.99582672119169, 25.179590225219727], [91.99221038818388, 25.176982879638672], [91.98886108398438, 25.17562103271507], [91.98822784423822, 25.17562103271507], [91.97963714599604, 25.175590515136776], [91.97692871093778, 25.176940917968807], [91.9753875732423, 25.18011093139654], [91.9732284545899, 25.182199478149528], [91.96676635742193, 25.18309020996105], [91.96160125732428, 25.183460235595703], [91.95474243164068, 25.183851242065373], [91.95027160644526, 25.183980941772518], [91.94889831542997, 25.184139251709098], [91.94799041748047, 25.184120178222656], [91.94261169433622, 25.183998107910213], [91.93805694580072, 25.186279296875057], [91.93386077880854, 25.185518264770508], [91.93020629882841, 25.185831069946403], [91.9269561767581, 25.186309814453182], [91.92224884033203, 25.18705940246582], [91.91819000244169, 25.18659019470215], [91.91458892822294, 25.18535041809082], [91.91162109375006, 25.184152603149357], [91.90795898437517, 25.184232711791935], [91.90306854248053, 25.18361282348627], [91.90052795410173, 25.182220458984375], [91.89733123779303, 25.181430816650618], [91.89335632324224, 25.181690216064567], [91.88890075683611, 25.18088912963873], [91.88622283935564, 25.17915916442871], [91.88310241699247, 25.179742813110465], [91.88137054443388, 25.180490493774528], [91.8774185180664, 25.17972946166998], [91.87330627441412, 25.178619384765625], [91.86746978759794, 25.177869796752987], [91.8630981445312, 25.17764091491705], [91.85778808593767, 25.177610397338867], [91.85346984863287, 25.178340911865234], [91.84870147705084, 25.180259704589957], [91.83744812011724, 25.182411193847656], [91.83473205566423, 25.182399749755916], [91.83036804199224, 25.181070327758903], [91.82579803466803, 25.17809104919445], [91.82318115234386, 25.176410675048828], [91.8190231323245, 25.175479888916016], [91.81442260742216, 25.175479888916016], [91.81262969970709, 25.173770904541016], [91.80916595459001, 25.172809600830078], [91.80526733398466, 25.1730194091798], [91.79927062988281, 25.17187118530279], [91.79274749755876, 25.171369552612532], [91.78748321533209, 25.169620513916072], [91.78573608398443, 25.16905975341797], [91.7845764160158, 25.168689727783317], [91.78190612792986, 25.16827964782715], [91.78086090087919, 25.16840171813959], [91.77877807617216, 25.168630599975586], [91.77540588378923, 25.16949844360346], [91.77192687988276, 25.17061042785639], [91.76930236816423, 25.17117118835455], [91.76667022705084, 25.171550750732536], [91.76378631591814, 25.17327117919922], [91.76167297363298, 25.17495918273937], [91.75971221923857, 25.177499771118164], [91.75741577148466, 25.179710388183537], [91.75554656982422, 25.180120468139705], [91.75287628173828, 25.179821014404297], [91.75126647949224, 25.177930831909293], [91.75176239013689, 25.174989700317326], [91.75094604492182, 25.172830581665096], [91.75022125244158, 25.171819686889762], [91.74925231933594, 25.170482635498047], [91.74681091308611, 25.166788101196232], [91.7461929321289, 25.16588020324707], [91.74475097656256, 25.16377258300787], [91.74488830566423, 25.160320281982536], [91.7454833984375, 25.156850814819393], [91.74533843994146, 25.152891159057674], [91.7440032958985, 25.151220321655387], [91.74120330810575, 25.150810241699276], [91.7380981445313, 25.150699615478572], [91.73329925537115, 25.15208053588873], [91.73255157470709, 25.152170181274414], [91.72778320312506, 25.152690887451286], [91.72402954101591, 25.153579711914006], [91.72190856933605, 25.155380249023494], [91.72036743164068, 25.15728187561035], [91.7201766967774, 25.15751075744629], [91.71745300292974, 25.158252716064396], [91.71325683593756, 25.159090042114315], [91.71111297607439, 25.158950805664062], [91.70844268798845, 25.15870094299322], [91.7073059082033, 25.15880012512207], [91.70709228515625, 25.157449722289982], [91.70668029785185, 25.155031204223633], [91.7079467773438, 25.152690887451286], [91.70780944824247, 25.15114021301264], [91.70419311523466, 25.149499893188477], [91.702621459961, 25.147150039672795], [91.70127105712896, 25.146980285644588], [91.70020294189482, 25.146839141845703], [91.69930267334001, 25.145029067993278], [91.69921875000028, 25.144390106201172], [91.69880676269537, 25.141490936279297], [91.69584655761719, 25.13908004760748], [91.69053649902361, 25.137950897217024], [91.68576049804705, 25.136930465698185], [91.68176269531267, 25.13759040832531], [91.679008483887, 25.138219833374137], [91.67521667480497, 25.136920928955078], [91.67262268066406, 25.135288238525447], [91.67080688476591, 25.133409500122013], [91.67003631591825, 25.131599426269645], [91.66844940185553, 25.13027954101574], [91.66530609130854, 25.130451202392578], [91.6647262573245, 25.13086128234869], [91.66353607177746, 25.131719589233455], [91.66050720214872, 25.13178062438959], [91.6591415405274, 25.131200790405387], [91.655029296875, 25.12945938110346], [91.65126037597656, 25.127300262451286], [91.6499862670899, 25.12580108642578], [91.64823913574224, 25.123678207397518], [91.64453125, 25.122720718383732], [91.64122772216808, 25.123771667480582], [91.63697052001959, 25.126262664794922], [91.63343048095732, 25.126630783080998], [91.63054656982433, 25.12715148925787], [91.62827301025419, 25.128320693969727], [91.62903594970732, 25.13360977172863], [91.62921905517607, 25.137239456176758], [91.6276473999024, 25.140060424804688], [91.62673187255871, 25.14313125610363], [91.62586975097673, 25.145009994506836], [91.62320709228533, 25.14595985412609], [91.62198638916044, 25.145980834960938], [91.6201782226563, 25.146009445190657], [91.61862182617205, 25.143831253051815], [91.61740112304716, 25.143360137939567], [91.61576843261736, 25.14491271972679], [91.61437225341825, 25.146049499511946], [91.61360931396513, 25.145950317382756], [91.61266326904291, 25.145830154418945], [91.61160278320318, 25.145080566406307], [91.61003875732439, 25.143970489501953], [91.60714721679688, 25.14305114746105], [91.60682678222662, 25.143619537353516], [91.60558319091825, 25.145801544189567], [91.60426330566435, 25.151020050048828], [91.60424041748075, 25.15133094787592], [91.60414123535173, 25.153659820556754], [91.60475158691412, 25.154680252075423], [91.60544586181658, 25.155849456787166], [91.60678100585955, 25.157230377197322], [91.6045227050783, 25.158809661865348], [91.60330963134794, 25.159950256347713], [91.60762023925787, 25.166740417480412], [91.60971069335943, 25.168100357055778], [91.61319732666044, 25.169691085815543], [91.61734771728521, 25.169710159301758], [91.61889648437506, 25.170061111450195], [91.61972045898432, 25.172660827636662], [91.61741638183622, 25.17591094970703], [91.60824584960966, 25.174350738525447], [91.60507965087908, 25.174180984497184], [91.59807586669928, 25.17425918579113], [91.59311676025396, 25.173639297485465], [91.58464050292969, 25.1718807220459], [91.58200836181658, 25.17233085632347], [91.58032989501959, 25.172849655151367], [91.57817077636736, 25.168199539184627], [91.57637786865246, 25.164321899414062], [91.57916259765625, 25.160600662231673], [91.57507324218778, 25.16074943542492], [91.57314300537138, 25.160129547119254], [91.5691909790039, 25.159429550171012], [91.56694793701189, 25.158750534057617], [91.56115722656278, 25.15121078491211], [91.55885314941435, 25.14929008483898], [91.54627990722685, 25.146471023559627], [91.53777313232422, 25.144372940063533], [91.53353881835955, 25.144180297851676], [91.5295486450197, 25.14398002624523], [91.52188110351557, 25.14464187622076], [91.51364898681669, 25.145349502563533], [91.5125808715822, 25.145160675048828], [91.51026916503923, 25.14472961425787], [91.50830841064482, 25.143249511718864], [91.50672912597662, 25.14068031311035], [91.50595855712896, 25.13943099975586], [91.50463867187506, 25.137296676635856], [91.5042572021485, 25.1366806030274], [91.50263214111328, 25.135480880737305], [91.49946594238287, 25.135419845580998], [91.49693298339861, 25.135890960693473], [91.49257659912115, 25.136699676513615], [91.48972320556646, 25.136051177978572], [91.48512268066423, 25.136329650879134], [91.48236846923857, 25.135570526123047], [91.48240661621094, 25.1352596282959], [91.48255157470732, 25.134069442748967], [91.48152160644537, 25.13401985168457], [91.47843933105486, 25.133871078491325], [91.47406768798828, 25.133859634399414], [91.4711990356447, 25.13425064086914], [91.4701690673831, 25.134843826294173], [91.47186279296903, 25.13719940185547], [91.47236633300787, 25.137651443481445], [91.47209930419916, 25.13990020751953], [91.47149658203153, 25.143190383911133], [91.47254180908203, 25.14781188964855], [91.4711990356447, 25.150148391723746], [91.4687957763673, 25.150009155273438], [91.46791076660156, 25.149801254272518], [91.46215820312528, 25.148519515991325], [91.4565200805664, 25.14803123474121], [91.45065307617193, 25.148180007934627], [91.4459609985351, 25.149101257324446], [91.44232940673857, 25.151010513305664], [91.4413299560548, 25.152149200439396], [91.43950653076189, 25.15421104431175], [91.43804168701178, 25.15468978881836], [91.4369659423831, 25.155040740966797], [91.43386840820318, 25.15497970581066], [91.43173217773443, 25.155170440673942], [91.43006896972662, 25.156030654907283], [91.4273529052735, 25.159982681274414], [91.42664337158214, 25.16193962097168], [91.42523193359392, 25.165790557861555], [91.42196655273455, 25.168781280517578], [91.41995239257818, 25.170021057128906], [91.41980743408232, 25.170110702514762], [91.4190063476563, 25.167680740356502], [91.416488647461, 25.165121078491325], [91.41237640380888, 25.16497993469261], [91.40834808349638, 25.165348052978516], [91.40519714355486, 25.16443061828619], [91.4032363891601, 25.164159774780387], [91.39984130859392, 25.164279937744197], [91.39787292480497, 25.165380477905273], [91.39505004882812, 25.167089462280273], [91.3925323486331, 25.16729164123541], [91.38883209228521, 25.166400909423942], [91.38851928710966, 25.166324615478516], [91.38671875000006, 25.165889739990178], [91.38131713867188, 25.166419982910156], [91.37760162353521, 25.166490554809627], [91.37528991699224, 25.167148590087947], [91.37330627441406, 25.169628143310604], [91.37294006347673, 25.17058944702154], [91.37191772460966, 25.17324256896984], [91.3704910278322, 25.17523956298851], [91.36804962158209, 25.17560958862299], [91.36672210693365, 25.174762725830305], [91.36557769775396, 25.174030303955192], [91.35990142822294, 25.17015075683605], [91.35852050781256, 25.170431137085018], [91.3569564819336, 25.172149658203125], [91.35462188720703, 25.172119140625], [91.35031890869146, 25.171751022339095], [91.34639739990229, 25.171720504760742], [91.34232330322271, 25.172258377075252], [91.34063720703153, 25.1727809906007], [91.34014892578142, 25.173660278320312], [91.33959197998064, 25.174650192260856], [91.33673095703142, 25.175550460815487], [91.33448028564459, 25.176090240478743], [91.33168029785185, 25.17821121215826], [91.32814788818376, 25.18093109130865], [91.32631683349621, 25.18235015869152], [91.32256317138666, 25.183160781860465], [91.31871032714872, 25.183240890503043], [91.31201171875011, 25.183130264282283], [91.30771636962908, 25.182992935180607], [91.30396270751959, 25.183580398559513], [91.300521850586, 25.184101104736555], [91.29489898681635, 25.185789108276367], [91.29438018798845, 25.186260223388786], [91.29338836669922, 25.187160491943587], [91.29614257812506, 25.189531326293945], [91.29757690429682, 25.190628051757812], [91.29361724853533, 25.193460464477653], [91.29055023193376, 25.19441032409668], [91.2875061035158, 25.195339202880916], [91.28262329101568, 25.19752120971691], [91.27996826171886, 25.1986408233642], [91.27752685546903, 25.200559616089095], [91.27556610107428, 25.203439712524414], [91.27378845214861, 25.204307556152287], [91.26966094970709, 25.203821182250977], [91.2658081054688, 25.20246124267578], [91.26375579833996, 25.200580596923942], [91.26117706298845, 25.199520111083984], [91.25881195068388, 25.198741912841797], [91.25798797607428, 25.196180343627987], [91.25573730468756, 25.195110321044922], [91.25154876708996, 25.194620132446403], [91.24485015869146, 25.19445037841797], [91.24215698242193, 25.196252822876033], [91.24088287353544, 25.19685935974121], [91.2403030395509, 25.197141647338924], [91.23990631103521, 25.196910858154354], [91.23802185058622, 25.195770263671875], [91.23541259765625, 25.195339202880916], [91.23354339599626, 25.195520401001033], [91.23139190673822, 25.19703102111839], [91.22512054443376, 25.19811058044445], [91.22165679931635, 25.198339462280387], [91.21550750732433, 25.199119567871207], [91.21015930175793, 25.19947814941412], [91.20352935791044, 25.199762344360465], [91.19904327392584, 25.199569702148438], [91.19573211669922, 25.1988201141358], [91.18997192382841, 25.197120666503906], [91.18353271484375, 25.195901870727596], [91.17736053466808, 25.194839477539062], [91.17215728759771, 25.19433021545416], [91.16526794433594, 25.194229125976562], [91.16055297851568, 25.194427490234375], [91.15608215332048, 25.196081161499023], [91.15251159667974, 25.195560455322322], [91.14576721191406, 25.19490051269537], [91.14420318603544, 25.194749832153377], [91.13828277587919, 25.193571090698356], [91.1320190429687, 25.193321228027344], [91.12754058837896, 25.193361282348633], [91.12119293212908, 25.193910598754883], [91.11598205566435, 25.194829940796126], [91.10875701904297, 25.195930480956974], [91.10774993896513, 25.196121215820256], [91.10426330566412, 25.196769714355526], [91.09960174560547, 25.197151184082088], [91.09498596191435, 25.19701957702631], [91.09049224853533, 25.196651458740234], [91.0864562988283, 25.196779251098633], [91.08249664306646, 25.19749259948736], [91.07990264892607, 25.197170257568303], [91.07859802246122, 25.196411132812727], [91.07672119140625, 25.19355010986351], [91.07093048095714, 25.19138908386236], [91.06736755371094, 25.190811157226562], [91.06431579589844, 25.19040107727062], [91.05983734130865, 25.190490722656477], [91.0592117309572, 25.1890106201173], [91.0559310913086, 25.187797546386776], [91.05223846435558, 25.188499450683594], [91.04985809326189, 25.187540054321403], [91.04633331298857, 25.187540054321403], [91.04485321044916, 25.187021255493164], [91.04286956787115, 25.185199737548828], [91.03723907470703, 25.184850692749023], [91.03362274169939, 25.184400558471793], [91.02953338623058, 25.18482017517084], [91.02773284912126, 25.185329437255803], [91.02552032470709, 25.183980941772518], [91.02307891845732, 25.181640625], [91.01951599121111, 25.181011199951172], [91.01457214355486, 25.18060111999523], [91.0106964111331, 25.18021011352539], [91.00792694091803, 25.180128097534237], [91.00524139404297, 25.179531097412337], [91.00167846679693, 25.177522659301758], [90.99781036376959, 25.17552185058588], [90.99263000488298, 25.17414283752464], [90.98697662353521, 25.173389434814453], [90.98210144042963, 25.172929763793945], [90.97358703613287, 25.1718807220459], [90.97045135498075, 25.171369552612532], [90.970199584961, 25.171329498291243], [90.96901702880865, 25.169679641723633], [90.96852111816435, 25.16884040832531], [90.96658325195318, 25.169218063354492], [90.96292877197271, 25.168249130249023], [90.95848846435564, 25.167711257934684], [90.9529800415039, 25.16744995117199], [90.94803619384771, 25.165439605712947], [90.94328308105474, 25.16335868835472], [90.94317626953153, 25.1633110046389], [90.9366302490235, 25.16188049316429], [90.92986297607439, 25.160560607910213], [90.9241104125976, 25.16058921813959], [90.91837310791044, 25.16061019897461], [90.91179656982428, 25.159811019897575], [90.90786743164091, 25.159719467163143], [90.90400695800787, 25.16163253784191], [90.9020614624024, 25.163240432739315], [90.90084075927729, 25.1639919281007], [90.89968109130888, 25.164699554443473], [90.8990325927735, 25.16444969177246], [90.89480590820312, 25.162801742553768], [90.88568878173834, 25.16426277160656], [90.87934875488298, 25.161151885986328], [90.87583160400419, 25.15834999084484], [90.87091064453125, 25.158742904663086], [90.86695861816406, 25.15612030029297], [90.8635864257813, 25.157850265502987], [90.85835266113298, 25.155849456787166], [90.85353851318354, 25.155771255493164], [90.84995269775408, 25.15666007995611], [90.84342193603544, 25.15921974182129], [90.84028625488287, 25.15899085998535], [90.83670043945324, 25.15974044799816], [90.82726287841814, 25.160921096801758], [90.82446289062506, 25.16113090515148], [90.82360076904291, 25.16283988952648], [90.82235717773443, 25.16533088684082], [90.81981658935564, 25.16588020324707], [90.81713104248047, 25.164190292358512], [90.8144073486331, 25.162500381469954], [90.80850982666044, 25.16522979736328], [90.80914306640642, 25.167081832885685], [90.80982208251982, 25.169080734253157], [90.81046295166033, 25.171699523925724], [90.80721282958984, 25.171180725097656], [90.80423736572271, 25.172029495239315], [90.80110168457031, 25.1754608154298], [90.80020904541021, 25.17825126647955], [90.79827880859392, 25.17854118347168], [90.79640960693365, 25.17799949645996], [90.79525756835943, 25.177669525146598], [90.7923660278322, 25.1772518157959], [90.7887802124024, 25.17817115783697], [90.7866821289063, 25.18077278137207], [90.7859497070313, 25.182640075683594], [90.78542327880888, 25.183969497680664], [90.78385162353521, 25.182929992675895], [90.7811965942384, 25.18118286132824], [90.77854156494169, 25.179779052734375], [90.77445983886724, 25.179000854492188], [90.77197265625, 25.177881240844727], [90.76970672607428, 25.1768608093264], [90.76724243164068, 25.17390060424799], [90.76523590087885, 25.17189979553234], [90.76393890380876, 25.169992446899528], [90.76537322998058, 25.168371200561637], [90.76586151123064, 25.167810440063477], [90.76449584960955, 25.166240692138786], [90.76290893554716, 25.166450500488338], [90.75797271728544, 25.16710281372076], [90.75473022460966, 25.164710998535156], [90.75446319580084, 25.16451072692894], [90.75100708007818, 25.164060592651367], [90.75029754638683, 25.16472053527832], [90.7472686767581, 25.16751289367687], [90.74468994140642, 25.165189743041992], [90.74173736572294, 25.1648006439209], [90.74037170410162, 25.164640426635742], [90.73979949951178, 25.162309646606673], [90.74037170410162, 25.162220001220817], [90.74289703369169, 25.16180038452154], [90.74584960937506, 25.160379409790096], [90.74640655517595, 25.15870094299322], [90.74534606933605, 25.15661048889166], [90.74217987060564, 25.156778335571516], [90.73928070068388, 25.15443038940424], [90.73861694335943, 25.154512405395565], [90.7364578247072, 25.155420303344783], [90.73361206054705, 25.1580429077149], [90.73284149169939, 25.16133117675787], [90.72989654541027, 25.16298103332514], [90.7271499633789, 25.162670135498047], [90.7260131835938, 25.162181854248104], [90.72187805175793, 25.165531158447266], [90.7199096679688, 25.166519165039176], [90.71652984619146, 25.16605949401861], [90.71482849121105, 25.16428947448736], [90.71446228027372, 25.163890838623274], [90.71415710449236, 25.162010192871094], [90.71179199218778, 25.1603107452392], [90.71026611328153, 25.162122726440373], [90.70974731445312, 25.162729263305778], [90.70812225341803, 25.16278076171875], [90.70738983154308, 25.16107940673828], [90.70717620849615, 25.16058921813959], [90.70582580566412, 25.15706062316889], [90.70439910888672, 25.155271530151367], [90.69902038574247, 25.15950965881359], [90.69892120361328, 25.15958976745617], [90.69831085205095, 25.161960601806697], [90.69535827636724, 25.1634902954101], [90.69258880615251, 25.162612915039062], [90.68763732910173, 25.16621017456066], [90.68916320800798, 25.16856956481945], [90.69272613525419, 25.170749664306868], [90.69281768798828, 25.171670913696346], [90.68984222412121, 25.172050476074332], [90.68605804443388, 25.17093086242687], [90.68338775634794, 25.171287536621207], [90.6793060302735, 25.17045021057129], [90.67851257324219, 25.168701171875], [90.67775726318365, 25.167060852050838], [90.67552947998058, 25.165348052978516], [90.67301177978521, 25.16664123535162], [90.67259979248047, 25.16897964477539], [90.67233276367216, 25.170560836791992], [90.67201995849626, 25.17666053771984], [90.67321014404303, 25.18091964721691], [90.67211914062528, 25.183771133422795], [90.67138671874994, 25.186599731445312], [90.67121887207031, 25.190862655639762], [90.67114257812511, 25.194301605224553], [90.67117309570341, 25.19729042053234], [90.66861724853521, 25.195360183715934], [90.6679229736331, 25.190969467163086], [90.66699218750028, 25.18749046325678], [90.6650009155274, 25.185550689697266], [90.66368865966803, 25.185459136962947], [90.66262054443354, 25.18540191650402], [90.66063690185553, 25.185810089111385], [90.6581420898438, 25.18364906311041], [90.65667724609403, 25.18077278137207], [90.65252685546875, 25.181882858276424], [90.65093994140653, 25.18280029296875], [90.6505661010745, 25.182678222656477], [90.64829254150419, 25.181970596313533], [90.64768218994152, 25.180311203002987], [90.6470031738283, 25.178510665893498], [90.64832305908203, 25.176799774169922], [90.64878082275396, 25.173339843750057], [90.64232635498053, 25.174591064453125], [90.63971710205107, 25.173288345336914], [90.63687896728516, 25.17217826843273], [90.63391113281256, 25.17243003845215], [90.63333129882818, 25.17247009277338], [90.627426147461, 25.17300033569336], [90.62592315673834, 25.17237091064476], [90.6233978271485, 25.175830841064453], [90.62036132812506, 25.174320220947266], [90.61618041992193, 25.17842292785639], [90.61340332031244, 25.17535018920904], [90.6095428466798, 25.175252914428825], [90.60482025146479, 25.176090240478743], [90.6001815795899, 25.17548942565918], [90.59644317626953, 25.175670623779297], [90.59369659423834, 25.173810958862305], [90.59204101562494, 25.172891616821232], [90.59107971191435, 25.172830581665096], [90.58731842041033, 25.173381805419922], [90.5855712890625, 25.172981262207145], [90.58493804931652, 25.172401428222713], [90.58377075195318, 25.171319961547965], [90.58281707763678, 25.170770645141715], [90.57971954345709, 25.172029495239315], [90.5785064697265, 25.17252922058111], [90.57595825195318, 25.172950744629134], [90.57359313964861, 25.1730194091798], [90.57192230224615, 25.171440124511776], [90.57147216796892, 25.171018600463924], [90.57058715820318, 25.17131042480463], [90.56870269775396, 25.171920776367188], [90.5637664794923, 25.17189979553234], [90.56076812744135, 25.171768188476562], [90.55928802490251, 25.174110412597713], [90.55570983886724, 25.17354965209961], [90.55314636230469, 25.173219680786246], [90.55034637451178, 25.17370986938471], [90.54535675048845, 25.17368125915533], [90.54071807861357, 25.172929763793945], [90.53617095947266, 25.17307090759283], [90.5320129394533, 25.17360115051281], [90.52848815917997, 25.17274093627924], [90.52478790283209, 25.172002792358512], [90.52120971679693, 25.173719406128043], [90.51930236816412, 25.174070358276424], [90.51670074462885, 25.175069808960075], [90.51663970947271, 25.17058944702154], [90.51573944091825, 25.169820785522518], [90.5118865966798, 25.17040252685547], [90.5081176757812, 25.171382904052848], [90.50260162353516, 25.16638946533203], [90.49756622314459, 25.165058135986385], [90.49608612060575, 25.16356086730957], [90.49571990966791, 25.163179397583008], [90.49402618408203, 25.161439895629826], [90.48787689209013, 25.16002845764183], [90.484428405762, 25.159090042114315], [90.47630310058611, 25.156890869140625], [90.46510314941412, 25.153280258178768], [90.45964050292997, 25.152250289916992], [90.45939636230474, 25.151809692382926], [90.45791625976591, 25.148969650268555], [90.45658111572294, 25.145969390869197], [90.45497894287115, 25.14443016052246], [90.45236206054693, 25.144502639770508], [90.44837188720714, 25.145519256591797], [90.4475326538086, 25.145742416381836], [90.44388580322283, 25.14717102050787], [90.44055938720732, 25.14825057983421], [90.43585205078125, 25.149089813232365], [90.43145751953125, 25.150369644165153], [90.42838287353544, 25.151500701904354], [90.42404937744158, 25.15295982360834], [90.42154693603516, 25.15470123291027], [90.4186325073245, 25.15736961364746], [90.41638946533203, 25.15933036804205], [90.4144668579101, 25.160020828247298], [90.40975189209001, 25.160690307617188], [90.4065017700197, 25.160619735717773], [90.40283203124994, 25.16118812561041], [90.39743804931652, 25.162050247192383], [90.39245605468756, 25.162490844726676], [90.38672637939459, 25.162612915039062], [90.38273620605474, 25.16307067871105], [90.37954711914091, 25.16426277160656], [90.37502288818376, 25.167440414428825], [90.37020111084013, 25.171220779418945], [90.36492156982439, 25.174060821533317], [90.36030578613276, 25.176441192626953], [90.35500335693376, 25.18011093139654], [90.3506927490235, 25.184431076049748], [90.34754943847673, 25.18802261352539], [90.34506988525408, 25.190849304199276], [90.34152984619146, 25.193500518798942], [90.33737182617216, 25.19419097900402], [90.332817077637, 25.194099426269588], [90.32874298095709, 25.193651199340934], [90.32515716552746, 25.19284057617199], [90.32142639160173, 25.191001892089844], [90.3180770874024, 25.189659118652344], [90.31302642822283, 25.19154167175293], [90.30874633789074, 25.192651748657283], [90.30503082275408, 25.193220138549805], [90.30187988281261, 25.194229125976562], [90.29810333251982, 25.195430755615348], [90.2948989868164, 25.19668006896984], [90.29073333740251, 25.19721031188959], [90.28646087646513, 25.198200225830135], [90.28447723388678, 25.19870948791504], [90.2817459106447, 25.199600219726562], [90.2787170410158, 25.20021057128912], [90.27755737304705, 25.200065612793082], [90.27577209472685, 25.19984054565424], [90.2681884765625, 25.199859619140682], [90.26452636718778, 25.19984054565424], [90.26123046875006, 25.201259613037166], [90.25982666015642, 25.202941894531364], [90.2556762695313, 25.203109741210994], [90.25302124023443, 25.202949523925895], [90.24806976318365, 25.20384025573742], [90.24485778808605, 25.20582008361822], [90.24140930175787, 25.20683097839361], [90.23737335205084, 25.206649780273438], [90.23425292968767, 25.20560073852539], [90.23059844970697, 25.203519821166992], [90.2285766601563, 25.203420639038313], [90.22682952880876, 25.206199645996207], [90.22535705566412, 25.207599639892692], [90.22252655029303, 25.207969665527344], [90.21911621093778, 25.207731246948242], [90.21524810791021, 25.20891952514654], [90.21257781982428, 25.210388183593864], [90.20542907714838, 25.21162033081066], [90.2023468017581, 25.211940765380916], [90.19828033447271, 25.213130950927848], [90.19464874267584, 25.215932846069336], [90.19158172607428, 25.21683120727539], [90.1890258789062, 25.218057632446403], [90.18562316894548, 25.220109939575423], [90.18306732177763, 25.22129058837885], [90.17489624023466, 25.224021911621094], [90.1665267944336, 25.22462844848627], [90.1582794189456, 25.225299835205305], [90.15280151367188, 25.225482940673885], [90.14319610595714, 25.22507095336914], [90.1349716186524, 25.225900650024528], [90.12879943847673, 25.226488113403263], [90.1195831298831, 25.225549697875977], [90.11519622802763, 25.226921081543196], [90.1094970703125, 25.230430603027457], [90.10228729248064, 25.236602783203125], [90.09932708740246, 25.238689422607536], [90.09240722656256, 25.240999221801758], [90.08574676513678, 25.242460250854492], [90.08071136474626, 25.24485969543457], [90.07588958740263, 25.24842071533203], [90.07132720947294, 25.251909255981445], [90.06742858886724, 25.25471115112316], [90.06295013427729, 25.259180068969783], [90.0597763061524, 25.262939453125], [90.0569076538086, 25.264060974121094], [90.05313110351568, 25.264219284057617], [90.04840850830107, 25.264539718627873], [90.04299926757818, 25.265239715576286], [90.03897857666016, 25.265630722046012], [90.03434753417969, 25.266992568969727], [90.0243530273438, 25.272840499878157], [90.02120971679705, 25.275220870971623], [90.01510620117205, 25.278329849243278], [90.00827789306646, 25.28242111206049], [90.00551605224638, 25.283138275146598], [90.00218963623053, 25.281160354614315], [89.99929046630876, 25.279012680053825], [89.99569702148443, 25.27926826477062], [89.99034118652344, 25.280820846557617], [89.98594665527361, 25.282360076904354], [89.9834823608399, 25.284561157226676], [89.9836196899414, 25.28709030151373], [89.98343658447283, 25.29203033447277], [89.98219299316412, 25.294799804687557], [89.97988128662115, 25.29821014404297], [89.97548675537115, 25.301349639892578], [89.97123718261736, 25.303060531616154], [89.96716308593778, 25.303329467773438], [89.96366882324224, 25.302898406982422], [89.96055603027361, 25.3021297454834], [89.95658874511724, 25.299940109252987], [89.95616149902361, 25.299310684204215], [89.95468139648443, 25.29718971252447], [89.95337677001959, 25.29564857482916], [89.95092773437511, 25.29590988159191], [89.9485931396485, 25.29817008972168], [89.94857025146484, 25.299409866333008], [89.94851684570312, 25.302709579467773], [89.94861602783209, 25.30397033691412], [89.94371795654325, 25.3022403717041], [89.94101715087902, 25.30060005188011], [89.93672943115251, 25.300580978393498], [89.93392944335943, 25.30199050903326], [89.9310989379884, 25.302299499511832], [89.92685699462896, 25.30429267883312], [89.92360687255865, 25.305299758911133], [89.92048645019531, 25.306421279907227], [89.91786193847656, 25.30742073059082], [89.91467285156256, 25.30837249755882], [89.91126251220714, 25.30869102478033], [89.9063796997072, 25.30742073059082], [89.90515899658214, 25.3063201904298], [89.90164947509766, 25.303211212158146], [89.89412689209013, 25.29536056518566], [89.88968658447271, 25.289880752563477], [89.88642120361334, 25.28779029846197], [89.88147735595709, 25.28703117370617], [89.87590026855469, 25.28730010986328], [89.87206268310564, 25.28820991516119], [89.86759185791044, 25.288419723510742], [89.86451721191412, 25.287820816040266], [89.86387634277361, 25.287820816040266], [89.86055755615263, 25.287799835205078], [89.85685729980474, 25.28845977783203], [89.85337066650408, 25.290100097656364], [89.85087585449236, 25.291330337524357], [89.84767150878906, 25.291879653930778], [89.84361267089844, 25.293050765991268], [89.84316253662121, 25.293180465698242], [89.83426666259766, 25.295669555664006], [89.83731842041016, 25.29869079589855], [89.83888244628923, 25.300678253173942], [89.8402175903322, 25.30360031127924], [89.84108734130888, 25.305311203003043], [89.84292602539068, 25.30610084533697], [89.84484863281256, 25.306829452514762], [89.84664916992182, 25.308250427246207], [89.84739685058622, 25.310251235961914], [89.84604644775419, 25.314228057861442], [89.84485626220709, 25.314989089965763], [89.84055328369135, 25.31640052795416], [89.83914184570318, 25.316959381103516], [89.83805847167997, 25.317398071289176], [89.83541107177734, 25.319660186767578], [89.83473205566412, 25.322998046875], [89.83493041992193, 25.324811935424748], [89.83506011962908, 25.325979232788086], [89.83532714843756, 25.328609466552734], [89.8369979858399, 25.33241271972662], [89.83692169189447, 25.334230422973746], [89.83307647705107, 25.341270446777287], [89.829643249512, 25.345500946045036], [89.82755279541044, 25.34729957580572], [89.82550811767595, 25.349210739135856], [89.82508087158232, 25.35197067260748], [89.82448577880888, 25.353580474853516], [89.82245635986345, 25.355720520019645], [89.82202911376982, 25.358600616455135], [89.82285308837908, 25.360950469970817], [89.82388305664068, 25.364139556884822], [89.82424926757818, 25.36610031127941], [89.82375335693388, 25.368749618530273], [89.82312774658209, 25.376449584960994], [89.82228851318376, 25.378860473632812], [89.82176971435553, 25.38255119323742], [89.82166290283197, 25.385360717773438], [89.82279968261747, 25.388050079345817], [89.82424163818365, 25.390050888061467], [89.82644653320312, 25.39237976074213], [89.82801818847673, 25.394609451294002], [89.82905578613293, 25.397871017455998], [89.83029937744158, 25.401880264282454], [89.83053588867193, 25.40382957458496], [89.82990264892595, 25.406360626220817], [89.82890319824247, 25.40890121459961], [89.82868194580107, 25.412639617920036], [89.82987976074219, 25.413471221923828], [89.83303070068365, 25.415229797363395], [89.8331375122072, 25.417509078979435], [89.83386993408197, 25.423690795898438], [89.8354568481447, 25.4285507202149], [89.83775329589844, 25.433799743652344], [89.83983612060564, 25.438560485839844], [89.84227752685547, 25.441860198974723], [89.84514617919922, 25.444999694824332], [89.8466033935548, 25.44861030578636], [89.84821319580095, 25.451770782470817], [89.85237121582026, 25.45642280578636], [89.8553085327149, 25.459672927856673], [89.85666656494146, 25.46249008178711], [89.85698699951189, 25.466060638427848], [89.85595703125028, 25.46817970275879], [89.85507202148455, 25.470750808715877], [89.85479736328136, 25.47309112548828], [89.85511016845703, 25.476049423217887], [89.85957336425793, 25.47339057922369], [89.86402893066406, 25.47286033630371], [89.8687133789063, 25.476360321045036], [89.87175750732428, 25.478900909423828], [89.87995910644537, 25.488639831543026], [89.88004302978516, 25.495599746704215], [89.87558746337902, 25.50547027587902], [89.87384796142584, 25.51356124877941], [89.87032318115234, 25.5214900970459], [89.87565612792969, 25.528528213501204], [89.8711776733399, 25.53695106506359], [89.87145233154291, 25.53729820251459], [89.87455749511736, 25.54156112670904], [89.87394714355469, 25.54193687438965], [89.87400054931646, 25.542060852050895], [89.87406158447277, 25.542898178100643], [89.87010192871122, 25.54422187805187], [89.8738021850586, 25.549280166625977], [89.87758636474626, 25.548931121826172], [89.8863601684572, 25.55787086486822], [89.90441131591825, 25.559499740600643], [89.91809844970709, 25.562629699707088], [89.9260559082033, 25.56352996826172], [89.93583679199224, 25.562709808349837], [89.94164276123041, 25.56762123107933], [89.94937896728521, 25.56825065612793], [89.95675659179705, 25.57046127319336], [89.9664611816408, 25.571701049804688], [89.97280883789068, 25.574609756469727], [89.97505187988298, 25.58350944519043], [89.97915649414074, 25.590730667114315], [89.98950195312528, 25.588809967041016], [89.99536132812506, 25.58634948730463], [90.00212097167969, 25.5841903686524], [90.0058212280274, 25.58836936950695], [90.01106262207026, 25.598350524902457], [90.0172958374024, 25.602191925049055], [90.01844024658209, 25.608390808105696], [90.00453948974638, 25.623821258545036], [90.00138092041033, 25.624431610107422], [89.99933624267584, 25.62185096740734], [89.99529266357439, 25.623029708862532], [89.98332214355474, 25.626710891723633], [89.9823074340822, 25.628431320190543], [89.98043823242193, 25.637569427490178], [89.9469528198245, 25.65883064270031], [89.94184875488281, 25.673650741577262], [89.94172668457037, 25.678119659423885], [89.936996459961, 25.68663024902355], [89.93235015869158, 25.689960479736385], [89.921127319336, 25.694421768188477], [89.91954803466814, 25.696769714355582], [89.9185028076173, 25.702688217163086], [89.91427612304693, 25.704008102416992], [89.91263580322294, 25.70706176757824], [89.90487670898455, 25.714780807495345], [89.89424133300787, 25.727239608764762], [89.8926162719726, 25.735000610351562], [89.89541625976568, 25.744119644165153], [89.89908599853544, 25.744050979614485], [89.911376953125, 25.741569519043082], [89.91613769531267, 25.739191055297795], [89.92186737060547, 25.73916816711437], [89.92794036865251, 25.741350173950195], [89.93350982666021, 25.74455070495611], [89.93464660644531, 25.7475395202639], [89.93371582031256, 25.7525310516358], [89.94351959228544, 25.76054191589361], [89.94668579101568, 25.764720916748104], [89.95239257812506, 25.770170211791935], [89.95524597167969, 25.774459838867188], [89.95501708984392, 25.781641006469783], [89.95260620117193, 25.783420562744197], [89.95081329345703, 25.79198074340843], [89.95199584960955, 25.810911178589095], [89.94935607910162, 25.81442260742199], [89.94561767578153, 25.816101074218977], [89.94581604003935, 25.820230484008903], [89.94458007812506, 25.82447814941412], [89.95056915283232, 25.824871063232365], [89.95886993408203, 25.826568603515682], [89.9679565429687, 25.826150894164982], [89.97354888916033, 25.82814025878912], [89.97589874267584, 25.83403968811035], [89.99080657959013, 25.83551025390625], [89.99471282959001, 25.838760375976562], [89.99780273437506, 25.839670181274528], [90.00160217285162, 25.842241287231445], [89.99983215332031, 25.843690872192496], [89.99743652343756, 25.844209671020565], [89.9975662231447, 25.84670066833496], [90.00026702880865, 25.848600387573242], [90.00831604003912, 25.846830368042106], [90.01152038574224, 25.849670410156477], [90.02076721191435, 25.861610412597656], [90.02191925048857, 25.865528106689453], [90.02137756347656, 25.868490219116268], [90.01872253417986, 25.8713703155517], [90.01436614990251, 25.871789932250977], [90.0097732543947, 25.875730514526424], [90.00473785400419, 25.878681182861328], [90.01525115966825, 25.88862037658697], [90.02126312255865, 25.89319038391119], [90.02791595458984, 25.89430999755882], [90.03450775146513, 25.893510818481445], [90.04209899902355, 25.890750885009822], [90.05219268798834, 25.89868927001976], [90.05507659912121, 25.90809059143089], [90.05892181396513, 25.91027069091797], [90.0633087158206, 25.91554832458496], [90.06761932373053, 25.916160583496094], [90.07242584228527, 25.91933822631836], [90.07797241210966, 25.91768074035656], [90.0794525146485, 25.919279098510856], [90.08072662353533, 25.924528121948242], [90.08738708496111, 25.92626953125], [90.09192657470732, 25.92876052856451], [90.08795928955095, 25.93619918823248], [90.0961227416995, 25.939519882202262], [90.09913635253918, 25.939260482788143], [90.10051727294916, 25.942068099975586], [90.10536956787115, 25.94193077087408], [90.10788726806646, 25.950590133667106], [90.11091613769537, 25.954111099243278], [90.11377716064459, 25.957439422607365], [90.11865234375, 25.961259841918945], [90.1200027465822, 25.95771980285656], [90.12322998046875, 25.957162857055778], [90.12844848632818, 25.958770751953352], [90.13407897949247, 25.957809448242244], [90.14002990722673, 25.958139419555607], [90.14739227294933, 25.964479446411133], [90.15339660644548, 25.96470069885254], [90.15448760986357, 25.9602108001709], [90.1583862304688, 25.958259582519645], [90.16349792480486, 25.95736122131359], [90.16848754882812, 25.95738029479986], [90.17265319824236, 25.958749771118164], [90.17611694335938, 25.9570827484132], [90.1805267333985, 25.947000503540266], [90.18251037597685, 25.944450378418026], [90.18566894531256, 25.945569992065657], [90.18945312500017, 25.953239440918196], [90.19396209716825, 25.957000732421875], [90.20844268798857, 25.96157264709467], [90.21112060546903, 25.95564079284668], [90.21276092529303, 25.953889846801815], [90.22737121582031, 25.955139160156307], [90.277816772461, 25.963172912597713], [90.2865829467774, 25.963899612426758], [90.32434082031256, 25.974380493164062], [90.32905578613298, 25.98269844055187], [90.32994842529325, 25.98850059509283], [90.33692169189459, 25.99016952514654], [90.33931732177729, 25.996860504150504], [90.34485626220697, 26.001239776611385], [90.34665679931646, 26.002952575683594], [90.36499023437506, 26.01032066345209], [90.38080596923834, 26.01164817810053], [90.38736724853544, 26.011262893676815], [90.39395141601568, 26.014101028442383], [90.39649963378935, 26.014150619506836], [90.3972930908206, 26.012229919433707], [90.40019226074236, 26.00928115844738], [90.40756225585966, 26.00756072998047], [90.41104125976557, 26.00587081909174], [90.41394042968767, 26.001319885253963], [90.41649627685553, 25.99685096740734], [90.41742706298834, 25.992340087890852], [90.42862701416033, 25.989040374755973], [90.44711303710955, 25.996530532836914], [90.45751953125011, 25.999572753906307], [90.45791625976591, 26.00134086608881], [90.45909881591791, 26.003231048583984], [90.46530151367193, 26.00722122192377], [90.4709014892581, 26.01259994506836], [90.47728729248047, 26.01526069641119], [90.48121643066435, 26.014022827148438], [90.48958587646513, 26.009639739990348], [90.49236297607428, 26.006509780884016], [90.49793243408209, 26.003650665283203], [90.50013732910173, 26.001361846923828], [90.50573730468756, 25.996021270751953], [90.51355743408209, 25.982370376586857], [90.52406311035162, 25.969900131225586], [90.529838562012, 25.961860656738395], [90.53446197509766, 25.958021163940543], [90.53479766845732, 25.9456405639649], [90.53378295898443, 25.936292648315543], [90.53221130371111, 25.93255233764671], [90.52616119384771, 25.928279876708984], [90.5185165405274, 25.909400939941463], [90.51110076904303, 25.900140762329215], [90.51254272460955, 25.896240234375057], [90.51801300048857, 25.89648056030279], [90.52548217773432, 25.90101051330572], [90.53360748291021, 25.90880012512207], [90.53917694091825, 25.91546058654785], [90.54682159423857, 25.919879913330078], [90.55335998535173, 25.929121017456055], [90.56324005126947, 25.935569763183707], [90.5713729858399, 25.939029693603743], [90.57273864746122, 25.944000244140625], [90.57277679443354, 25.94815063476574], [90.5787963867188, 25.95803070068365], [90.58245849609386, 25.95979118347168], [90.58727264404291, 25.953912734985465], [90.59185028076166, 25.952119827270565], [90.60193634033232, 25.951780319213867], [90.60539245605463, 25.9469509124757], [90.62901306152372, 25.9374294281007], [90.60756683349615, 25.91958045959484], [90.60650634765653, 25.912281036376953], [90.60809326171892, 25.908018112182674], [90.61074829101562, 25.90744972229004], [90.61419677734392, 25.89950942993164], [90.624809265137, 25.89889907836914], [90.62671661376982, 25.901359558105696], [90.62893676757818, 25.90654945373541], [90.62686157226568, 25.91127014160162], [90.62732696533197, 25.91699028015148], [90.63783264160156, 25.92333030700678], [90.65399169921903, 25.929662704467773], [90.67018890380871, 25.934259414672965], [90.67565155029297, 25.936479568481502], [90.68604278564482, 25.950809478759766], [90.7130966186524, 25.952182769775447], [90.71774291992182, 25.954708099365348], [90.72068023681646, 25.949171066284237], [90.72540283203142, 25.948770523071403], [90.73226928710955, 25.95256042480463], [90.74028778076189, 25.954910278320312], [90.7435531616211, 25.95667266845726], [90.74743652343761, 25.9573211669923], [90.74604797363287, 25.95264053344738], [90.74378967285162, 25.949430465698356], [90.74469757080078, 25.9465007781983], [90.74030303955095, 25.94089126586914], [90.74413299560553, 25.932790756225813], [90.74746704101591, 25.932319641113395], [90.75070953369169, 25.934080123901367], [90.75263977050776, 25.933959960937557], [90.74619293212908, 25.92193031311035], [90.7405395507813, 25.91521072387701], [90.74234008789057, 25.912950515747013], [90.74543762207048, 25.912290573120117], [90.7500610351563, 25.919240951538313], [90.75894927978516, 25.92164039611822], [90.75762939453142, 25.916570663452376], [90.75772094726568, 25.911071777343807], [90.76905059814447, 25.908510208129996], [90.77806091308611, 25.90829086303711], [90.77848815917974, 25.9143009185791], [90.78167724609392, 25.92124938964855], [90.7917022705081, 25.93573951721214], [90.7970962524414, 25.941471099853516], [90.80869293212919, 25.9471893310548], [90.80989074707048, 25.952159881591797], [90.82044982910162, 25.94842910766613], [90.82388305664068, 25.945100784301815], [90.8280029296875, 25.94742965698265], [90.832260131836, 25.945280075073185], [90.83619689941406, 25.947259902954215], [90.83676147460932, 25.938190460205078], [90.83983612060564, 25.938432693481502], [90.84104156494146, 25.94317054748541], [90.84323883056635, 25.94481086730957], [90.85679626464844, 25.94433021545433], [90.86960601806658, 25.942399978637752], [90.8728866577149, 25.942922592163143], [90.87240600585966, 25.946729660034237], [90.87523651123058, 25.949119567871207], [90.88022613525419, 25.946250915527457], [90.88143920898455, 25.950639724731502], [90.88298034667969, 25.951749801635685], [90.88835906982428, 25.94362068176281], [90.89238739013678, 25.939060211181697], [90.89646148681635, 25.93746948242199], [90.89704132080078, 25.935380935669002], [90.89537811279297, 25.931510925293026], [90.90119171142607, 25.929590225219727], [90.91252899169939, 25.920299530029297], [90.91607666015653, 25.915058135986442], [90.91911315917997, 25.91331100463873], [90.9162979125976, 25.928140640258846], [90.91587829589872, 25.943161010742244], [90.91834259033214, 25.943161010742244], [90.93206787109386, 25.93967247009283], [90.93466186523455, 25.941141128540153], [90.93749237060564, 25.944761276245117], [90.94274902343761, 25.947570800781364], [90.94557189941412, 25.939121246337834], [90.95384979248075, 25.936702728271484], [90.9579162597658, 25.93394279479986], [90.96063995361334, 25.927698135375977], [90.96689605712908, 25.905330657959098], [90.96730804443365, 25.89664077758789], [90.966606140137, 25.891000747680607], [90.96745300292986, 25.887180328369197], [90.97132873535162, 25.887670516967717], [90.97538757324247, 25.889450073242188], [90.98480224609392, 25.88993263244629], [90.9968872070313, 25.888679504394474], [91.00132751464872, 25.88648986816429], [91.01373291015653, 25.88431930541998], [91.02060699462919, 25.887279510498047], [91.02568054199224, 25.888380050659293], [91.02828979492205, 25.888570785522575], [91.02922058105469, 25.888048171997127], [91.02910614013678, 25.879850387573185], [91.02651977539091, 25.86662101745611], [91.02182769775408, 25.861331939697266], [91.01512908935564, 25.85906028747553], [91.01310729980474, 25.85719108581543], [91.01274108886724, 25.84884071350109], [91.00866699218767, 25.83823966979992], [91.00158691406267, 25.8257999420166], [91.00078582763666, 25.82225036621105], [91.00611114501982, 25.820779800415153], [91.01270294189459, 25.821090698242244], [91.0208129882812, 25.822620391845703], [91.02494049072271, 25.827560424804744], [91.04196929931669, 25.839401245117244], [91.0491027832033, 25.848808288574162], [91.065902709961, 25.846420288085994], [91.07853698730474, 25.852619171142635], [91.07299804687506, 25.842479705810547], [91.07287597656278, 25.83833122253418], [91.06751251220732, 25.836309432983512], [91.06179809570341, 25.83608055114769], [91.05722045898466, 25.832042694091854], [91.04988098144537, 25.828899383544922], [91.05902099609392, 25.822269439697266], [91.06326293945318, 25.82036972045904], [91.06653594970714, 25.825759887695312], [91.08135223388678, 25.82934188842779], [91.12078094482422, 25.831340789795036], [91.12634277343767, 25.83819961547863], [91.13168334960955, 25.841949462890568], [91.13790893554716, 25.842130661010742], [91.1453933715822, 25.847339630127067], [91.1528625488283, 25.850072860717887], [91.16165161132818, 25.84931945800787], [91.16819000244146, 25.845630645752067], [91.1790161132813, 25.842750549316406], [91.18176269531278, 25.844121932983455], [91.18547058105486, 25.849969863891715], [91.19303894042997, 25.855230331421012], [91.19647979736322, 25.859010696411133], [91.19812011718756, 25.85483169555664], [91.19866180419928, 25.847639083862305], [91.20262908935564, 25.84054183959961], [91.19451904296886, 25.83061027526867], [91.19431304931646, 25.826400756836165], [91.18987274169922, 25.820779800415153], [91.18815612792969, 25.815570831298828], [91.1909561157226, 25.810699462890625], [91.18724822998053, 25.803289413452205], [91.18474578857428, 25.795030593872184], [91.18396759033209, 25.782590866088867], [91.17993164062517, 25.77631950378418], [91.18118286132841, 25.773349761963004], [91.18591308593756, 25.769939422607365], [91.18569946289068, 25.766878128051758], [91.18917846679699, 25.763469696044922], [91.18871307373064, 25.73892974853527], [91.19233703613298, 25.7360897064209], [91.19198608398443, 25.729581832885742], [91.19799804687528, 25.730979919433594], [91.21586608886724, 25.72390937805187], [91.22144317626982, 25.72604942321783], [91.22387695312506, 25.723419189453182], [91.2324981689456, 25.729158401489315], [91.25537109375011, 25.74782943725586], [91.26228332519526, 25.749290466308594], [91.27562713623075, 25.746940612793082], [91.2764663696289, 25.751670837402457], [91.2795867919923, 25.75666236877447], [91.28729248046875, 25.764110565185604], [91.29689788818365, 25.778249740600586], [91.3063278198245, 25.796369552612305], [91.32498931884777, 25.823789596557617], [91.33242797851574, 25.832090377807674], [91.33217620849615, 25.833700180053654], [91.3335571289063, 25.83884048461914], [91.33642578125011, 25.838409423828182], [91.3424911499024, 25.83609962463379], [91.34439849853521, 25.839439392089957], [91.34855651855486, 25.840351104736328], [91.35330963134783, 25.83773994445812], [91.35688781738276, 25.841461181640682], [91.36370086669933, 25.84049034118658], [91.37049865722656, 25.844301223754883], [91.37686920166027, 25.844879150390682], [91.38211822509783, 25.846939086914062], [91.38851928710966, 25.847299575805778], [91.40119171142595, 25.851100921631087], [91.40509033203136, 25.84988021850586], [91.41272735595714, 25.853918075561467], [91.41889953613281, 25.85472106933588], [91.424301147461, 25.853559494018555], [91.43084716796886, 25.84776115417492], [91.44122314453142, 25.841630935668945], [91.44439697265653, 25.84102058410656], [91.44740295410162, 25.84566116333002], [91.45495605468767, 25.851312637329215], [91.4687271118164, 25.859029769897575], [91.47496032714838, 25.85719108581543], [91.47840118408203, 25.85768127441429], [91.48303985595709, 25.86289978027355], [91.4960327148438, 25.862340927124023], [91.50788116455084, 25.864799499511832], [91.51275634765642, 25.8665580749514], [91.51911926269537, 25.873121261596793], [91.52176666259771, 25.87434959411621], [91.52540588378912, 25.872890472412223], [91.5288772583009, 25.880870819091854], [91.53262329101562, 25.884069442749023], [91.53205871582037, 25.88815116882347], [91.52973937988298, 25.8896808624267], [91.52577972412115, 25.890108108520508], [91.52221679687528, 25.885932922363338], [91.51976776123075, 25.878021240234375], [91.51725006103527, 25.874671936035213], [91.5135498046875, 25.870950698852653], [91.50778198242188, 25.86744117736822], [91.49830627441412, 25.86720275878912], [91.49369049072283, 25.865528106689453], [91.47738647460949, 25.868722915649414], [91.47476196289057, 25.87123107910179], [91.47593688964861, 25.878038406372013], [91.47867584228521, 25.884681701660156], [91.48338317871111, 25.89105987548851], [91.4885330200197, 25.894849777221737], [91.49291992187517, 25.895578384399357], [91.49861145019526, 25.892467498779354], [91.5032577514649, 25.892160415649357], [91.50115203857422, 25.898469924926758], [91.50853729248047, 25.909759521484602], [91.52478027343767, 25.920789718627987], [91.53132629394537, 25.92371177673334], [91.53589630126959, 25.934001922607422], [91.52169799804688, 25.924850463867244], [91.51685333251959, 25.920021057128906], [91.51078033447294, 25.91543006896967], [91.5055770874024, 25.913080215454215], [91.50334167480497, 25.91432189941412], [91.50163269042997, 25.920761108398438], [91.51628875732433, 25.93832969665533], [91.51978302001947, 25.94089126586914], [91.51818847656256, 25.95280265808111], [91.51850128173845, 25.95815086364769], [91.52379608154297, 25.959409713745117], [91.52584838867216, 25.961320877075252], [91.53240966796892, 25.962240219116154], [91.53717041015642, 25.962100982666072], [91.5372772216798, 25.9683895111084], [91.54894256591825, 25.97509765625], [91.55126190185547, 25.974899291992188], [91.55484008789091, 25.986610412597713], [91.5653686523437, 26.001840591430664], [91.56608581542997, 26.00375938415533], [91.56513214111357, 26.007509231567496], [91.56859588623075, 26.01194953918457], [91.56971740722685, 26.01684188842779], [91.56880950927734, 26.021741867065543], [91.5700302124024, 26.027481079101676], [91.57583618164091, 26.03310966491722], [91.58409881591814, 26.031980514526424], [91.58812713623047, 26.03014945983881], [91.59706115722673, 26.01706123352062], [91.59680938720732, 26.020799636840877], [91.6018676757813, 26.02263069152832], [91.61654663085938, 26.024721145629826], [91.62029266357416, 26.027030944824276], [91.62610626220709, 26.02396965026861], [91.63215637207048, 26.022409439087028], [91.63339996337902, 26.01785087585472], [91.63210296630888, 26.013959884643555], [91.63302612304699, 26.004909515380973], [91.63207244873058, 26.00187110900879], [91.63044738769548, 25.999828338623047], [91.62671661376959, 25.997650146484375], [91.62866973876982, 25.995130538940487], [91.62471771240251, 25.98590278625511], [91.62679290771484, 25.9823894500733], [91.62802124023443, 25.97697067260748], [91.63214111328125, 25.970790863037053], [91.63794708251959, 25.964849472045955], [91.63408660888689, 25.9605007171632], [91.63011932373053, 25.944639205932674], [91.62462615966808, 25.94597053527832], [91.61093139648466, 25.944601058960018], [91.61115264892578, 25.939920425415096], [91.6227569580081, 25.93099021911621], [91.63282775878918, 25.925769805908146], [91.64791870117216, 25.91374015808111], [91.65148925781256, 25.90766906738287], [91.65688323974638, 25.907880783080998], [91.66194152832031, 25.9098796844483], [91.667236328125, 25.90818977355957], [91.66931152343744, 25.90538978576666], [91.67598724365229, 25.9118328094483], [91.67859649658209, 25.917320251464844], [91.68641662597662, 25.92124938964855], [91.6923217773438, 25.92910194396984], [91.70197296142595, 25.937929153442326], [91.700912475586, 25.94189071655296], [91.70816802978527, 25.944370269775618], [91.71393585205107, 25.94722938537609], [91.7201766967774, 25.95407104492199], [91.72162628173845, 25.96507835388195], [91.71977996826178, 25.978300094604492], [91.72116851806669, 26.001840591430664], [91.72276306152361, 26.01979827880865], [91.72466278076189, 26.027259826660213], [91.72318267822271, 26.030321121215877], [91.72640991210938, 26.046911239624137], [91.73295593261724, 26.05102920532238], [91.73458862304705, 26.056640625000057], [91.73126220703153, 26.0592098236084], [91.75948333740246, 26.07129287719721], [91.77851867675787, 26.091249465942496], [91.78042602539068, 26.08830070495617], [91.7845764160158, 26.086580276489258], [91.7903671264649, 26.08702087402355], [91.80178833007818, 26.10494041442871], [91.80805969238287, 26.103822708129996], [91.81080627441435, 26.10517120361328], [91.81555938720714, 26.111440658569336], [91.81931304931646, 26.118740081787223], [91.82655334472662, 26.118141174316406], [91.85383605957037, 26.10478973388672]]]}}