{"type": "Feature", "properties": {"ID_0": 105, "ISO": "IND", "NAME_0": "India", "ID_1": 24, "NAME_1": "Mizoram", "NL_NAME_1": null, "VARNAME_1": null, "TYPE_1": "State", "ENGTYPE_1": "State"}, "geometry": {"type": "Polygon", "coordinates": [[[92.80079650878923, 24.419050216674805], [92.80370330810553, 24.418790817260856], [92.80715942382818, 24.419862747192326], [92.80948638916044, 24.419300079345817], [92.80887603759771, 24.416891098022575], [92.80944061279303, 24.41523170471197], [92.81140136718778, 24.415372848510856], [92.81114959716803, 24.413642883300838], [92.81645202636736, 24.412250518798942], [92.81832885742205, 24.41272926330589], [92.82112884521513, 24.406780242919922], [92.82479095458979, 24.4041805267334], [92.83032989501953, 24.40175056457514], [92.83136749267584, 24.400501251220703], [92.83167266845703, 24.399341583251953], [92.8265991210938, 24.393552780151595], [92.82504272460938, 24.390491485595817], [92.82541656494158, 24.388429641723633], [92.82826232910173, 24.38557815551752], [92.82816314697277, 24.379310607910213], [92.82898712158197, 24.37776947021507], [92.8327026367188, 24.376369476318416], [92.83962249755888, 24.380800247192383], [92.84427642822283, 24.37986946105957], [92.84690856933588, 24.382299423218], [92.84909057617193, 24.386131286621094], [92.85164642334013, 24.392370223999023], [92.854476928711, 24.394001007080078], [92.85906219482433, 24.39841079711914], [92.86289978027372, 24.399499893188477], [92.8717880249024, 24.397050857543945], [92.87386322021501, 24.39725112915039], [92.87819671630854, 24.39888954162592], [92.88424682617199, 24.40303993225109], [92.88800811767584, 24.401630401611328], [92.89077758789057, 24.40229034423828], [92.89173126220697, 24.401790618896428], [92.89438629150419, 24.395309448242244], [92.89636230468767, 24.394300460815487], [92.90097808837896, 24.39343070983898], [92.90516662597662, 24.39445114135748], [92.90587615966814, 24.39537048339855], [92.90573120117193, 24.399059295654354], [92.9093093872072, 24.403169631958065], [92.91153717041044, 24.41290092468256], [92.92339324951166, 24.405719757080305], [92.92259979248075, 24.40415954589855], [92.92366027832037, 24.402610778808707], [92.9253768920899, 24.40221977233881], [92.92765045166033, 24.398628234863395], [92.93570709228521, 24.395540237426815], [92.93773651123064, 24.396709442138672], [92.93855285644537, 24.399021148681697], [92.94055175781278, 24.401050567626953], [92.94415283203153, 24.401832580566463], [92.95124816894526, 24.404830932617244], [92.95388793945341, 24.404621124267692], [92.95469665527344, 24.40388107299816], [92.9581375122072, 24.398050308227596], [92.96032714843756, 24.395881652832088], [92.97083282470714, 24.4012126922608], [92.97564697265653, 24.4077606201173], [92.98026275634783, 24.409690856933707], [92.98542785644548, 24.407560348510685], [92.98832702636724, 24.40764999389654], [92.99192047119158, 24.405492782592773], [92.99534606933611, 24.401950836181754], [92.99804687500006, 24.40157127380394], [93.0004959106447, 24.40327072143566], [93.02435302734392, 24.390470504760742], [93.0170974731447, 24.37996101379406], [93.02208709716803, 24.37421989440918], [93.02011108398438, 24.365972518921012], [93.01933288574213, 24.358848571777344], [93.02156829833996, 24.346820831298942], [93.03176116943376, 24.344490051269474], [93.0433731079101, 24.343389511108626], [93.03523254394531, 24.318399429321232], [93.02391815185541, 24.300741195678825], [93.0182189941408, 24.293159484863395], [93.01107788085949, 24.288080215454045], [93.00821685791027, 24.2804794311524], [93.01391601562506, 24.271669387817326], [93.00673675537138, 24.26279067993164], [93.00670623779325, 24.253959655761776], [93.01803588867205, 24.23637008666998], [93.02658843994135, 24.23263168334961], [93.01940917968756, 24.228849411010685], [93.01940155029297, 24.225088119506836], [93.02368164062528, 24.21756935119629], [93.02229309082037, 24.210060119628906], [93.01799774169916, 24.207548141479492], [93.01661682128918, 24.200031280517578], [93.01236724853521, 24.197540283203182], [93.0030364990235, 24.19752120971674], [93.00309753417997, 24.194311141967887], [93.0109176635745, 24.182212829589844], [93.0033111572265, 24.174049377441463], [93.00550079345709, 24.163211822509766], [93.00544738769548, 24.160610198974666], [93.00067138671892, 24.156730651855526], [92.99308013916016, 24.1531791687014], [92.99112701416016, 24.15032958984375], [92.99092102050776, 24.146869659423885], [92.99286651611345, 24.140390396118278], [92.98941040039062, 24.13178062438965], [92.986068725586, 24.12887954711914], [92.97756195068354, 24.12639045715332], [92.97360229492205, 24.12388038635254], [92.97486877441435, 24.11701965332037], [92.97637939453153, 24.11482048034668], [92.98477935791044, 24.11482048034668], [92.98929595947271, 24.116331100463867], [92.99642181396513, 24.11672973632824], [93.00068664550798, 24.115192413330078], [93.00968170166021, 24.1099529266358], [93.01410675048834, 24.1045303344726], [93.0214920043947, 24.101451873779297], [93.02729797363293, 24.103639602661076], [93.03029632568365, 24.100830078125227], [93.03469848632818, 24.099241256713924], [93.03769683837908, 24.095180511474666], [93.0536880493164, 24.090690612793026], [93.06519317626959, 24.09427070617687], [93.07377624511724, 24.10049057006836], [93.07949066162115, 24.102970123291016], [93.08522796630865, 24.090351104736328], [93.08950805664091, 24.084051132202262], [93.09520721435575, 24.080280303955078], [93.10234832763689, 24.074010848999023], [93.10090637207037, 24.066450119018782], [93.10234069824236, 24.062692642211914], [93.10092926025419, 24.0563907623291], [93.10376739501959, 24.052629470825252], [93.0995101928711, 24.048839569091854], [93.10092163085949, 24.045089721679688], [93.1066284179688, 24.04886054992687], [93.11087799072294, 24.050149917602596], [93.11231231689459, 24.055191040039062], [93.11940765380865, 24.056472778320256], [93.12081909179688, 24.060260772705078], [93.12937164306669, 24.06408119201666], [93.13507843017607, 24.07291984558111], [93.1350860595706, 24.079210281372013], [93.14219665527361, 24.08678817749029], [93.14791107177734, 24.088090896606673], [93.15846252441412, 24.083818435668945], [93.1613159179688, 24.077560424804915], [93.16987609863298, 24.075061798095646], [93.16986846923845, 24.07127952575695], [93.16697692871094, 24.061218261718864], [93.16983795166016, 24.05495262145996], [93.17552185058622, 24.053699493408146], [93.17838287353544, 24.05409622192377], [93.19400787353544, 24.05627059936529], [93.19825744628906, 24.052499771118278], [93.21673583984403, 24.05006027221691], [93.22100067138689, 24.061370849609432], [93.22242736816435, 24.0676727294923], [93.22525024414068, 24.073961257934627], [93.22241973876964, 24.08148956298828], [93.22383880615251, 24.084011077880973], [93.22667694091797, 24.08653068542492], [93.23663330078142, 24.08403968811035], [93.24233245849626, 24.086570739746207], [93.24801635742216, 24.08533859252941], [93.26371765136736, 24.07282066345209], [93.26373291015625, 24.06778907775879], [93.26660919189459, 24.060260772705078], [93.26374053955084, 24.05774116516119], [93.26232910156244, 24.05772972106945], [93.25238037109403, 24.03383064270014], [93.25670623779303, 24.028810501098746], [93.25528717041016, 24.023790359497127], [93.27394866943388, 24.03392028808605], [93.2767791748048, 24.040210723876953], [93.28536987304716, 24.046520233154297], [93.2881927490235, 24.05154991149908], [93.2982482910158, 24.05158996582037], [93.31254577636736, 24.054130554199332], [93.33737182617193, 24.05340003967291], [93.3382873535158, 24.05019187927246], [93.3422164916995, 24.044591903686467], [93.33600616455095, 24.04261016845703], [93.33323669433605, 24.039800643921012], [93.33764648437528, 24.03420829772972], [93.34216308593756, 24.03067016601574], [93.33810424804705, 24.02535629272461], [93.33692169189453, 24.02380943298334], [93.3375015258789, 24.021230697631893], [93.33779144287115, 24.019920349121094], [93.34031677246122, 24.012430191040153], [93.33934783935575, 24.002918243408317], [93.33927154541021, 24.002210617065543], [93.33895874023449, 23.99588966369629], [93.33442687988276, 23.98694992065424], [93.33744812011747, 23.98278999328619], [93.3423690795899, 23.98232841491722], [93.34739685058588, 23.980699539184627], [93.35160827636719, 23.97798156738287], [93.3531570434572, 23.97202110290533], [93.35587310791021, 23.961259841919173], [93.35988616943365, 23.954652786254996], [93.36241912841808, 23.950759887695426], [93.36493682861357, 23.945970535278377], [93.3678131103515, 23.943439483642692], [93.37104034423857, 23.94054031372076], [93.37573242187506, 23.937820434570426], [93.38124847412115, 23.936191558838004], [93.3909759521485, 23.934000015258846], [93.39871978759766, 23.93028068542486], [93.39961242675793, 23.92440032959007], [93.39919281005865, 23.918991088867188], [93.3975830078125, 23.912929534912223], [93.39673614501959, 23.898668289184627], [93.3955917358399, 23.887279510498104], [93.39544677734403, 23.876701354980526], [93.3964233398437, 23.870941162109375], [93.39688110351568, 23.86377906799322], [93.39656066894543, 23.858539581298942], [93.396713256836, 23.85070037841797], [93.39705657958984, 23.840932846069336], [93.40010070800798, 23.8353214263916], [93.39916229248053, 23.82421112060547], [93.40141296386736, 23.81941032409668], [93.40689849853544, 23.817148208618107], [93.40982818603533, 23.813610076904297], [93.41098022460938, 23.807729721069336], [93.41005706787115, 23.79879188537609], [93.40756988525396, 23.79021072387718], [93.40444946289062, 23.775051116943303], [93.4042282104495, 23.768989562988395], [93.40528869628912, 23.761590957641715], [93.40712738037126, 23.755620956421012], [93.4105377197265, 23.74864959716797], [93.41442871093756, 23.743480682373274], [93.41539764404303, 23.738420486450195], [93.41773223876964, 23.73254966735834], [93.41584014892607, 23.726860046386832], [93.41493225097656, 23.72261047363287], [93.41551971435564, 23.71809959411621], [93.41694641113287, 23.712129592895565], [93.41912078857416, 23.708421707153263], [93.42330169677763, 23.703990936279354], [93.42957305908232, 23.70071029663086], [93.43651580810564, 23.696178436279524], [93.4386596679688, 23.69219970703125], [93.44139862060575, 23.68832015991211], [93.44470214843767, 23.68242835998541], [93.44094085693365, 23.67819976806652], [93.43908691406261, 23.675739288330078], [93.43611907959001, 23.67178916931158], [93.43342590332026, 23.667190551757756], [93.43036651611322, 23.660230636596793], [93.42827606201166, 23.653549194336165], [93.42861938476591, 23.645151138305664], [93.42867279052734, 23.64480972290039], [93.43271636962908, 23.618761062622184], [93.43341064453153, 23.595090866088867], [93.4347457885745, 23.588840484619254], [93.43305206298828, 23.582439422607422], [93.42710876464872, 23.57169151306158], [93.42397308349615, 23.569351196289062], [93.42402648925793, 23.561580657959098], [93.42724609375006, 23.552980422973576], [93.42809295654297, 23.545200347900334], [93.42775726318376, 23.538248062133903], [93.42764282226574, 23.534370422363338], [93.42555999755888, 23.531211853027344], [93.42192840576183, 23.527160644531364], [93.4162063598634, 23.52048110961914], [93.4111633300783, 23.51325035095215], [93.40762329101574, 23.50848007202154], [93.4072875976562, 23.501970291137923], [93.40814971923834, 23.49646186828619], [93.40437316894543, 23.484989166259766], [93.4059371948245, 23.481010437011832], [93.40706634521513, 23.475311279296818], [93.40596008300776, 23.46726989746105], [93.40141296386736, 23.45697975158697], [93.39977264404303, 23.446872711181697], [93.39850616455107, 23.442880630493278], [93.39718627929682, 23.433311462402457], [93.39734649658232, 23.42617034912115], [93.39682769775408, 23.42247009277338], [93.39759826660173, 23.415500640869084], [93.39826202392584, 23.411260604858455], [93.40390777587908, 23.40166854858404], [93.40576171874994, 23.397600173950195], [93.40975189209013, 23.39190101623541], [93.41423797607428, 23.38801193237316], [93.40460968017607, 23.38349914550787], [93.40165710449224, 23.379539489746207], [93.39644622802751, 23.3740291595459], [93.39652252197271, 23.368061065673828], [93.39875030517595, 23.36427116394043], [93.38983917236334, 23.362751007080135], [93.37631988525396, 23.36259078979515], [93.3716201782226, 23.359790802002067], [93.36746978759783, 23.358089447021428], [93.3658065795899, 23.354480743408146], [93.36629486083984, 23.353477478027344], [93.36802673339861, 23.34994125366211], [93.37201690673828, 23.344249725341854], [93.37534332275396, 23.340990066528548], [93.37777709960955, 23.337549209594954], [93.37932586669928, 23.332679748535156], [93.37754821777344, 23.326799392700195], [93.37673187255888, 23.319480895996037], [93.37699127197283, 23.31278991699213], [93.3776473999024, 23.306552886963004], [93.37977600097668, 23.301221847534407], [93.38120269775408, 23.29361915588379], [93.38120269775408, 23.289920806884993], [93.37825012207043, 23.286760330200195], [93.37539672851591, 23.28261947631836], [93.3750610351562, 23.27457046508789], [93.37726593017584, 23.264169692993278], [93.37841796875006, 23.256130218505916], [93.38326263427729, 23.24481010437023], [93.38841247558588, 23.234960556030273], [93.39470672607416, 23.224279403686523], [93.39480590820318, 23.2195796966555], [93.38743591308622, 23.211200714111442], [93.38659667968756, 23.201980590820256], [93.38526153564459, 23.18797111511242], [93.38150024414091, 23.174882888794002], [93.38057708740263, 23.166908264160156], [93.3781127929687, 23.163499832153263], [93.37603759765642, 23.15888023376465], [93.37394714355486, 23.15030097961437], [93.37911224365251, 23.143610000610465], [93.38292694091814, 23.144681930542106], [93.39066314697294, 23.147920608520508], [93.39447784423857, 23.14440155029297], [93.39364624023443, 23.13861274719261], [93.38195800781267, 23.12751007080101], [93.37609863281256, 23.123991012573242], [93.3722763061524, 23.122642517089787], [93.36905670166021, 23.12058067321783], [93.36502075195318, 23.116689682006836], [93.3640213012697, 23.112730026245117], [93.36399841308588, 23.10621070861822], [93.36353302001959, 23.103090286254883], [93.36308288574236, 23.10007095336914], [93.3619995117188, 23.095371246338118], [93.35736846923845, 23.090950012207145], [93.35246276855474, 23.08462905883789], [93.35108947753906, 23.080301284790153], [93.35820007324224, 23.077941894531307], [93.35781097412115, 23.075393676757812], [93.357406616211, 23.07278060913086], [93.35296630859392, 23.064830780029354], [93.34516906738298, 23.064760208129883], [93.34503936767584, 23.064483642578125], [93.3406372070313, 23.05519104003912], [93.33676147460955, 23.043621063232422], [93.33264160156256, 23.035671234131087], [93.32959747314459, 23.03161048889183], [93.32408905029325, 23.024930953979435], [93.3212432861331, 23.02186012268072], [93.3155059814456, 23.022117614746037], [93.31498718261719, 23.022140502929688], [93.31176757812517, 23.018711090087947], [93.30616760253935, 23.01365089416504], [93.30195617675793, 23.008319854736328], [93.29772186279303, 23.005798339843807], [93.29590606689447, 23.005464553833065], [93.29332733154303, 23.004989624023438], [93.28816223144537, 23.004629135132063], [93.27858734130876, 23.005640029907227], [93.27391815185558, 23.0102596282959], [93.26806640625, 23.012340545654297], [93.25905609130888, 23.00872993469261], [93.2531967163086, 23.006481170654524], [93.2477416992188, 23.009559631347656], [93.24120330810564, 23.014080047607422], [93.23780059814459, 23.01761817932129], [93.23409271240263, 23.02186012268072], [93.23166656494158, 23.027111053466854], [93.22815704345732, 23.032819747924805], [93.22017669677729, 23.045200347900618], [93.21405792236357, 23.04935073852539], [93.20616912841803, 23.056869506835938], [93.20117950439459, 23.05778121948248], [93.19445037841797, 23.06031036376953], [93.19093322753912, 23.058229446411133], [93.18711090087896, 23.05715179443365], [93.1869354248048, 23.05718421936041], [93.18302154541033, 23.05796813964838], [93.1768264770509, 23.053077697753906], [93.17672729492205, 23.05299949645996], [93.17211914062494, 23.050830841064396], [93.1678314208985, 23.049020767212028], [93.16197967529325, 23.051919937133732], [93.15563964843756, 23.058071136474553], [93.1473388671875, 23.061691284179744], [93.14185333251953, 23.06060981750511], [93.1402893066408, 23.056451797485465], [93.13848114013678, 23.05482101440424], [93.13761901855486, 23.054042816162223], [93.1368713378908, 23.053369522094783], [93.13294219970709, 23.047500610351562], [93.133354187012, 23.04636955261236], [93.13507080078153, 23.04162979125988], [93.13582611083996, 23.035209655761776], [93.13436126708984, 23.031230926513672], [93.13162994384777, 23.02589988708496], [93.13414001464872, 23.019840240478743], [93.13578796386724, 23.012880325317383], [93.13021087646501, 23.006450653076172], [93.12919616699213, 23.000768661499023], [93.13340759277344, 22.996070861816463], [93.13739013671903, 22.994171142578182], [93.14257049560547, 22.99371910095215], [93.14499664306669, 22.987751007080078], [93.14762115478521, 22.980600357055664], [93.1480865478515, 22.97555160522461], [93.14652252197294, 22.970848083496094], [93.14272308349638, 22.968589782714844], [93.1425018310548, 22.96442031860346], [93.14620971679705, 22.961181640625227], [93.14882659912138, 22.956470489501953], [93.15164184570318, 22.949970245361328], [93.15260314941418, 22.941471099853572], [93.1534423828125, 22.93062019348139], [93.1572494506836, 22.926731109619197], [93.16172027587896, 22.92447090148937], [93.16610717773443, 22.9224796295166], [93.16835021972673, 22.919130325317496], [93.166488647461, 22.915880203247184], [93.16366577148449, 22.914094924926815], [93.16277313232416, 22.913530349731502], [93.15857696533197, 22.913619995117188], [93.15233612060564, 22.912910461425838], [93.14597320556669, 22.912902832031307], [93.13875579833984, 22.913179397583065], [93.13522338867193, 22.9072208404541], [93.13880920410162, 22.900171279907283], [93.13832855224638, 22.893390655517635], [93.1371459960938, 22.889591217041072], [93.13555145263689, 22.882551193237532], [93.13320159912104, 22.87520980834961], [93.13024902343756, 22.869430541992244], [93.1238784790039, 22.86591148376465], [93.1216659545899, 22.862752914428825], [93.12084960937517, 22.85479164123541], [93.12151336669933, 22.843402862549055], [93.12079620361357, 22.837339401245174], [93.11664581298845, 22.832618713378963], [93.11563110351591, 22.831462860107536], [93.11122131347668, 22.828212738037223], [93.11266326904314, 22.822160720825252], [93.11544036865263, 22.82125854492199], [93.11656951904325, 22.820890426635742], [93.11618804931669, 22.816280364990234], [93.11435699462908, 22.815370559692496], [93.10925292968756, 22.81283950805664], [93.10426330566423, 22.811761856079215], [93.0992660522461, 22.81040954589838], [93.102836608887, 22.79214286804222], [93.10365295410156, 22.78870010375988], [93.10402679443354, 22.78711128234869], [93.10797119140636, 22.770269393921012], [93.11134338378912, 22.753000259399528], [93.11268615722662, 22.744239807128906], [93.10916137695341, 22.737819671630803], [93.10456085205107, 22.731670379638786], [93.10192108154291, 22.727420806884822], [93.1008377075197, 22.719551086425838], [93.0990600585937, 22.714309692382812], [93.09545135498047, 22.71107101440441], [93.09175109863287, 22.709341049194393], [93.09794616699236, 22.7012996673584], [93.10417175292997, 22.696149826049805], [93.10688781738276, 22.68629074096691], [93.10668945312494, 22.681770324707088], [93.10315704345709, 22.678699493408146], [93.10354614257818, 22.674089431762695], [93.10482025146501, 22.670200347900447], [93.10742950439482, 22.66414070129406], [93.11062622070318, 22.65908050537115], [93.114517211914, 22.65492057800293], [93.11849975585966, 22.651481628418082], [93.11477661132818, 22.639190673828125], [93.11689758300787, 22.63512039184593], [93.12428283691423, 22.630050659179744], [93.12954711914091, 22.629241943359375], [93.13635253906256, 22.62290954589838], [93.13906860351574, 22.618209838867188], [93.14292907714838, 22.607629776001033], [93.1443710327149, 22.598859786987305], [93.14560699462885, 22.586122512817496], [93.13664245605463, 22.581836700439453], [93.13595581054693, 22.581510543823242], [93.13371276855474, 22.57733917236328], [93.13352966308605, 22.577222824096793], [93.12921905517578, 22.574462890624943], [93.12442016601591, 22.567050933837947], [93.12159729003923, 22.560001373291072], [93.11778259277361, 22.55891036987299], [93.11553192138672, 22.554748535156307], [93.11562347412138, 22.55388259887701], [93.11649322509771, 22.545801162719783], [93.11599731445341, 22.540470123291016], [93.11441802978521, 22.53685951232916], [93.1119232177735, 22.532232284546012], [93.11168670654314, 22.531789779663313], [93.1120681762697, 22.531646728515852], [93.11985015869135, 22.528709411621094], [93.12578582763672, 22.52853965759283], [93.13085174560553, 22.526100158691463], [93.13365936279303, 22.51993942260748], [93.13062286376959, 22.513980865478572], [93.12886047363298, 22.509820938110465], [93.13059234619158, 22.50592994689947], [93.13272094726568, 22.50177192687994], [93.13526153564482, 22.49897003173828], [93.13777923583979, 22.49509048461914], [93.13832855224638, 22.48658943176264], [93.13626861572266, 22.47961997985834], [93.13452148437528, 22.474849700927734], [93.13514709472673, 22.473905563354435], [93.1381912231447, 22.469320297241154], [93.14206695556646, 22.463260650634822], [93.14575195312528, 22.45846939086914], [93.14972686767584, 22.45593070983898], [93.15672302246111, 22.452140808105526], [93.16277313232416, 22.45376014709484], [93.17542266845703, 22.451320648193473], [93.17811584472662, 22.44662094116211], [93.18218994140653, 22.438751220703182], [93.18789672851574, 22.433670043945426], [93.1908111572265, 22.427259445190487], [93.18904113769543, 22.423280715942383], [93.18826293945318, 22.4189395904541], [93.18892669677751, 22.413511276245174], [93.19425964355469, 22.408901214599666], [93.19551086425787, 22.403301239013672], [93.19325256347685, 22.39913940429699], [93.1914901733399, 22.39587974548334], [93.19226837158209, 22.39083290100092], [93.19641113281256, 22.384122848510742], [93.19738006591803, 22.37997245788597], [93.19258880615234, 22.370838165283317], [93.19451141357428, 22.36343002319336], [93.19712829589861, 22.358631134033317], [93.19998168945312, 22.34361839294428], [93.19948577880865, 22.337198257446403], [93.2026672363283, 22.3336696624757], [93.20656585693365, 22.32953071594244], [93.20287322998064, 22.327262878417912], [93.19634246826166, 22.324640274047795], [93.19843292236322, 22.320110321044865], [93.19951629638678, 22.317768096923885], [93.20057678222673, 22.313150405883903], [93.20133972167986, 22.306100845337028], [93.20169830322266, 22.299860000610295], [93.20108795166044, 22.291990280151367], [93.20155334472656, 22.28647994995123], [93.20192718505876, 22.280870437622127], [93.20395660400419, 22.27572250366211], [93.20732879638678, 22.26967048645031], [93.20925903320324, 22.26622009277355], [93.20858001709001, 22.26106834411621], [93.19641113281256, 22.255649566650334], [93.19036865234386, 22.249692916870345], [93.18366241455084, 22.2491397857666], [93.17093658447294, 22.249700546264876], [93.16597747802763, 22.248880386352653], [93.16033935546892, 22.247079849243164], [93.15718841552746, 22.247432708740348], [93.15463256835938, 22.24771881103527], [93.15149688720732, 22.248069763183707], [93.14710998535185, 22.246540069580078], [93.14643096923828, 22.241111755371094], [93.15194702148455, 22.234689712524414], [93.15650939941423, 22.22871971130394], [93.15764617919939, 22.223119735717773], [93.15627288818388, 22.21742057800293], [93.15856933593744, 22.211202621460075], [93.15907287597662, 22.209840774536133], [93.16594696044928, 22.20522117614746], [93.16982269287104, 22.200059890747184], [93.16677093505854, 22.1943416595459], [93.1663970947265, 22.19363975524908], [93.16537475585943, 22.19028472900402], [93.16295623779291, 22.1823406219483], [93.15441131591814, 22.1781902313233], [93.14839172363287, 22.17683029174816], [93.14286804199224, 22.176780700683537], [93.13868713378918, 22.176740646362248], [93.13070678710966, 22.17909049987793], [93.12751770019548, 22.182350158691406], [93.1227798461914, 22.189041137695312], [93.1198806762697, 22.198530197143555], [93.11717987060541, 22.201330184936467], [93.11238861084013, 22.200803756713867], [93.11154174804693, 22.200710296630803], [93.10221862792974, 22.198801040649414], [93.09726715087896, 22.1993408203125], [93.08882141113298, 22.202600479125977], [93.08769226074224, 22.2035751342774], [93.08589935302729, 22.2051296234132], [93.08154296875017, 22.208391189575252], [93.07698822021501, 22.21010971069336], [93.0724716186524, 22.208526611328182], [93.07154083251964, 22.20820045471197], [93.06764984130876, 22.206390380859375], [93.05977630615229, 22.203952789306584], [93.05385589599604, 22.20322990417492], [93.04913330078142, 22.199544906616268], [93.04830932617216, 22.198900222778434], [93.0466613769533, 22.197620391845817], [93.04608917236345, 22.19658851623541], [93.04565429687494, 22.195796966552734], [93.04450988769526, 22.193729400634766], [93.04653930664068, 22.190019607543945], [93.05370330810564, 22.1758193969726], [93.05493927001959, 22.165430068969727], [93.0520095825197, 22.15666007995617], [93.05082702636719, 22.1501407623291], [93.04801940917974, 22.14581108093273], [93.04698944091791, 22.139059066772518], [93.04692840576178, 22.138669967651424], [93.05409240722673, 22.131700515747127], [93.05921936035156, 22.12754058837902], [93.06260681152372, 22.120861053466797], [93.06648254394548, 22.11326980590843], [93.06556701660162, 22.102052688598576], [93.05976104736357, 22.099790573120174], [93.05208587646496, 22.09924125671398], [93.0462722778322, 22.101320266723633], [93.03917694091791, 22.10493087768566], [93.03649139404325, 22.10493087768566], [93.03219604492193, 22.10493087768566], [93.02297973632812, 22.105649948120117], [93.0159759521485, 22.105470657348746], [93.01326751709001, 22.1022109985351], [93.01325225830078, 22.09805107116705], [93.01558685302734, 22.093080520629996], [93.01449584960943, 22.0852108001709], [93.01175689697283, 22.079330444335938], [93.00807189941435, 22.06991958618164], [93.00377655029303, 22.061149597168082], [93.00076293945318, 22.05564117431652], [92.99996948242193, 22.050380706787223], [92.99994659423828, 22.03954124450695], [93.00066375732422, 22.03629875183117], [93.00158691406278, 22.032121658325195], [93.00671386718778, 22.02301216125511], [93.00845336914091, 22.01992034912115], [93.01037597656244, 22.011150360107422], [93.00958251953153, 22.002651214599837], [93.01014709472685, 21.995780944824162], [93.00985717773455, 21.991720199584904], [93.00924682617188, 21.983930587768555], [93.00662994384771, 21.979860305786133], [92.99897766113298, 21.97794914245617], [92.99238586425793, 21.98084068298334], [92.98802947998075, 21.982919692993164], [92.98739624023443, 21.9849605560305], [92.98580932617205, 21.990062713623274], [92.98175048828153, 22.00189971923828], [92.97953033447283, 22.00641059875511], [92.97313690185575, 22.00995254516613], [92.96945190429693, 22.014110565185604], [92.9669265747072, 22.020259857177848], [92.96656799316406, 22.027120590210018], [92.96093750000028, 22.030189514160213], [92.95580291748075, 22.02992057800293], [92.95281982421892, 22.027385711669922], [92.95111846923828, 22.02593994140625], [92.94843292236345, 22.022861480713118], [92.94210815429688, 22.018341064453125], [92.94023895263689, 22.018766403198356], [92.93463897705107, 22.020040512085018], [92.93161010742188, 22.017509460449162], [92.93395996093756, 22.014751434326115], [92.93569183349615, 22.012720108032283], [92.93908691406267, 22.00855827331543], [92.9321670532226, 22.00186157226574], [92.92771148681646, 21.99588966369629], [92.92479705810547, 21.987110137939453], [92.9222564697265, 21.980802536010856], [92.91944885253923, 21.97382164001465], [92.91575622558622, 21.965049743652457], [92.91446685791033, 21.95663070678711], [92.91610717773466, 21.949409484863395], [92.91088867187506, 21.946229934692326], [92.90797424316423, 21.95045471191412], [92.9058380126956, 21.95355033874523], [92.90471649169922, 21.980760574340763], [92.90133666992188, 21.9903507232666], [92.89640808105474, 22.0039005279541], [92.89425659179705, 22.011962890625114], [92.88942718505888, 22.0181827545166], [92.88574218750006, 22.021520614624023], [92.8795394897461, 22.02593994140625], [92.87467956542974, 22.030099868774528], [92.87246704101557, 22.036510467529297], [92.87130737304716, 22.046649932861328], [92.87014770507841, 22.054241180419865], [92.87016296386747, 22.060750961303825], [92.86773681640642, 22.06536293029791], [92.86328125000028, 22.06762123107916], [92.856986999512, 22.065631866455192], [92.85463714599615, 22.064889907836914], [92.8490219116211, 22.062351226806868], [92.84464263916016, 22.063432693481502], [92.84464263916016, 22.068130493164062], [92.84144592285156, 22.072010040283203], [92.8365097045899, 22.076351165771428], [92.83249664306646, 22.076440811157283], [92.82563781738287, 22.079669952392578], [92.82028961181646, 22.090339660644645], [92.81709289550787, 22.095569610595817], [92.8104095458985, 22.097640991210938], [92.8033294677735, 22.10225105285639], [92.79515838623053, 22.106210708618278], [92.78878784179705, 22.108909606933594], [92.78312683105474, 22.108631134033203], [92.77741241455084, 22.109790802001953], [92.77675628662126, 22.110015869140568], [92.7737426757813, 22.111049652099723], [92.77305603027372, 22.11178016662592], [92.76925659179716, 22.115840911865178], [92.7701263427735, 22.12306976318365], [92.76567077636719, 22.126319885253963], [92.75129699707043, 22.132709503173885], [92.74314117431669, 22.135948181152457], [92.73781585693354, 22.13900947570812], [92.73275756835943, 22.149589538574276], [92.71788787841803, 22.152629852295036], [92.70797729492193, 22.153511047363224], [92.70343780517607, 22.153781890869254], [92.70034027099615, 22.14964294433605], [92.69935607910162, 22.148332595825252], [92.7006225585937, 22.138389587402457], [92.69966888427729, 22.122390747070426], [92.69896697998047, 22.11822128295904], [92.69713592529308, 22.09930992126465], [92.69754791259794, 22.086221694946232], [92.6969528198245, 22.080881118774357], [92.69355773925776, 22.077249526977653], [92.69132232666033, 22.08113098144554], [92.69062805175787, 22.094789505004996], [92.68955993652338, 22.107091903686637], [92.6864471435548, 22.1094207763673], [92.68383789062494, 22.105348587036133], [92.6845321655274, 22.09205055236839], [92.68530273437511, 22.085550308227596], [92.68550872802763, 22.081739425659123], [92.68578338623064, 22.07650947570795], [92.68685913085966, 22.069910049438533], [92.68725585937528, 22.06312751770031], [92.68628692626982, 22.058599472045955], [92.68667602539091, 22.050010681152344], [92.68997955322283, 22.04097938537609], [92.6894989013673, 22.035739898681584], [92.68794250488287, 22.03239059448248], [92.68817138671886, 22.030719757080192], [92.68843841552751, 22.02858924865734], [92.687271118164, 22.023878097534237], [92.68435668945324, 22.017910003662337], [92.68077850341791, 22.014190673828352], [92.67681121826189, 22.014091491699162], [92.67154693603521, 22.014711380004826], [92.66322326660185, 22.015501022338924], [92.65924072265625, 22.014722824096737], [92.64929962158232, 22.00341415405296], [92.64469909667997, 21.998189926147575], [92.64100646972662, 21.992210388183594], [92.63791656494158, 21.988670349121207], [92.63006591796875, 21.98495292663597], [92.62895202636736, 21.98461723327648], [92.6181259155274, 21.981380462646428], [92.61231994628906, 21.980289459228516], [92.61193084716791, 21.9818496704101], [92.61178588867205, 21.981702804565487], [92.60968017578142, 21.97683715820324], [92.60926818847656, 21.979230880737532], [92.60923004150419, 21.982749938964957], [92.60878753662115, 21.983842849731445], [92.60874938964844, 21.98610115051264], [92.60809326171903, 21.987440109253157], [92.60888671875, 21.992839813232422], [92.61154174804682, 21.995809555053768], [92.61154937744135, 22.000169754028434], [92.61039733886713, 22.003410339355412], [92.61019897460966, 22.00398063659668], [92.60881042480474, 22.00612068176264], [92.60824584960949, 22.006759643554744], [92.6072082519533, 22.007930755615234], [92.60646057128906, 22.00930976867687], [92.60513305664068, 22.010099411010742], [92.6041870117188, 22.015062332153434], [92.6041870117188, 22.02021980285656], [92.60419464111334, 22.020500183105526], [92.60426330566435, 22.025320053100586], [92.60485839843778, 22.0308895111084], [92.603988647461, 22.031890869140625], [92.60308074951178, 22.031990051269645], [92.60132598876959, 22.034400939941634], [92.59902954101568, 22.037759780883903], [92.59998321533209, 22.040359497070426], [92.60058593750006, 22.04381942749029], [92.60146331787126, 22.04541015625], [92.60225677490251, 22.046850204467717], [92.60473632812517, 22.049879074096793], [92.60521697998075, 22.05183982849121], [92.60498046875006, 22.057630538940657], [92.60475921630865, 22.057758331298885], [92.60366821289074, 22.058389663696232], [92.60330963134794, 22.058969497680664], [92.60235595703153, 22.05937004089361], [92.6011581420899, 22.060470581054688], [92.60067749023432, 22.061981201171875], [92.59919738769548, 22.064479827880973], [92.59949493408232, 22.066202163696232], [92.59992980957031, 22.06870079040533], [92.60002899169928, 22.06950187683117], [92.59970855712919, 22.07061004638672], [92.59776306152355, 22.07407951354992], [92.59732055664068, 22.07483291625971], [92.5958099365235, 22.077390670776367], [92.59500885009783, 22.078140258789176], [92.59326171875017, 22.08216285705572], [92.59172058105469, 22.086479187011946], [92.59136199951189, 22.087511062622184], [92.59076690673828, 22.089220046997127], [92.58867645263672, 22.09415054321289], [92.58761596679693, 22.096942901611442], [92.5866317749024, 22.099519729614315], [92.58441162109386, 22.105510711670036], [92.5841369628908, 22.106201171874943], [92.5826873779298, 22.108631134033203], [92.58061218261747, 22.111757278442496], [92.58024597167997, 22.1123104095459], [92.5783233642581, 22.114770889282283], [92.57530212402338, 22.118299484252987], [92.5736694335938, 22.121570587158146], [92.57187652587885, 22.124828338623047], [92.5716171264649, 22.12585067749029], [92.57128906250028, 22.126750946044922], [92.5704193115235, 22.12912178039562], [92.57118225097662, 22.1323299407959], [92.57538604736334, 22.13369941711437], [92.58024597167997, 22.1339626312257], [92.5853118896485, 22.134809494018555], [92.58763885498053, 22.13965988159191], [92.59162902832037, 22.13817024230957], [92.59648132324213, 22.13656044006359], [92.59654998779303, 22.13647270202648], [92.59796142578153, 22.13470840454113], [92.60176849365246, 22.12993049621582], [92.6046676635745, 22.12628936767578], [92.60489654541033, 22.125997543334904], [92.60997772216825, 22.12130928039562], [92.61215972900408, 22.133132934570312], [92.61366271972656, 22.14209747314453], [92.61479187011713, 22.14685821533203], [92.61452484130865, 22.14773178100586], [92.6138305664062, 22.149969100952205], [92.61374664306646, 22.150711059570312], [92.61406707763689, 22.15513038635254], [92.61347198486328, 22.16059112548828], [92.61389160156267, 22.172941207885742], [92.61161041259766, 22.176088333129883], [92.60906219482416, 22.176549911498967], [92.6071319580081, 22.177871704101676], [92.6063766479495, 22.178390502929744], [92.60475158691412, 22.182510375976506], [92.60456848144537, 22.186660766601676], [92.60356903076189, 22.18959999084467], [92.60305023193365, 22.194629669189453], [92.6025009155274, 22.200019836425895], [92.6013870239259, 22.20289039611822], [92.60132598876959, 22.205120086669922], [92.60041809082037, 22.20938110351574], [92.60073089599626, 22.21487045288086], [92.59953308105463, 22.222150802612305], [92.59858703613281, 22.227130889892635], [92.59770202636724, 22.232080459594783], [92.59826660156256, 22.238500595092887], [92.5979461669923, 22.248300552368278], [92.59767913818376, 22.257150650024414], [92.59700012207043, 22.25918006896984], [92.59503936767584, 22.26496124267578], [92.59284973144526, 22.271312713623047], [92.59041595459001, 22.276790618896598], [92.5889282226563, 22.28243064880371], [92.58849334716814, 22.284572601318416], [92.58616638183622, 22.289381027221737], [92.58563995361345, 22.294862747192496], [92.5856704711914, 22.303680419921875], [92.58743286132818, 22.317480087280387], [92.58753204345703, 22.32098007202171], [92.58699035644548, 22.32245063781744], [92.58539581298857, 22.32829093933111], [92.58454132080084, 22.331029891967717], [92.58409881591797, 22.33242988586437], [92.58239746093767, 22.337432861328125], [92.58109283447266, 22.340930938720703], [92.57949066162138, 22.347070693969954], [92.5780868530274, 22.35268974304222], [92.57791900634777, 22.353380203247127], [92.57785034179688, 22.354290008544922], [92.57740020751947, 22.356580734253043], [92.57707214355486, 22.360240936279297], [92.57633972167974, 22.3631401062014], [92.57473754882807, 22.3670597076416], [92.5731964111331, 22.370910644531364], [92.57031250000028, 22.377090454101562], [92.56933593750011, 22.380952835083008], [92.56809997558611, 22.383501052856673], [92.56735229492205, 22.386121749878043], [92.56690216064482, 22.387699127197266], [92.56562042236345, 22.391870498657283], [92.56598663330095, 22.393579483032283], [92.56542205810564, 22.397066116333065], [92.564453125, 22.403049468994254], [92.56466674804705, 22.40570068359375], [92.5641479492188, 22.414131164550838], [92.56407165527344, 22.414871215820312], [92.56212615966825, 22.426109313964844], [92.56199645996111, 22.42683982849121], [92.56183624267584, 22.42758941650385], [92.55945587158232, 22.437900543213118], [92.55899810791021, 22.44256973266596], [92.55831146240263, 22.44832992553711], [92.55815887451172, 22.451379776001033], [92.55812072753935, 22.452161788940373], [92.55760955810564, 22.462690353393555], [92.55748748779303, 22.463502883911076], [92.55593872070318, 22.469129562377873], [92.5531997680664, 22.481111526489258], [92.55146026611322, 22.492160797119084], [92.55055236816423, 22.50250053405756], [92.5504913330081, 22.503690719604492], [92.5502319335938, 22.506231307983626], [92.550033569336, 22.508214950561637], [92.54993438720697, 22.509809494018555], [92.5504684448245, 22.510959625244368], [92.55123901367216, 22.514810562133732], [92.55175781250006, 22.51616096496582], [92.55168151855486, 22.517351150512695], [92.55265045166033, 22.518949508666992], [92.55278015136747, 22.52050018310547], [92.55213928222662, 22.52099037170416], [92.54972076416044, 22.5224609375], [92.54920959472673, 22.52242469787609], [92.54872131347662, 22.522390365600586], [92.54773712158209, 22.524379730224723], [92.5470962524414, 22.525720596313477], [92.54763031005888, 22.527940750122184], [92.54688262939447, 22.530740737915266], [92.54564666748053, 22.532890319824162], [92.54514312744169, 22.535980224609375], [92.54503631591814, 22.536979675293026], [92.54492950439464, 22.538200378418082], [92.5441284179688, 22.541900634765625], [92.54342651367216, 22.546749114990234], [92.54297637939459, 22.549840927124023], [92.54161834716803, 22.554100036621094], [92.53990936279303, 22.5545272827149], [92.53926086425776, 22.554689407348633], [92.53795623779314, 22.553880691528434], [92.53713989257841, 22.555429458618107], [92.5374603271485, 22.558120727539062], [92.53755187988281, 22.558887481689567], [92.536849975586, 22.560739517212028], [92.53560638427763, 22.561410903930664], [92.5349731445313, 22.561939239502067], [92.53412628173828, 22.561853408813533], [92.53272247314464, 22.561710357666072], [92.53144836425781, 22.5623397827149], [92.53190612792974, 22.563829421997013], [92.53197479248075, 22.563964843749943], [92.53314208984403, 22.566110610961857], [92.53380584716803, 22.569839477539176], [92.53350830078153, 22.571010589599666], [92.5337295532226, 22.57498931884777], [92.53449249267572, 22.57538032531761], [92.53505706787104, 22.575199127197266], [92.5357513427735, 22.575689315795955], [92.53685760498053, 22.575170516967717], [92.53868103027338, 22.575450897216854], [92.5396804809572, 22.5764999389649], [92.54033660888678, 22.578317642211857], [92.54049682617193, 22.57875061035162], [92.54019927978544, 22.581361770629996], [92.5399627685548, 22.583911895751896], [92.53988647460955, 22.585420608520508], [92.5401000976563, 22.58843994140625], [92.54001617431635, 22.59234046936041], [92.53987121582048, 22.600191116333065], [92.53980255126982, 22.604110717773494], [92.53816223144548, 22.608341217041016], [92.53724670410162, 22.614059448242244], [92.5359573364259, 22.617748260498104], [92.53630065917974, 22.622381210327205], [92.53623199462908, 22.626930236816406], [92.53536987304693, 22.630050659179744], [92.53529357910173, 22.63037872314453], [92.53404998779308, 22.635690689087028], [92.5340194702149, 22.637990951538086], [92.5339660644533, 22.642839431762695], [92.53263092041033, 22.651090621948185], [92.53174591064459, 22.656141281127987], [92.52913665771513, 22.663539886474837], [92.52839660644531, 22.664882659912337], [92.52780151367216, 22.66596031188959], [92.52738189697277, 22.669130325317383], [92.52703857421903, 22.675069808960075], [92.52697753906256, 22.676160812377987], [92.52631378173845, 22.677743911743164], [92.52388000488287, 22.683521270751953], [92.52156829834001, 22.687820434570312], [92.52040100097673, 22.695329666137752], [92.51918792724638, 22.700920104980412], [92.51761627197271, 22.707719802856502], [92.51505279541016, 22.714439392089957], [92.51342010498053, 22.71931076049816], [92.51052856445318, 22.724929809570426], [92.50717926025419, 22.732368469238395], [92.50434112548857, 22.735540390014933], [92.50421142578142, 22.735679626464844], [92.50589752197283, 22.73576927185053], [92.51139831542997, 22.736610412597827], [92.5100708007812, 22.738189697265852], [92.50569915771484, 22.73942947387718], [92.50308227539062, 22.741138458251953], [92.5052108764649, 22.743602752685547], [92.50551605224626, 22.74395942688011], [92.50443267822271, 22.744182586669922], [92.48864746093756, 22.747440338134993], [92.48825073242193, 22.747714996338004], [92.48461914062506, 22.750249862671012], [92.48722839355486, 22.751777648925838], [92.49140930175798, 22.752040863037337], [92.49212646484403, 22.753862380981445], [92.49137878417963, 22.754671096801985], [92.48815917968767, 22.757070541381893], [92.48741912841814, 22.75966072082548], [92.48130035400408, 22.762451171875057], [92.48464965820324, 22.764450073242358], [92.48383331298834, 22.7653102874757], [92.48365783691412, 22.76600837707514], [92.48313140869169, 22.766889572143725], [92.48324584960938, 22.770820617675838], [92.48652648925787, 22.772830963134993], [92.48278045654325, 22.776901245117188], [92.48266601562517, 22.778787612914982], [92.48252105712896, 22.78170013427757], [92.4776611328125, 22.784280776977653], [92.47705841064482, 22.786640167236442], [92.47654724121111, 22.78764152526867], [92.47644042968756, 22.78907012939453], [92.47599029541033, 22.790702819824503], [92.47663879394543, 22.79348945617693], [92.4779663085938, 22.796159744262866], [92.47779083251982, 22.79833030700678], [92.47281646728521, 22.80081939697294], [92.47123718261724, 22.802770614624023], [92.47013854980474, 22.804201126098633], [92.4688262939456, 22.807100296020735], [92.46962738037138, 22.810287475586165], [92.46646881103521, 22.81054878234886], [92.46261596679705, 22.814060211181697], [92.46256256103544, 22.814172744751204], [92.4616928100586, 22.816049575805664], [92.46118927001964, 22.816850662231673], [92.46063995361357, 22.818378448486328], [92.46067047119135, 22.820108413696346], [92.45883941650396, 22.820920944214095], [92.45768737792969, 22.821136474609375], [92.45748901367205, 22.822988510131836], [92.45915222167963, 22.82357978820812], [92.45842742919939, 22.826370239258097], [92.45915222167963, 22.82740974426281], [92.45918273925798, 22.828029632568473], [92.46000671386724, 22.829088211059855], [92.46166229248064, 22.829750061035384], [92.46292877197294, 22.830579757690373], [92.46444702148466, 22.831890106201172], [92.46475982666021, 22.832761764526424], [92.46404266357428, 22.834398269653548], [92.46311950683622, 22.836509704589957], [92.45941925048834, 22.840080261230526], [92.45751190185553, 22.841730117797795], [92.46125030517572, 22.843391418456974], [92.46318817138689, 22.842510223388786], [92.4645004272461, 22.843219757080305], [92.46286010742193, 22.84506607055664], [92.46112823486334, 22.847009658813533], [92.46166992187517, 22.848680496216048], [92.45997619628906, 22.85215759277355], [92.45947265625011, 22.852710723876953], [92.45919799804705, 22.85377120971691], [92.46103668212919, 22.85332107543968], [92.46185302734392, 22.85340118408226], [92.46305847167974, 22.853200912475643], [92.46340179443376, 22.853128433227823], [92.46385955810558, 22.85303115844721], [92.46466064453153, 22.853790283203182], [92.46437072753912, 22.856027603149357], [92.46283721923828, 22.85783958435053], [92.46221923828142, 22.858430862426985], [92.46221160888672, 22.858570098876896], [92.46205902099626, 22.860391616821403], [92.46093750000006, 22.861530303955305], [92.45897674560564, 22.861980438232536], [92.45813751220714, 22.86207008361822], [92.45619964599615, 22.862501144409407], [92.45452880859403, 22.863479614257812], [92.45352935791021, 22.86556053161644], [92.45464324951178, 22.867429733276367], [92.45539093017595, 22.86898994445812], [92.45745849609392, 22.87046813964855], [92.45826721191412, 22.871959686279297], [92.45612335205095, 22.873859405517578], [92.45374298095709, 22.87539291381836], [92.45239257812506, 22.87589073181158], [92.45108032226574, 22.876888275146655], [92.45056152343744, 22.877531051635742], [92.45008087158209, 22.879060745239542], [92.45005798339844, 22.88140106201172], [92.4502258300783, 22.88418960571289], [92.45017242431669, 22.885419845581282], [92.44837188720709, 22.886690139770792], [92.44789886474604, 22.890569686889876], [92.44753265380876, 22.89359092712425], [92.44552612304693, 22.89489364624029], [92.44521331787138, 22.895099639892805], [92.4450759887697, 22.894956588745345], [92.44323730468756, 22.89307022094738], [92.44193267822294, 22.89158058166504], [92.44168090820318, 22.891164779663143], [92.44113159179693, 22.890270233154297], [92.44082641601591, 22.889570236206055], [92.44039916992199, 22.88858032226574], [92.43940734863287, 22.88689041137718], [92.4382934570313, 22.886705398559684], [92.43784332275408, 22.886629104614485], [92.4376525878908, 22.88667106628435], [92.43691253662115, 22.88683128356928], [92.43633270263678, 22.885549545288086], [92.43289947509771, 22.8869304656983], [92.430717468262, 22.889720916748047], [92.43090820312528, 22.893829345703352], [92.43126678466825, 22.89525985717796], [92.42994689941435, 22.896709442138615], [92.42923736572283, 22.89875030517578], [92.42809295654314, 22.901781082153434], [92.42517089843778, 22.904939651489485], [92.42418670654308, 22.90606117248535], [92.42302703857428, 22.906080245971793], [92.42074584960943, 22.9089298248291], [92.41876220703142, 22.912960052490234], [92.42037963867216, 22.917190551757926], [92.42105865478533, 22.918668746948356], [92.42124176025408, 22.919059753418026], [92.42143249511736, 22.920120239257812], [92.41864776611334, 22.920270919799805], [92.41799163818376, 22.919452667236328], [92.41713714599638, 22.918390274047965], [92.4166564941408, 22.916820526123274], [92.41600036621122, 22.915779113769588], [92.4153671264649, 22.91547966003418], [92.41340637207048, 22.916070938110636], [92.41272735595709, 22.916120529175032], [92.41142272949247, 22.91673088073759], [92.41098785400396, 22.916860580444563], [92.4100189208985, 22.917150497436637], [92.40879058837885, 22.916282653808764], [92.40715026855474, 22.916059494018555], [92.40563201904303, 22.916099548339844], [92.40441131591791, 22.916530609130973], [92.40404510498064, 22.917026519775618], [92.40392303466803, 22.917190551757926], [92.40200042724615, 22.91991806030279], [92.40152740478544, 22.921680450439567], [92.40091705322277, 22.925460815429688], [92.40011596679693, 22.92745971679716], [92.39904785156278, 22.92931938171415], [92.3975906372072, 22.930879592895735], [92.39749145507841, 22.930948257446573], [92.39655303955107, 22.931600570678768], [92.39512634277344, 22.931921005249023], [92.39367675781278, 22.93161964416504], [92.39212799072271, 22.931070327759016], [92.3909759521485, 22.930711746216048], [92.39077758789068, 22.93070220947294], [92.3905105590822, 22.930681228637695], [92.3892211914063, 22.930580139160327], [92.38691711425798, 22.930629730224723], [92.38551330566435, 22.930389404297046], [92.3849411010745, 22.930318832397404], [92.3847198486331, 22.93028831481945], [92.38291168212908, 22.930139541626204], [92.3809890747072, 22.93028068542509], [92.37882232666044, 22.9309215545656], [92.37731170654325, 22.931749343872013], [92.37577819824247, 22.93376159667997], [92.37542724609375, 22.934881210327262], [92.3753280639649, 22.937311172485522], [92.37577819824247, 22.93988990783697], [92.37648010253912, 22.94207000732422], [92.37728118896513, 22.944580078125057], [92.37792968750017, 22.946460723877067], [92.3787460327149, 22.94852828979498], [92.37966156005876, 22.951250076293945], [92.38002014160173, 22.952739715576456], [92.3803176879884, 22.95549964904791], [92.37993621826183, 22.95824050903326], [92.379203796387, 22.959808349609375], [92.37872314453125, 22.96084976196289], [92.3782196044923, 22.962270736694393], [92.37783813476574, 22.96476936340349], [92.37802886962902, 22.96771049499506], [92.37879180908214, 22.971410751343], [92.37940216064482, 22.975719451904297], [92.37967681884766, 22.9769611358642], [92.3803100585938, 22.980699539184627], [92.38050079345709, 22.98188972473156], [92.38346099853533, 22.98549842834501], [92.38549804687528, 22.986930847168196], [92.38304138183588, 22.990970611572266], [92.38365173339861, 22.99155044555664], [92.38558197021501, 22.99345970153803], [92.3847961425783, 22.998281478881836], [92.38584136962896, 23.001710891723917], [92.38382720947283, 23.006498336791992], [92.38307952880876, 23.00780105590843], [92.38179016113287, 23.00996971130394], [92.382553100586, 23.01336288452154], [92.38403320312517, 23.017919540405273], [92.38578796386724, 23.02210807800293], [92.38655090332037, 23.02804756164562], [92.38598632812506, 23.03457069396967], [92.38556671142595, 23.037269592285384], [92.3854598999024, 23.037998199463175], [92.3904571533206, 23.041830062866268], [92.39064788818388, 23.04229164123558], [92.39263916015642, 23.04701995849632], [92.39311218261747, 23.049100875854776], [92.39322662353521, 23.049909591674748], [92.39364624023443, 23.052509307861442], [92.39366912841808, 23.058168411255167], [92.392318725586, 23.061372756958235], [92.39158630371122, 23.062540054321346], [92.39111328125017, 23.06423950195324], [92.39080810546886, 23.06493949890165], [92.38844299316423, 23.07007980346674], [92.38845825195318, 23.076219558716048], [92.38706970214861, 23.080219268799], [92.38597106933594, 23.081649780273608], [92.38587188720732, 23.08368110656761], [92.38388061523443, 23.08743095397955], [92.38243865966825, 23.085710525512695], [92.38033294677763, 23.086750030517578], [92.37901306152372, 23.087860107421932], [92.37804412841825, 23.088802337646655], [92.37747955322294, 23.0893497467041], [92.3772659301759, 23.090391159057617], [92.37635803222685, 23.091659545898494], [92.37452697753906, 23.095422744751147], [92.37404632568388, 23.096410751343058], [92.3730087280274, 23.097379684448356], [92.37077331542974, 23.0977401733399], [92.36904907226568, 23.098510742187727], [92.36882781982428, 23.10087966918968], [92.3674392700197, 23.10303115844755], [92.36625671386713, 23.10458946228033], [92.3661727905274, 23.10539054870617], [92.36579895019537, 23.105949401855696], [92.36535644531267, 23.11034965515148], [92.36786651611334, 23.113260269165096], [92.36837005615234, 23.11478042602539], [92.36885070800787, 23.11746978759777], [92.370346069336, 23.119951248169002], [92.37139892578153, 23.12240982055664], [92.37246704101568, 23.12458038330078], [92.37343597412115, 23.127870559692383], [92.37255096435541, 23.129520416259822], [92.37181854248064, 23.129989624023665], [92.37061309814482, 23.13133049011242], [92.3687820434572, 23.132280349731445], [92.36728668212896, 23.132181167602653], [92.36624145507841, 23.134830474853743], [92.36512756347656, 23.13664817810087], [92.36473846435541, 23.137420654297102], [92.36515808105486, 23.13878822326683], [92.36627197265625, 23.142459869384993], [92.3683395385745, 23.145280838012752], [92.36869049072294, 23.14603042602539], [92.36820983886736, 23.14797019958513], [92.3680419921875, 23.149539947509993], [92.36824035644537, 23.15238952636713], [92.36891174316435, 23.153371810913313], [92.36926269531278, 23.15389060974138], [92.36956024169939, 23.155519485473633], [92.37162780761736, 23.1597518920899], [92.37137603759794, 23.16107940673851], [92.37033081054688, 23.162670135498274], [92.36978912353521, 23.16640090942377], [92.3678283691408, 23.17130088806175], [92.36634063720709, 23.173980712890625], [92.36614227294928, 23.17601966857916], [92.36600494384771, 23.17641258239746], [92.36563110351574, 23.17748069763195], [92.36540985107428, 23.181499481201342], [92.36624145507841, 23.18346023559593], [92.36640167236357, 23.18348121643095], [92.36955261230486, 23.183908462524357], [92.36865234375006, 23.186250686645508], [92.36660766601591, 23.187522888183594], [92.36511993408197, 23.187900543212947], [92.36300659179716, 23.189199447631836], [92.36257171630865, 23.19071960449213], [92.36219787597668, 23.1920299530031], [92.36202239990263, 23.194709777832145], [92.36157226562506, 23.19709014892578], [92.36302947998047, 23.199230194091967], [92.36414337158232, 23.2014999389649], [92.36411285400419, 23.203798294067383], [92.36400604248064, 23.20522117614746], [92.36450958251982, 23.208761215210075], [92.36450958251982, 23.211509704589787], [92.3638763427735, 23.213888168335018], [92.36425018310553, 23.216730117798022], [92.36421203613298, 23.217941284179744], [92.36402893066423, 23.220159530639876], [92.3637084960938, 23.22227287292486], [92.36297607421903, 23.2253608703615], [92.36219787597668, 23.22742080688488], [92.36210632324236, 23.229251861572322], [92.36183929443388, 23.23046112060547], [92.36109924316435, 23.237537384033317], [92.36251831054693, 23.2385196685791], [92.36437225341814, 23.238418579101506], [92.36795806884794, 23.238548278808878], [92.36934661865251, 23.238857269287223], [92.3726425170899, 23.239585876464844], [92.37316131591814, 23.239700317383097], [92.37631225585949, 23.239749908447493], [92.3782196044923, 23.23997116088873], [92.38342285156244, 23.239910125732422], [92.3848495483399, 23.239940643310774], [92.38620758056646, 23.240022659301758], [92.38684082031278, 23.24008178710966], [92.38928985595732, 23.24008941650402], [92.3902969360351, 23.240409851074276], [92.39154815673834, 23.240530014038086], [92.39260101318376, 23.240642547607422], [92.39756011962908, 23.240600585937557], [92.39839172363287, 23.2407035827639], [92.39933776855474, 23.240819931030387], [92.40022277832031, 23.240940093994425], [92.40679168701178, 23.241956710815543], [92.40863037109392, 23.242242813110465], [92.40863037109392, 23.246080398559513], [92.40766906738298, 23.248010635376147], [92.40653228759783, 23.250000000000284], [92.40619659423834, 23.2518310546875], [92.40579986572283, 23.252780914306754], [92.40550994873075, 23.25580978393583], [92.40360260009794, 23.258409500122127], [92.40193176269526, 23.258859634399357], [92.40029907226568, 23.26019287109375], [92.39920043945324, 23.26144027709961], [92.39879608154303, 23.262100219726562], [92.39798736572266, 23.263469696045036], [92.39711761474638, 23.26497077941889], [92.39652252197271, 23.266321182251147], [92.39616394042997, 23.267202377319336], [92.3961029052735, 23.267351150512752], [92.39688110351568, 23.26836013793968], [92.39698028564453, 23.268480300903548], [92.39721679687517, 23.268808364868335], [92.39787292480497, 23.268329620361328], [92.39929199218767, 23.26728820800804], [92.40061187744158, 23.266321182251147], [92.40055084228544, 23.26732063293457], [92.40046691894531, 23.268690109252873], [92.40042877197283, 23.269350051879826], [92.39944458007807, 23.271709442138842], [92.39768981933622, 23.275920867919922], [92.39454650878923, 23.282131195068644], [92.39318084716814, 23.283279418945312], [92.39086151123041, 23.285230636596964], [92.38903808593756, 23.28881072998047], [92.39003753662115, 23.290380477905558], [92.38982391357428, 23.29446029663086], [92.38967895507841, 23.29726028442377], [92.38954925537126, 23.29831123352062], [92.38890838623075, 23.30352020263672], [92.38771057128912, 23.30855941772461], [92.38710784912126, 23.309480667114258], [92.38575744628923, 23.311349868774414], [92.38423156738298, 23.3134708404541], [92.38291168212908, 23.318067550659293], [92.38243103027372, 23.319351196289062], [92.38123321533209, 23.32067108154297], [92.38022613525408, 23.32067108154297], [92.37893676757818, 23.32119941711437], [92.37673187255888, 23.32116127014166], [92.37615966796903, 23.31961059570341], [92.37557983398466, 23.31900978088379], [92.3753280639649, 23.318189620971907], [92.3739318847658, 23.32059097290039], [92.37351226806635, 23.321332931518498], [92.37285614013678, 23.32292938232439], [92.37290954589872, 23.323600769043026], [92.3722229003908, 23.326799392700195], [92.3751678466798, 23.32818031311058], [92.37715148925798, 23.331529617309513], [92.3793563842774, 23.33518028259283], [92.3795013427735, 23.33567047119152], [92.38114929199219, 23.3413028717041], [92.38173675537126, 23.346780776977653], [92.38205718994169, 23.34741020202665], [92.38353729248053, 23.350210189819563], [92.38372039794928, 23.353620529174805], [92.38146972656278, 23.35647010803251], [92.38156127929705, 23.35913276672369], [92.3804016113283, 23.362489700317383], [92.37979125976591, 23.363229751586914], [92.37827301025385, 23.364240646362248], [92.37722015380865, 23.364778518676758], [92.37580871582031, 23.365289688110295], [92.37506103515642, 23.37026023864769], [92.37435913085943, 23.371021270752237], [92.37361145019537, 23.37047004699724], [92.37232971191435, 23.368560791015625], [92.37049865722673, 23.367290496826172], [92.36939239501959, 23.36709976196289], [92.36769866943365, 23.36688041687023], [92.36640167236357, 23.367380142212028], [92.36537933349615, 23.36794090270996], [92.36418914794939, 23.369520187377987], [92.36355590820341, 23.371400833129826], [92.363510131836, 23.37356948852556], [92.36419677734392, 23.37495994567871], [92.36658477783214, 23.377086639404524], [92.36727142334001, 23.377700805664062], [92.36872100830107, 23.378429412841854], [92.36914062500017, 23.3789005279541], [92.36869049072294, 23.38037109375], [92.36830139160168, 23.380540847778434], [92.36644744873041, 23.38134002685547], [92.36437225341814, 23.381242752075252], [92.3626785278322, 23.380870819092024], [92.36160278320318, 23.38088035583496], [92.36061859130865, 23.381149291992188], [92.35981750488298, 23.381288528442496], [92.3595733642581, 23.382402420044002], [92.35952758789074, 23.385320663452205], [92.3620910644533, 23.386520385742415], [92.36240386962919, 23.387128829955998], [92.36338806152372, 23.389060974121207], [92.36319732666044, 23.391019821166992], [92.36222076416044, 23.39105224609375], [92.36106109619169, 23.391090393066463], [92.36042022705084, 23.39131164550787], [92.35943603515642, 23.39202117919922], [92.35858917236357, 23.394720077514933], [92.3586730957033, 23.398149490356445], [92.3603820800783, 23.40205955505371], [92.3623123168947, 23.403799057006836], [92.36221313476591, 23.407421112060604], [92.36177062988287, 23.409072875976847], [92.36113739013689, 23.409950256347656], [92.35851287841803, 23.411951065063533], [92.35572052001982, 23.41307067871122], [92.35395812988287, 23.413600921630803], [92.3534698486331, 23.414369583129883], [92.35250091552763, 23.414770126342887], [92.35330963134783, 23.41686058044445], [92.35391998291033, 23.418970108032454], [92.35408020019548, 23.41950988769537], [92.35392761230469, 23.42259025573742], [92.3533782958985, 23.424301147460994], [92.35291290283197, 23.429380416870174], [92.35237121582048, 23.43127059936529], [92.35150909423834, 23.43260955810547], [92.35021209716825, 23.43425941467308], [92.34963226318388, 23.4346981048584], [92.34929656982422, 23.434949874877987], [92.34732055664074, 23.43558120727539], [92.34712982177746, 23.43564033508312], [92.34693908691418, 23.43540191650402], [92.34606933593767, 23.434310913086108], [92.34522247314464, 23.433639526367415], [92.34261322021479, 23.43243026733427], [92.34246826171892, 23.430980682373217], [92.34217834472685, 23.430072784423828], [92.34076690673828, 23.431182861328182], [92.34046936035185, 23.43243026733427], [92.3400268554688, 23.43425941467308], [92.3386306762697, 23.436479568481445], [92.33764648437494, 23.44141006469738], [92.33715057373053, 23.445699691772404], [92.33584594726568, 23.44939041137701], [92.33658599853521, 23.452550888061467], [92.3384780883789, 23.453870773315543], [92.33899688720703, 23.45495986938488], [92.33908081054693, 23.456010818481502], [92.33650207519526, 23.45603942871088], [92.33460235595697, 23.455841064453068], [92.33356475830084, 23.457456588745174], [92.33293151855486, 23.458431243896428], [92.33233642578142, 23.46133041381836], [92.333061218262, 23.460960388183707], [92.33493804931669, 23.460969924926815], [92.3365707397461, 23.459970474243164], [92.33776092529303, 23.46195983886713], [92.33805084228533, 23.464479446411076], [92.33551788330107, 23.467460632324332], [92.33241271972662, 23.46825027465843], [92.33110809326183, 23.469089508056754], [92.33049011230474, 23.469360351562614], [92.32904815673857, 23.470140457153377], [92.32711029052763, 23.470710754394645], [92.3245697021485, 23.472730636596964], [92.32408905029325, 23.47310256958002], [92.32319641113298, 23.473802566528434], [92.32453155517595, 23.476181030273494], [92.3260574340822, 23.476419448852596], [92.32839202880865, 23.47672843933134], [92.32901763916044, 23.476810455322493], [92.33110046386724, 23.477149963378963], [92.3325500488283, 23.478651046753043], [92.33122253417986, 23.481019973755167], [92.33013153076178, 23.48162841796875], [92.32985687255876, 23.481781005859318], [92.32826232910185, 23.482589721679688], [92.32563781738276, 23.485889434814396], [92.32344055175787, 23.49015045166027], [92.32482147216825, 23.490499496460075], [92.32534027099615, 23.49056053161621], [92.32579803466825, 23.490739822387752], [92.32625579834001, 23.49091911315935], [92.32750701904325, 23.491880416870117], [92.32653045654308, 23.493730545043945], [92.32545471191406, 23.49446487426752], [92.32451629638689, 23.495109558105582], [92.32450866699236, 23.495912551879996], [92.32535552978521, 23.496259689331225], [92.3258209228515, 23.496450424194506], [92.32678985595703, 23.49691963195818], [92.32694244384794, 23.498750686645565], [92.32656860351591, 23.500579833984602], [92.32620239257807, 23.50135040283226], [92.32624816894548, 23.502161026001204], [92.32650756835943, 23.50629043579096], [92.3263473510745, 23.508340835571232], [92.32485961914091, 23.51012992858898], [92.32456207275396, 23.51048088073736], [92.32341766357428, 23.511320114135913], [92.3229522705081, 23.5139102935791], [92.32222747802751, 23.516679763794002], [92.32182312011713, 23.518949508667163], [92.32153320312506, 23.519630432129134], [92.3212203979495, 23.52197074890148], [92.32319641113298, 23.52465248107916], [92.31913757324247, 23.528720855713118], [92.317192077637, 23.53067970275896], [92.3162384033206, 23.530750274658203], [92.31466674804693, 23.531190872192667], [92.31336212158209, 23.532989501953352], [92.3128204345706, 23.533781051635856], [92.3138198852539, 23.537601470947436], [92.31388854980474, 23.537860870361385], [92.31420135498047, 23.540029525756893], [92.31565856933605, 23.542570114135856], [92.31613922119158, 23.54540061950712], [92.31606292724638, 23.546091079712028], [92.31514739990229, 23.54866027832037], [92.31700134277372, 23.55105018615734], [92.31799316406278, 23.5546112060548], [92.31540679931646, 23.560211181640625], [92.31349945068365, 23.562589645385856], [92.31352996826178, 23.56334114074707], [92.31362152099604, 23.565521240234318], [92.31366729736345, 23.566629409790266], [92.31233978271501, 23.569490432739485], [92.31146240234386, 23.570550918579272], [92.31201934814459, 23.57554054260254], [92.31149291992216, 23.57909011840826], [92.30976104736357, 23.582878112792912], [92.30918884277372, 23.583610534668082], [92.30887603759783, 23.58456039428711], [92.3077163696289, 23.586700439453068], [92.30586242675781, 23.591262817382756], [92.30486297607439, 23.591079711914006], [92.30309295654325, 23.589479446411133], [92.30223846435547, 23.588661193847656], [92.30182647705095, 23.588071823120174], [92.30129241943365, 23.58871078491228], [92.29943084716803, 23.590339660644702], [92.29914093017595, 23.59106063842796], [92.29698181152372, 23.59328079223627], [92.2936096191408, 23.595960617065543], [92.29290008544928, 23.60130119323742], [92.29328155517584, 23.605350494384766], [92.29315948486357, 23.607570648193303], [92.2933197021485, 23.61483001709007], [92.29334259033214, 23.615530014038313], [92.29424285888678, 23.618221282959098], [92.2945861816408, 23.619510650634993], [92.29772949218761, 23.62155914306652], [92.30062866210966, 23.622110366821516], [92.30017852783209, 23.625259399414062], [92.29764556884783, 23.62706565856945], [92.29606628417963, 23.62818908691429], [92.29294586181646, 23.62980270385765], [92.29216766357428, 23.629680633545036], [92.29132843017595, 23.629241943359546], [92.29013824462919, 23.62887001037609], [92.2884826660158, 23.627229690551758], [92.28655242919939, 23.62783050537115], [92.28576660156244, 23.62765502929716], [92.28476715087919, 23.627788543701115], [92.2837982177735, 23.6280899047851], [92.28356933593756, 23.628999710083235], [92.28144073486345, 23.630050659179688], [92.28246307373053, 23.633369445801065], [92.28507995605474, 23.635971069335938], [92.28533172607433, 23.63622093200695], [92.28620910644548, 23.63653945922863], [92.28373718261719, 23.637920379638842], [92.28129577636724, 23.638990402221907], [92.28075408935558, 23.639259338378963], [92.28053283691412, 23.639369964599666], [92.28003692626982, 23.64383888244629], [92.2803573608399, 23.64449119567871], [92.28231811523466, 23.647310256958235], [92.28520965576172, 23.651269912719727], [92.28611755371122, 23.653659820556697], [92.2880172729495, 23.657161712646428], [92.29251861572271, 23.670101165771598], [92.2941207885745, 23.672580718994254], [92.29532623291033, 23.67551040649414], [92.2959594726563, 23.678922653198356], [92.2959289550783, 23.682270050048885], [92.29593658447283, 23.684680938720703], [92.29593658447283, 23.686859130859375], [92.29524993896496, 23.692699432373047], [92.29489898681669, 23.694231033325423], [92.29416656494135, 23.69610023498535], [92.29306030273455, 23.698709487914982], [92.2916107177735, 23.700889587402628], [92.29068756103544, 23.70306015014654], [92.28984069824219, 23.704111099243164], [92.28881072998075, 23.70527076721214], [92.28563690185564, 23.706840515136832], [92.28301239013678, 23.70835113525402], [92.2803573608399, 23.71441078186035], [92.27670288085943, 23.721061706543026], [92.27626037597673, 23.721870422363565], [92.2691802978515, 23.72811126709007], [92.26850128173834, 23.728610992431868], [92.26634979248064, 23.738727569580135], [92.26827239990251, 23.756401062012003], [92.26711273193376, 23.76189994812023], [92.26802825927729, 23.766508102416935], [92.26779937744169, 23.76997184753418], [92.26374053955084, 23.791650772094727], [92.26354980468756, 23.799741744995117], [92.2623367309572, 23.80488014221197], [92.2606506347658, 23.807081222534464], [92.25939941406278, 23.81499099731468], [92.26947784423834, 23.817779541015852], [92.27665710449236, 23.815208435058764], [92.27910614013672, 23.81669998168968], [92.28076934814482, 23.815130233764762], [92.28372955322283, 23.816272735595703], [92.28584289550787, 23.81568908691412], [92.28678894042969, 23.81678009033203], [92.2857131958009, 23.82262039184593], [92.28344726562528, 23.823438644409237], [92.28359985351568, 23.82420158386236], [92.28159332275408, 23.826160430908146], [92.2820663452149, 23.8309001922608], [92.27709197998053, 23.83658027648937], [92.2758865356447, 23.839929580688704], [92.27392578125028, 23.84165954589872], [92.27413940429682, 23.843610763549805], [92.27474975585955, 23.84905815124523], [92.27657318115263, 23.852920532226676], [92.28524017334001, 23.85733032226574], [92.2877807617188, 23.863029479980582], [92.28779602050787, 23.866960525512695], [92.29196929931646, 23.87144851684593], [92.2939071655274, 23.871322631835938], [92.29514312744158, 23.870109558105582], [92.29505157470709, 23.86548042297386], [92.30063629150419, 23.866439819335994], [92.30422973632841, 23.863821029663086], [92.30729675292997, 23.863870620727482], [92.30986022949236, 23.86264038085966], [92.31553649902344, 23.863491058349894], [92.31957244873064, 23.865200042724666], [92.32019805908209, 23.865829467773494], [92.31822204589861, 23.86705017089855], [92.31852722167997, 23.867980957031534], [92.32198333740263, 23.869810104370174], [92.32213592529303, 23.87379074096708], [92.32041168212896, 23.878009796142692], [92.3190307617188, 23.877681732177905], [92.31710815429705, 23.879180908203182], [92.31749725341797, 23.881380081177042], [92.31655883789068, 23.88166809082054], [92.31626129150419, 23.883291244506836], [92.31713104248053, 23.884088516235295], [92.31932830810575, 23.883678436279524], [92.31952667236322, 23.886100769043253], [92.31828308105474, 23.88795852661127], [92.31899261474626, 23.88916969299322], [92.31849670410162, 23.890489578247298], [92.31918334960955, 23.89073181152338], [92.31990814208979, 23.889869689941634], [92.32068634033203, 23.89124107360834], [92.32157135009777, 23.891399383544865], [92.32302856445312, 23.904159545898665], [92.32360076904297, 23.904678344726562], [92.32578277587919, 23.904430389404297], [92.32773590087885, 23.90626907348627], [92.32985687255876, 23.905519485473633], [92.33049011230474, 23.907592773437727], [92.33114624023466, 23.9118022918704], [92.3293914794923, 23.918859481811808], [92.33065795898438, 23.921449661254996], [92.32968139648455, 23.923120498657283], [92.3279190063476, 23.923999786376896], [92.32116699218756, 23.926111221313477], [92.3180770874024, 23.930351257324503], [92.31340026855497, 23.934530258178825], [92.31270599365251, 23.941230773925895], [92.3134078979495, 23.943290710449276], [92.31122589111334, 23.94561958313011], [92.31262207031278, 23.957450866699332], [92.31144714355474, 23.96058273315458], [92.3133392333985, 23.9609699249267], [92.31262969970732, 23.970211029052734], [92.31521606445318, 23.970951080322436], [92.31498718261736, 23.972169876098917], [92.31768035888689, 23.97210121154808], [92.3196411132813, 23.97532081604004], [92.32206726074236, 23.975250244140625], [92.32274627685575, 23.97981071472168], [92.3241195678711, 23.9794597625733], [92.3255233764649, 23.983261108398438], [92.3277893066408, 23.984701156616154], [92.32772064209013, 23.98573112487793], [92.32579803466825, 23.98747062683111], [92.3290557861331, 23.98965072631836], [92.32723999023443, 24.001920700073242], [92.32746124267584, 24.004209518432617], [92.32464599609403, 24.00653076171875], [92.31716156005865, 24.017629623413143], [92.31748199462908, 24.018899917602823], [92.31886291503912, 24.019201278686637], [92.32087707519531, 24.017908096313704], [92.3217163085938, 24.018779754638786], [92.31833648681669, 24.02259063720703], [92.31909942626982, 24.02547073364252], [92.31669616699236, 24.027971267700195], [92.31926727294928, 24.030241012573526], [92.31932067871122, 24.03128051757824], [92.3141326904298, 24.034711837768555], [92.31719970703153, 24.037500381469727], [92.31754302978521, 24.039520263672046], [92.31542205810553, 24.04490089416521], [92.3152694702149, 24.048690795898438], [92.3168258666995, 24.05135154724144], [92.31904602050787, 24.05011940002464], [92.3203201293947, 24.051170349121094], [92.31859588623064, 24.057302474975643], [92.32174682617193, 24.058719635009766], [92.31909179687511, 24.06133079528837], [92.31680297851574, 24.066759109497127], [92.31817626953153, 24.06908035278326], [92.31918334960955, 24.069498062133732], [92.3212966918947, 24.06837081909191], [92.3233184814456, 24.06961059570324], [92.32287597656256, 24.071790695190657], [92.32364654541021, 24.073289871215934], [92.32733154296903, 24.07450294494629], [92.32701873779314, 24.07644271850586], [92.32287597656256, 24.07695960998535], [92.32282257080095, 24.077480316162166], [92.3280792236331, 24.080591201782227], [92.3290786743164, 24.082160949707088], [92.32811737060541, 24.08502006530773], [92.32878112792974, 24.089120864868278], [92.3279190063476, 24.09376907348627], [92.33019256591825, 24.095981597900447], [92.33155059814447, 24.098751068115234], [92.32834625244158, 24.09859848022461], [92.32971191406256, 24.101150512695312], [92.32943725585966, 24.102870941162394], [92.33230590820307, 24.1052703857423], [92.33235931396501, 24.106809616088867], [92.3293228149414, 24.11033821105957], [92.33188629150419, 24.11176109313982], [92.33170318603544, 24.11314010620123], [92.32859039306646, 24.115909576416186], [92.32824707031261, 24.124591827392635], [92.33103942871094, 24.127971649169922], [92.32878112792974, 24.12972068786621], [92.32924652099638, 24.131620407104492], [92.32816314697283, 24.135169982910213], [92.32824707031261, 24.13862037658714], [92.32924652099638, 24.139850616455135], [92.33230590820307, 24.140459060669116], [92.33228302001982, 24.144029617309684], [92.33352661132818, 24.144329071045092], [92.33529663085943, 24.143550872802678], [92.33631134033197, 24.144359588623047], [92.33683776855497, 24.146789550781477], [92.33435058593761, 24.150829315185547], [92.3318481445313, 24.163570404052678], [92.32946777343767, 24.164520263671932], [92.32855987548828, 24.166112899780444], [92.32993316650396, 24.174650192260856], [92.32998657226591, 24.18004989624046], [92.33080291748064, 24.18207168579096], [92.33040618896479, 24.18483161926298], [92.32704162597662, 24.186109542846793], [92.32961273193388, 24.18815040588396], [92.32884216308622, 24.18913078308134], [92.32945251464838, 24.19115066528326], [92.32476043701178, 24.194761276245117], [92.32470703125017, 24.196311950683594], [92.32556915283209, 24.197540283203182], [92.32514953613287, 24.199020385742188], [92.32022094726568, 24.202579498291243], [92.32019805908209, 24.204299926757756], [92.32480621337896, 24.20470809936529], [92.32460784912115, 24.205789566040096], [92.31899261474626, 24.20899963378912], [92.31608581542997, 24.213218688964957], [92.31273651123053, 24.21099090576189], [92.30974578857433, 24.21479988098156], [92.30966949462908, 24.21612167358421], [92.31359863281278, 24.22113037109375], [92.31375122070324, 24.222900390625227], [92.30341339111334, 24.22162055969244], [92.30088043212908, 24.222040176391715], [92.30116271972668, 24.224510192871037], [92.3019332885745, 24.225101470947322], [92.29763031005876, 24.227228164672795], [92.29917144775408, 24.22936820983915], [92.29946899414091, 24.23162078857422], [92.29631042480486, 24.233829498291016], [92.29627990722673, 24.236061096191634], [92.29682159423857, 24.23807907104498], [92.29485321044928, 24.240709304809627], [92.29406738281256, 24.244321823120288], [92.2953033447265, 24.24801063537592], [92.29709625244146, 24.24954032897955], [92.29660797119169, 24.251729965209904], [92.30349731445341, 24.25269126892084], [92.31050109863287, 24.25134849548334], [92.3140716552735, 24.252601623535156], [92.37652587890653, 24.251310348511026], [92.39570617675787, 24.252529144287337], [92.40683746337919, 24.251939773559798], [92.41645050048845, 24.253429412841967], [92.42237854003923, 24.253110885620117], [92.42253112792963, 24.248170852661246], [92.42005157470697, 24.235202789306868], [92.4185180664062, 24.221649169921818], [92.42018127441418, 24.217889785766545], [92.41822052001959, 24.21091079711914], [92.41971588134783, 24.202470779418945], [92.41897583007818, 24.194360733032283], [92.42214965820307, 24.18852996826172], [92.43321228027338, 24.183269500732422], [92.43419647216814, 24.18138122558605], [92.43445587158209, 24.174140930175895], [92.43775177001982, 24.170499801635913], [92.43814086914091, 24.16913032531761], [92.43522644042974, 24.162578582763786], [92.43656921386724, 24.15242958068859], [92.43743133544939, 24.15135002136236], [92.43875885009783, 24.1512508392334], [92.44182586669939, 24.152851104736442], [92.4438858032226, 24.15309906005865], [92.45063018798828, 24.143690109253157], [92.45722198486357, 24.14350128173828], [92.46306610107428, 24.136369705200252], [92.46483612060575, 24.136631011963175], [92.46597290039091, 24.134750366211165], [92.4668273925783, 24.13504028320324], [92.4685897827149, 24.138000488281477], [92.4733505249024, 24.139961242676065], [92.47332000732439, 24.142030715942383], [92.47482299804705, 24.142910003662166], [92.47960662841814, 24.140899658203182], [92.48087310791044, 24.141321182251033], [92.48149871826189, 24.142940521240348], [92.47875213623075, 24.148710250854606], [92.48062896728521, 24.150110244751033], [92.48065948486357, 24.152299880981445], [92.48293304443371, 24.152719497680664], [92.4835586547851, 24.153930664062443], [92.481185913086, 24.157079696655558], [92.48264312744158, 24.15709114074707], [92.48396301269548, 24.158140182495117], [92.4849014282226, 24.15930938720703], [92.48493957519548, 24.161380767822493], [92.4858627319336, 24.162200927734375], [92.4880828857423, 24.16221809387207], [92.49475860595714, 24.159940719604776], [92.50013732910185, 24.16052055358915], [92.50245666503906, 24.16211128234869], [92.50325775146501, 24.166669845580998], [92.50488281250028, 24.16731071472168], [92.50678253173857, 24.16682052612299], [92.50953674316423, 24.162889480590877], [92.51283264160162, 24.162578582763786], [92.51200103759783, 24.16481971740734], [92.50863647460943, 24.169200897217024], [92.51373291015642, 24.169260025024585], [92.51479339599638, 24.170200347900675], [92.5135726928711, 24.17358016967779], [92.51512908935553, 24.175487518310604], [92.51759338378912, 24.17621040344261], [92.5217590332033, 24.172929763793945], [92.52539825439453, 24.172929763793945], [92.52966308593761, 24.174800872802848], [92.52990722656244, 24.176410675048828], [92.53151702880865, 24.177419662475586], [92.53289031982428, 24.180530548095817], [92.53346252441412, 24.18083190917963], [92.53147888183611, 24.183460235595703], [92.53781890869146, 24.196470260620117], [92.53639984130854, 24.199899673462028], [92.53726959228521, 24.20193099975586], [92.54147338867193, 24.206228256225643], [92.54242706298834, 24.21062088012701], [92.54223632812506, 24.21417808532715], [92.54574584960932, 24.219900131225586], [92.54738616943365, 24.22440910339367], [92.54778289794933, 24.231889724731502], [92.54693603515642, 24.234760284423828], [92.5470962524414, 24.23769950866705], [92.54882812500017, 24.243230819702205], [92.55063629150396, 24.24589920043951], [92.55893707275408, 24.24789047241211], [92.5645599365235, 24.250089645385742], [92.58184051513689, 24.245359420776595], [92.58801269531256, 24.244861602783203], [92.59140014648443, 24.245981216430664], [92.59356689453136, 24.24858856201172], [92.59596252441423, 24.24930953979515], [92.60595703125011, 24.24920082092285], [92.60795593261736, 24.250080108642805], [92.61158752441423, 24.25334930419922], [92.61308288574219, 24.255838394164982], [92.61550903320341, 24.263620376587028], [92.61576843261736, 24.270530700683594], [92.61682128906256, 24.275310516357536], [92.61904144287126, 24.28132057189947], [92.61940002441423, 24.286779403686637], [92.61905670166021, 24.28787040710455], [92.61723327636747, 24.289060592651424], [92.6167831420899, 24.291231155395735], [92.61830902099615, 24.299709320068473], [92.61802673339838, 24.304359436035213], [92.61963653564459, 24.30846023559576], [92.61943817138678, 24.311508178710938], [92.62310028076178, 24.320289611816406], [92.62335205078153, 24.33077049255371], [92.62428283691435, 24.332651138305778], [92.62616729736334, 24.334472656250227], [92.6306381225586, 24.333370208740234], [92.63590240478527, 24.335741043090934], [92.63771820068376, 24.335519790649528], [92.638236999512, 24.334430694580192], [92.63654327392578, 24.334238052368107], [92.63668823242216, 24.33269119262701], [92.63925933837908, 24.33175086975092], [92.63983917236328, 24.329730987548828], [92.64099121093756, 24.3287105560305], [92.64501190185553, 24.32767105102539], [92.64594268798828, 24.329231262206974], [92.64524841308605, 24.33180999755882], [92.64904022216803, 24.32875061035179], [92.64978027343756, 24.329221725463867], [92.649398803711, 24.330820083618164], [92.65184020996111, 24.330339431762752], [92.65203857421892, 24.332860946655273], [92.65239715576189, 24.335290908813704], [92.6564559936524, 24.33912086486822], [92.65759277343756, 24.34155082702648], [92.65751647949213, 24.343509674072322], [92.65847015380854, 24.34346008300787], [92.6607208251956, 24.345149993896428], [92.66224670410185, 24.34343910217285], [92.66323089599604, 24.343799591064567], [92.66410827636724, 24.346740722656364], [92.66525268554693, 24.345211029052734], [92.66699981689464, 24.345609664916992], [92.67478179931646, 24.349800109863395], [92.67964172363276, 24.347780227661076], [92.68379974365263, 24.347480773925895], [92.6840209960937, 24.34988975524908], [92.68799591064482, 24.352010726928825], [92.69066619873075, 24.354801177978572], [92.6916732788086, 24.356420516967887], [92.69177246093756, 24.362169265747127], [92.69391632080107, 24.36363029479986], [92.69420623779303, 24.364959716796875], [92.69325256347662, 24.367820739746094], [92.6950073242188, 24.369569778442383], [92.69687652587896, 24.37400054931652], [92.69827270507824, 24.374961853027457], [92.70240783691412, 24.375232696533317], [92.7041091918947, 24.376220703125057], [92.70343780517607, 24.383800506591854], [92.7074508666995, 24.387010574340934], [92.70742034912115, 24.392410278320312], [92.71421813964861, 24.405321121215934], [92.71412658691435, 24.407779693603516], [92.71508789062528, 24.40876960754406], [92.71420288085955, 24.410369873046932], [92.71411895751982, 24.41296005249046], [92.71511840820307, 24.414520263671875], [92.71813964843778, 24.41621971130371], [92.72376251220703, 24.435949325561637], [92.73053741455107, 24.452751159668026], [92.74360656738287, 24.474628448486442], [92.74884033203153, 24.488540649414062], [92.75077819824213, 24.491491317748967], [92.75132751464872, 24.49436950683605], [92.7545013427735, 24.501119613647518], [92.75364685058588, 24.507041931152344], [92.75918579101562, 24.51176071167015], [92.76451110839838, 24.51883125305187], [92.7651977539063, 24.520849227905387], [92.7791366577149, 24.486499786376953], [92.78222656250028, 24.47480010986328], [92.78437805175798, 24.47120285034191], [92.78624725341825, 24.463739395141545], [92.78987884521479, 24.45607948303234], [92.79390716552734, 24.444040298462028], [92.79778289794928, 24.43470954895031], [92.80031585693371, 24.431970596313533], [92.80284881591791, 24.427280426025447], [92.80425262451172, 24.422990798950195], [92.80381774902344, 24.421722412109318], [92.80004882812517, 24.421461105346793], [92.80079650878923, 24.419050216674805]]]}}